{
"type": "FeatureCollection",
"name": "hutan",
"features": [
{ "type": "Feature", "properties": { "GM_LAYER": "Unknown Area Type", "LAYER": "Unknown Area Type", "MAP_NAME": "Hutan", "id": null, "LUAS": "10335", "PERIMETER": "586.25 m", "ENCLOSED_A": "0.4031 ha" }, "geometry": { "type": "MultiPolygon", "coordinates": [ [ [ [ 111.939908, -7.194415 ], [ 111.939929, -7.194354 ], [ 111.939934, -7.19434 ], [ 111.939934, -7.194339 ], [ 111.939935, -7.194337 ], [ 111.940021, -7.194224 ], [ 111.940137, -7.194143 ], [ 111.940186, -7.194128 ], [ 111.940205, -7.194131 ], [ 111.940224, -7.194134 ], [ 111.940242, -7.194138 ], [ 111.940279, -7.19415 ], [ 111.940327, -7.194169 ], [ 111.940403, -7.194199 ], [ 111.940505, -7.194246 ], [ 111.940612, -7.194299 ], [ 111.940593, -7.19434 ], [ 111.94023, -7.194197 ], [ 111.94022, -7.194195 ], [ 111.940212, -7.194201 ], [ 111.940163, -7.194287 ], [ 111.940156, -7.194325 ], [ 111.940156, -7.194331 ], [ 111.940158, -7.194338 ], [ 111.940218, -7.194356 ], [ 111.940218, -7.194366 ], [ 111.940214, -7.194386 ], [ 111.940197, -7.194425 ], [ 111.940193, -7.194447 ], [ 111.9402, -7.194461 ], [ 111.940269, -7.19449 ], [ 111.940418, -7.194586 ], [ 111.940448, -7.194632 ], [ 111.940497, -7.19468 ], [ 111.940498, -7.194684 ], [ 111.940497, -7.194688 ], [ 111.940475, -7.194725 ], [ 111.94047, -7.194746 ], [ 111.940468, -7.194771 ], [ 111.94047, -7.194798 ], [ 111.940489, -7.194831 ], [ 111.940516, -7.194863 ], [ 111.940558, -7.1949 ], [ 111.940633, -7.19495 ], [ 111.940649, -7.19495 ], [ 111.940658, -7.194944 ], [ 111.94071, -7.194816 ], [ 111.940722, -7.194805 ], [ 111.940733, -7.1948 ], [ 111.940747, -7.194801 ], [ 111.940756, -7.194806 ], [ 111.940806, -7.194843 ], [ 111.940863, -7.194917 ], [ 111.940907, -7.194998 ], [ 111.940931, -7.195096 ], [ 111.940951, -7.195206 ], [ 111.940954, -7.195283 ], [ 111.940733, -7.195262 ], [ 111.940752, -7.195133 ], [ 111.940644, -7.195102 ], [ 111.940636, -7.195145 ], [ 111.940455, -7.195112 ], [ 111.940475, -7.195021 ], [ 111.940391, -7.195 ], [ 111.940351, -7.195132 ], [ 111.940215, -7.195088 ], [ 111.94036, -7.194576 ], [ 111.939908, -7.194415 ] ] ] ] } },
{ "type": "Feature", "properties": { "GM_LAYER": "Unknown Area Type", "LAYER": "Unknown Area Type", "MAP_NAME": "Hutan", "id": null, "LUAS": "11641", "PERIMETER": "728.13 m", "ENCLOSED_A": "1.087 ha" }, "geometry": { "type": "MultiPolygon", "coordinates": [ [ [ [ 111.940427, -7.198536 ], [ 111.940391, -7.198275 ], [ 111.940442, -7.198169 ], [ 111.940649, -7.197728 ], [ 111.940732, -7.197575 ], [ 111.940896, -7.197197 ], [ 111.940937, -7.197186 ], [ 111.940956, -7.197241 ], [ 111.940964, -7.197258 ], [ 111.940974, -7.197278 ], [ 111.940989, -7.197299 ], [ 111.941123, -7.197465 ], [ 111.941145, -7.197496 ], [ 111.941162, -7.197524 ], [ 111.941185, -7.197568 ], [ 111.941196, -7.197598 ], [ 111.941201, -7.197615 ], [ 111.941206, -7.197638 ], [ 111.941211, -7.197693 ], [ 111.941211, -7.197733 ], [ 111.941204, -7.197797 ], [ 111.941197, -7.197846 ], [ 111.941185, -7.197898 ], [ 111.941151, -7.198035 ], [ 111.941108, -7.198174 ], [ 111.940814, -7.198081 ], [ 111.940778, -7.198183 ], [ 111.940907, -7.19823 ], [ 111.94086, -7.198359 ], [ 111.940748, -7.198332 ], [ 111.940701, -7.198557 ], [ 111.940679, -7.198553 ], [ 111.940637, -7.198751 ], [ 111.94095, -7.198799 ], [ 111.940936, -7.198868 ], [ 111.940962, -7.198873 ], [ 111.941488, -7.198988 ], [ 111.940529, -7.199276 ], [ 111.940464, -7.198803 ], [ 111.940512, -7.198615 ], [ 111.940507, -7.198597 ], [ 111.9405, -7.198582 ], [ 111.940483, -7.198569 ], [ 111.940459, -7.198558 ], [ 111.940427, -7.198536 ] ] ] ] } },
{ "type": "Feature", "properties": { "GM_LAYER": "Unknown Area Type", "LAYER": "Unknown Area Type", "MAP_NAME": "Hutan", "id": null, "LUAS": "3684", "PERIMETER": "195.61 m", "ENCLOSED_A": "0.2257 ha" }, "geometry": { "type": "MultiPolygon", "coordinates": [ [ [ [ 111.93213, -7.211159 ], [ 111.932116, -7.211138 ], [ 111.93213, -7.211037 ], [ 111.932154, -7.21092 ], [ 111.932158, -7.210884 ], [ 111.932399, -7.210902 ], [ 111.9324, -7.210902 ], [ 111.932723, -7.210848 ], [ 111.932705, -7.210923 ], [ 111.932684, -7.210989 ], [ 111.932655, -7.211077 ], [ 111.932625, -7.211138 ], [ 111.932586, -7.211182 ], [ 111.932525, -7.211255 ], [ 111.932462, -7.211316 ], [ 111.932449, -7.211317 ], [ 111.932394, -7.211281 ], [ 111.932242, -7.211206 ], [ 111.93213, -7.211159 ] ] ] ] } },
{ "type": "Feature", "properties": { "GM_LAYER": "Unknown Area Type", "LAYER": "Unknown Area Type", "MAP_NAME": "Hutan", "id": null, "LUAS": "5489", "PERIMETER": "497.31 m", "ENCLOSED_A": "0.548 ha" }, "geometry": { "type": "MultiPolygon", "coordinates": [ [ [ [ 111.850196, -7.204517 ], [ 111.850291, -7.204284 ], [ 111.850412, -7.204307 ], [ 111.850423, -7.204255 ], [ 111.850556, -7.204287 ], [ 111.850593, -7.204134 ], [ 111.850644, -7.204146 ], [ 111.850656, -7.204096 ], [ 111.850804, -7.204127 ], [ 111.850785, -7.204197 ], [ 111.850843, -7.204218 ], [ 111.850834, -7.204245 ], [ 111.850878, -7.20426 ], [ 111.850903, -7.2042 ], [ 111.851044, -7.204343 ], [ 111.850972, -7.204474 ], [ 111.851012, -7.204497 ], [ 111.851165, -7.204542 ], [ 111.851266, -7.204586 ], [ 111.851285, -7.204545 ], [ 111.851401, -7.204596 ], [ 111.851375, -7.204634 ], [ 111.851348, -7.204669 ], [ 111.851252, -7.204759 ], [ 111.851194, -7.204755 ], [ 111.850994, -7.204645 ], [ 111.850913, -7.204782 ], [ 111.850981, -7.204817 ], [ 111.851138, -7.204901 ], [ 111.851136, -7.204933 ], [ 111.851138, -7.204987 ], [ 111.85104, -7.204985 ], [ 111.850972, -7.204962 ], [ 111.850999, -7.204887 ], [ 111.85092, -7.204859 ], [ 111.850897, -7.20493 ], [ 111.850797, -7.204895 ], [ 111.850815, -7.204805 ], [ 111.850561, -7.204745 ], [ 111.850597, -7.204631 ], [ 111.850196, -7.204517 ] ] ] ] } },
{ "type": "Feature", "properties": { "GM_LAYER": "Unknown Area Type", "LAYER": "Unknown Area Type", "MAP_NAME": "Hutan", "id": null, "LUAS": "23607", "PERIMETER": "670.04 m", "ENCLOSED_A": "1.034 ha" }, "geometry": { "type": "MultiPolygon", "coordinates": [ [ [ [ 111.880453, -7.213592 ], [ 111.880476, -7.213552 ], [ 111.880687, -7.213313 ], [ 111.880715, -7.213297 ], [ 111.880775, -7.213273 ], [ 111.881107, -7.212975 ], [ 111.881193, -7.212932 ], [ 111.881245, -7.212912 ], [ 111.881496, -7.212823 ], [ 111.881619, -7.212784 ], [ 111.88176, -7.212751 ], [ 111.881897, -7.212745 ], [ 111.881994, -7.212736 ], [ 111.882087, -7.212743 ], [ 111.882208, -7.212772 ], [ 111.882291, -7.212799 ], [ 111.882455, -7.212768 ], [ 111.882459, -7.21277 ], [ 111.882466, -7.212773 ], [ 111.882727, -7.212877 ], [ 111.882718, -7.212878 ], [ 111.882691, -7.212887 ], [ 111.88267, -7.212899 ], [ 111.882648, -7.212901 ], [ 111.882625, -7.212899 ], [ 111.882612, -7.212897 ], [ 111.88259, -7.212898 ], [ 111.882544, -7.2129 ], [ 111.882501, -7.212901 ], [ 111.882423, -7.212888 ], [ 111.882394, -7.212892 ], [ 111.88236, -7.212907 ], [ 111.88235, -7.212926 ], [ 111.882339, -7.212937 ], [ 111.882324, -7.212937 ], [ 111.882302, -7.212934 ], [ 111.882288, -7.212921 ], [ 111.882266, -7.212892 ], [ 111.882243, -7.212883 ], [ 111.882175, -7.212852 ], [ 111.882109, -7.212838 ], [ 111.882062, -7.21283 ], [ 111.881999, -7.212827 ], [ 111.881992, -7.212827 ], [ 111.881991, -7.212854 ], [ 111.882003, -7.212926 ], [ 111.882022, -7.213011 ], [ 111.882031, -7.213034 ], [ 111.882037, -7.213042 ], [ 111.882044, -7.213047 ], [ 111.88205, -7.213057 ], [ 111.882053, -7.213072 ], [ 111.882055, -7.213086 ], [ 111.882049, -7.213096 ], [ 111.882033, -7.213113 ], [ 111.882017, -7.213121 ], [ 111.881999, -7.21312 ], [ 111.881992, -7.213123 ], [ 111.881986, -7.21313 ], [ 111.881982, -7.213156 ], [ 111.881979, -7.213172 ], [ 111.88198, -7.2132 ], [ 111.881991, -7.213218 ], [ 111.882001, -7.213232 ], [ 111.882021, -7.213268 ], [ 111.882037, -7.213267 ], [ 111.882062, -7.213266 ], [ 111.882081, -7.213273 ], [ 111.882101, -7.213286 ], [ 111.882117, -7.213309 ], [ 111.882121, -7.213324 ], [ 111.882117, -7.21334 ], [ 111.882093, -7.213354 ], [ 111.882065, -7.213369 ], [ 111.882037, -7.213373 ], [ 111.881997, -7.21337 ], [ 111.88197, -7.21337 ], [ 111.881953, -7.213374 ], [ 111.881939, -7.213391 ], [ 111.881914, -7.213408 ], [ 111.88189, -7.213408 ], [ 111.881875, -7.213402 ], [ 111.881857, -7.213386 ], [ 111.881842, -7.21337 ], [ 111.881818, -7.213347 ], [ 111.881785, -7.213332 ], [ 111.88174, -7.213324 ], [ 111.88169, -7.213323 ], [ 111.881563, -7.213337 ], [ 111.881437, -7.213366 ], [ 111.881306, -7.213398 ], [ 111.881167, -7.213442 ], [ 111.8811, -7.213482 ], [ 111.881017, -7.213535 ], [ 111.880962, -7.213576 ], [ 111.880904, -7.21363 ], [ 111.880752, -7.213863 ], [ 111.880453, -7.213592 ] ] ] ] } },
{ "type": "Feature", "properties": { "GM_LAYER": "Unknown Area Type", "LAYER": "Unknown Area Type", "MAP_NAME": "Hutan", "id": null, "LUAS": "23607", "PERIMETER": "125.42 m", "ENCLOSED_A": "0.0538 ha" }, "geometry": { "type": "MultiPolygon", "coordinates": [ [ [ [ 111.883379, -7.213128 ], [ 111.883381, -7.213126 ], [ 111.883403, -7.213111 ], [ 111.883434, -7.213107 ], [ 111.883462, -7.213101 ], [ 111.883481, -7.213096 ], [ 111.883537, -7.213032 ], [ 111.883541, -7.213026 ], [ 111.883703, -7.213049 ], [ 111.883711, -7.213074 ], [ 111.883743, -7.213108 ], [ 111.883761, -7.213139 ], [ 111.883766, -7.213191 ], [ 111.883739, -7.213216 ], [ 111.883708, -7.213219 ], [ 111.883672, -7.21321 ], [ 111.883634, -7.213175 ], [ 111.88359, -7.213138 ], [ 111.883556, -7.213113 ], [ 111.883532, -7.213114 ], [ 111.883506, -7.213133 ], [ 111.883503, -7.21315 ], [ 111.883522, -7.213182 ], [ 111.88353, -7.213208 ], [ 111.883518, -7.213228 ], [ 111.88347, -7.213234 ], [ 111.883435, -7.213211 ], [ 111.883417, -7.213187 ], [ 111.883402, -7.213175 ], [ 111.883379, -7.213128 ] ] ] ] } },
{ "type": "Feature", "properties": { "GM_LAYER": "Unknown Area Type", "LAYER": "Unknown Area Type", "MAP_NAME": "Hutan", "id": null, "LUAS": "28786", "PERIMETER": "1.482 km", "ENCLOSED_A": "2.526 ha" }, "geometry": { "type": "MultiPolygon", "coordinates": [ [ [ [ 111.925777, -7.210783 ], [ 111.925772, -7.21077 ], [ 111.925982, -7.210813 ], [ 111.926685, -7.210838 ], [ 111.926893, -7.210792 ], [ 111.92712, -7.210819 ], [ 111.927077, -7.210986 ], [ 111.927661, -7.211126 ], [ 111.927963, -7.211238 ], [ 111.928199, -7.211361 ], [ 111.928, -7.212271 ], [ 111.928382, -7.212389 ], [ 111.928518, -7.212471 ], [ 111.928696, -7.212371 ], [ 111.929049, -7.212059 ], [ 111.929332, -7.211735 ], [ 111.929336, -7.211259 ], [ 111.929238, -7.210667 ], [ 111.929358, -7.210676 ], [ 111.929354, -7.210711 ], [ 111.929371, -7.210818 ], [ 111.929407, -7.210926 ], [ 111.929424, -7.211026 ], [ 111.929456, -7.211092 ], [ 111.929506, -7.211123 ], [ 111.929533, -7.211155 ], [ 111.929533, -7.211197 ], [ 111.929506, -7.211238 ], [ 111.929508, -7.211272 ], [ 111.929521, -7.211338 ], [ 111.929544, -7.211431 ], [ 111.929561, -7.211512 ], [ 111.929556, -7.211602 ], [ 111.929524, -7.211706 ], [ 111.929437, -7.211831 ], [ 111.929322, -7.211974 ], [ 111.929268, -7.212084 ], [ 111.929243, -7.212146 ], [ 111.929195, -7.212215 ], [ 111.929117, -7.212307 ], [ 111.929046, -7.212329 ], [ 111.928982, -7.212346 ], [ 111.92895, -7.212389 ], [ 111.928945, -7.212422 ], [ 111.928968, -7.21248 ], [ 111.928955, -7.212536 ], [ 111.928876, -7.212598 ], [ 111.928843, -7.212651 ], [ 111.928808, -7.212714 ], [ 111.928807, -7.212722 ], [ 111.928351, -7.212732 ], [ 111.928348, -7.212732 ], [ 111.928346, -7.212732 ], [ 111.928343, -7.212732 ], [ 111.927913, -7.212735 ], [ 111.92791, -7.212733 ], [ 111.927827, -7.212647 ], [ 111.92772, -7.212542 ], [ 111.92764, -7.212455 ], [ 111.927869, -7.211866 ], [ 111.92684, -7.211357 ], [ 111.926817, -7.211478 ], [ 111.926817, -7.211478 ], [ 111.926782, -7.211466 ], [ 111.926717, -7.211447 ], [ 111.926648, -7.211424 ], [ 111.926601, -7.2114 ], [ 111.926557, -7.211375 ], [ 111.926488, -7.21134 ], [ 111.926436, -7.211308 ], [ 111.926339, -7.211243 ], [ 111.92624, -7.211176 ], [ 111.926141, -7.211105 ], [ 111.926008, -7.211005 ], [ 111.925914, -7.210935 ], [ 111.925855, -7.210884 ], [ 111.925813, -7.21084 ], [ 111.925798, -7.210817 ], [ 111.925777, -7.210783 ] ] ] ] } },
{ "type": "Feature", "properties": { "GM_LAYER": "Unknown Area Type", "LAYER": "Unknown Area Type", "MAP_NAME": "Hutan", "id": null, "LUAS": "26750", "PERIMETER": "821.52 m", "ENCLOSED_A": "1.587 ha" }, "geometry": { "type": "MultiPolygon", "coordinates": [ [ [ [ 111.925691, -7.212821 ], [ 111.925677, -7.212264 ], [ 111.925918, -7.212253 ], [ 111.926019, -7.211566 ], [ 111.925745, -7.211478 ], [ 111.925807, -7.210919 ], [ 111.925745, -7.210786 ], [ 111.925759, -7.210804 ], [ 111.925791, -7.210855 ], [ 111.925819, -7.210881 ], [ 111.925843, -7.210903 ], [ 111.925942, -7.210981 ], [ 111.926173, -7.211154 ], [ 111.926349, -7.211278 ], [ 111.926514, -7.211384 ], [ 111.926648, -7.211458 ], [ 111.92681, -7.211504 ], [ 111.926812, -7.211505 ], [ 111.926828, -7.211515 ], [ 111.926839, -7.211527 ], [ 111.926844, -7.211538 ], [ 111.926845, -7.211548 ], [ 111.926831, -7.211614 ], [ 111.926481, -7.211552 ], [ 111.926447, -7.212085 ], [ 111.92669, -7.212163 ], [ 111.926652, -7.21257 ], [ 111.927107, -7.212643 ], [ 111.927089, -7.21274 ], [ 111.926767, -7.212734 ], [ 111.926616, -7.21275 ], [ 111.92661, -7.212751 ], [ 111.926604, -7.212751 ], [ 111.926598, -7.212752 ], [ 111.925691, -7.212821 ] ] ] ] } },
{ "type": "Feature", "properties": { "GM_LAYER": "Unknown Area Type", "LAYER": "Unknown Area Type", "MAP_NAME": "Hutan", "id": null, "LUAS": "14632", "PERIMETER": "935.65 m", "ENCLOSED_A": "0.791 ha" }, "geometry": { "type": "MultiPolygon", "coordinates": [ [ [ [ 111.928911, -7.21272 ], [ 111.928924, -7.212696 ], [ 111.928977, -7.212624 ], [ 111.929017, -7.212563 ], [ 111.929072, -7.212522 ], [ 111.929122, -7.212452 ], [ 111.929165, -7.212371 ], [ 111.929229, -7.212324 ], [ 111.929275, -7.21229 ], [ 111.929327, -7.212247 ], [ 111.92939, -7.212121 ], [ 111.929454, -7.212016 ], [ 111.929541, -7.211867 ], [ 111.929593, -7.211748 ], [ 111.92962, -7.211589 ], [ 111.929611, -7.211492 ], [ 111.929589, -7.211412 ], [ 111.929579, -7.211333 ], [ 111.929564, -7.21125 ], [ 111.929587, -7.211189 ], [ 111.929578, -7.21114 ], [ 111.929548, -7.211081 ], [ 111.929545, -7.211013 ], [ 111.929524, -7.210959 ], [ 111.929493, -7.21091 ], [ 111.929466, -7.210834 ], [ 111.929459, -7.210748 ], [ 111.929463, -7.210684 ], [ 111.9296, -7.210694 ], [ 111.929526, -7.21084 ], [ 111.929739, -7.211203 ], [ 111.929975, -7.211283 ], [ 111.929912, -7.211421 ], [ 111.930094, -7.211477 ], [ 111.930189, -7.2113 ], [ 111.930252, -7.21132 ], [ 111.93024, -7.211334 ], [ 111.930206, -7.211363 ], [ 111.93017, -7.211427 ], [ 111.930043, -7.21175 ], [ 111.930119, -7.211771 ], [ 111.930039, -7.212005 ], [ 111.930001, -7.212136 ], [ 111.929995, -7.212306 ], [ 111.929982, -7.212511 ], [ 111.929971, -7.212584 ], [ 111.929944, -7.212685 ], [ 111.929858, -7.212662 ], [ 111.929878, -7.212624 ], [ 111.929904, -7.212388 ], [ 111.929939, -7.212202 ], [ 111.930032, -7.21183 ], [ 111.930025, -7.211816 ], [ 111.929804, -7.211762 ], [ 111.929728, -7.211851 ], [ 111.929686, -7.211959 ], [ 111.92964, -7.212017 ], [ 111.929582, -7.212174 ], [ 111.929566, -7.212228 ], [ 111.929551, -7.212314 ], [ 111.929547, -7.212375 ], [ 111.929578, -7.212404 ], [ 111.929648, -7.212485 ], [ 111.929683, -7.212549 ], [ 111.929699, -7.212616 ], [ 111.929261, -7.212541 ], [ 111.929208, -7.212714 ], [ 111.928911, -7.21272 ] ] ] ] } },
{ "type": "Feature", "properties": { "GM_LAYER": "Unknown Area Type", "LAYER": "Unknown Area Type", "MAP_NAME": "Hutan", "id": null, "LUAS": "14632", "PERIMETER": "187.03 m", "ENCLOSED_A": "0.1463 ha" }, "geometry": { "type": "MultiPolygon", "coordinates": [ [ [ [ 111.930859, -7.21105 ], [ 111.930877, -7.210936 ], [ 111.930653, -7.210772 ], [ 111.931284, -7.210819 ], [ 111.93124, -7.211097 ], [ 111.931169, -7.211086 ], [ 111.930984, -7.211053 ], [ 111.930919, -7.211047 ], [ 111.930883, -7.211047 ], [ 111.930859, -7.21105 ] ] ] ] } },
{ "type": "Feature", "properties": { "GM_LAYER": "Unknown Area Type", "LAYER": "Unknown Area Type", "MAP_NAME": "Hutan", "id": null, "LUAS": "24133", "PERIMETER": "779.91 m", "ENCLOSED_A": "0.886 ha" }, "geometry": { "type": "MultiPolygon", "coordinates": [ [ [ [ 111.879862, -7.213455 ], [ 111.879881, -7.213457 ], [ 111.879899, -7.213451 ], [ 111.879924, -7.213459 ], [ 111.879939, -7.213448 ], [ 111.879949, -7.213445 ], [ 111.879956, -7.213446 ], [ 111.87999, -7.213398 ], [ 111.880008, -7.213369 ], [ 111.880014, -7.213368 ], [ 111.880048, -7.213378 ], [ 111.880103, -7.213392 ], [ 111.880155, -7.213395 ], [ 111.880199, -7.213398 ], [ 111.88022, -7.213396 ], [ 111.880317, -7.213365 ], [ 111.880398, -7.213294 ], [ 111.880449, -7.213228 ], [ 111.880466, -7.213201 ], [ 111.880473, -7.213186 ], [ 111.88047, -7.213178 ], [ 111.880466, -7.21317 ], [ 111.880453, -7.213164 ], [ 111.88042, -7.213148 ], [ 111.880405, -7.213133 ], [ 111.880405, -7.213126 ], [ 111.880416, -7.213105 ], [ 111.880453, -7.213101 ], [ 111.88052, -7.213079 ], [ 111.88058, -7.21304 ], [ 111.880625, -7.21303 ], [ 111.880682, -7.212999 ], [ 111.880697, -7.212985 ], [ 111.88066, -7.212973 ], [ 111.880584, -7.212947 ], [ 111.880517, -7.21289 ], [ 111.880493, -7.212817 ], [ 111.880523, -7.212758 ], [ 111.880545, -7.212629 ], [ 111.880559, -7.212579 ], [ 111.88061, -7.212449 ], [ 111.880638, -7.212409 ], [ 111.880684, -7.21244 ], [ 111.880744, -7.212377 ], [ 111.880801, -7.21234 ], [ 111.881342, -7.212455 ], [ 111.881355, -7.212475 ], [ 111.881378, -7.212692 ], [ 111.881552, -7.212673 ], [ 111.881585, -7.21259 ], [ 111.88191, -7.212657 ], [ 111.881935, -7.212564 ], [ 111.882039, -7.21258 ], [ 111.882193, -7.212654 ], [ 111.8822, -7.212657 ], [ 111.882409, -7.212748 ], [ 111.882322, -7.212764 ], [ 111.882299, -7.212767 ], [ 111.882284, -7.212765 ], [ 111.882219, -7.212742 ], [ 111.882061, -7.212701 ], [ 111.881965, -7.21269 ], [ 111.881932, -7.212683 ], [ 111.88191, -7.212681 ], [ 111.881887, -7.212687 ], [ 111.881891, -7.212696 ], [ 111.881895, -7.212704 ], [ 111.881887, -7.212711 ], [ 111.88188, -7.212712 ], [ 111.881867, -7.212716 ], [ 111.881857, -7.21271 ], [ 111.881857, -7.212703 ], [ 111.881853, -7.212694 ], [ 111.881848, -7.21269 ], [ 111.88184, -7.212685 ], [ 111.881834, -7.212682 ], [ 111.881823, -7.212683 ], [ 111.881813, -7.21269 ], [ 111.881724, -7.212698 ], [ 111.881448, -7.212773 ], [ 111.88117, -7.212876 ], [ 111.88114, -7.212879 ], [ 111.881104, -7.212891 ], [ 111.881072, -7.212921 ], [ 111.880719, -7.213249 ], [ 111.880667, -7.21326 ], [ 111.880503, -7.213441 ], [ 111.880427, -7.213526 ], [ 111.880397, -7.213579 ], [ 111.879862, -7.213455 ] ] ] ] } },
{ "type": "Feature", "properties": { "GM_LAYER": "Unknown Area Type", "LAYER": "Unknown Area Type", "MAP_NAME": "Hutan", "id": null, "LUAS": "10593", "PERIMETER": "478.78 m", "ENCLOSED_A": "0.723 ha" }, "geometry": { "type": "MultiPolygon", "coordinates": [ [ [ [ 111.883248, -7.213779 ], [ 111.883228, -7.213709 ], [ 111.883403, -7.213648 ], [ 111.883467, -7.213608 ], [ 111.88352, -7.21353 ], [ 111.88354, -7.213446 ], [ 111.883557, -7.213399 ], [ 111.883592, -7.213347 ], [ 111.883632, -7.213323 ], [ 111.883772, -7.213298 ], [ 111.883868, -7.213272 ], [ 111.883958, -7.213257 ], [ 111.884036, -7.21325 ], [ 111.884062, -7.213245 ], [ 111.884304, -7.213277 ], [ 111.88432, -7.213125 ], [ 111.884419, -7.213136 ], [ 111.884638, -7.213189 ], [ 111.884646, -7.213162 ], [ 111.884807, -7.21318 ], [ 111.88487, -7.213184 ], [ 111.884843, -7.213227 ], [ 111.884819, -7.213277 ], [ 111.884783, -7.213382 ], [ 111.884758, -7.213471 ], [ 111.884737, -7.213612 ], [ 111.884727, -7.213633 ], [ 111.884709, -7.213638 ], [ 111.88431, -7.213561 ], [ 111.884235, -7.213553 ], [ 111.884196, -7.213564 ], [ 111.884143, -7.213594 ], [ 111.884129, -7.213609 ], [ 111.884113, -7.213638 ], [ 111.884098, -7.213657 ], [ 111.884083, -7.213656 ], [ 111.883984, -7.213657 ], [ 111.883945, -7.213666 ], [ 111.88392, -7.21368 ], [ 111.883898, -7.213705 ], [ 111.883878, -7.213743 ], [ 111.883871, -7.213759 ], [ 111.883853, -7.213766 ], [ 111.883625, -7.213736 ], [ 111.883601, -7.21374 ], [ 111.883577, -7.213753 ], [ 111.883552, -7.213818 ], [ 111.88354, -7.213862 ], [ 111.883536, -7.213903 ], [ 111.883531, -7.213909 ], [ 111.883339, -7.213882 ], [ 111.883304, -7.213876 ], [ 111.883273, -7.213861 ], [ 111.883257, -7.213838 ], [ 111.883248, -7.213779 ] ] ] ] } },
{ "type": "Feature", "properties": { "GM_LAYER": "Unknown Area Type", "LAYER": "Unknown Area Type", "MAP_NAME": "Hutan", "id": null, "LUAS": "11953", "PERIMETER": "244.56 m", "ENCLOSED_A": "0.1183 ha" }, "geometry": { "type": "MultiPolygon", "coordinates": [ [ [ [ 111.939388, -7.198046 ], [ 111.939404, -7.197911 ], [ 111.940023, -7.19776 ], [ 111.940017, -7.197623 ], [ 111.940276, -7.197594 ], [ 111.940257, -7.197602 ], [ 111.94024, -7.197619 ], [ 111.940184, -7.197762 ], [ 111.939956, -7.197846 ], [ 111.939928, -7.197858 ], [ 111.939921, -7.197861 ], [ 111.939915, -7.197863 ], [ 111.939908, -7.197866 ], [ 111.939844, -7.197891 ], [ 111.939839, -7.197893 ], [ 111.939834, -7.197895 ], [ 111.939828, -7.197897 ], [ 111.939762, -7.197921 ], [ 111.939758, -7.197922 ], [ 111.939755, -7.197923 ], [ 111.939751, -7.197924 ], [ 111.939683, -7.197947 ], [ 111.939679, -7.197949 ], [ 111.939606, -7.197973 ], [ 111.939605, -7.197973 ], [ 111.939535, -7.197996 ], [ 111.939468, -7.198019 ], [ 111.939465, -7.19802 ], [ 111.939459, -7.198022 ], [ 111.939454, -7.198024 ], [ 111.939388, -7.198046 ] ] ] ] } },
{ "type": "Feature", "properties": { "GM_LAYER": "Unknown Area Type", "LAYER": "Unknown Area Type", "MAP_NAME": "Hutan", "id": null, "LUAS": "4440", "PERIMETER": "454.52 m", "ENCLOSED_A": "0.4438 ha" }, "geometry": { "type": "MultiPolygon", "coordinates": [ [ [ [ 111.941113, -7.197408 ], [ 111.941073, -7.197358 ], [ 111.941559, -7.197328 ], [ 111.941567, -7.197145 ], [ 111.941804, -7.19716 ], [ 111.941813, -7.197056 ], [ 111.941952, -7.197054 ], [ 111.941955, -7.197186 ], [ 111.942245, -7.197182 ], [ 111.94223, -7.197384 ], [ 111.94243, -7.197398 ], [ 111.942404, -7.197546 ], [ 111.942377, -7.197547 ], [ 111.942371, -7.197553 ], [ 111.942355, -7.197556 ], [ 111.942274, -7.197552 ], [ 111.94221, -7.197543 ], [ 111.942197, -7.197533 ], [ 111.942193, -7.197528 ], [ 111.942212, -7.197382 ], [ 111.942212, -7.197367 ], [ 111.942207, -7.19736 ], [ 111.942149, -7.197357 ], [ 111.942056, -7.197352 ], [ 111.942052, -7.197357 ], [ 111.942051, -7.197365 ], [ 111.942053, -7.197386 ], [ 111.942058, -7.197414 ], [ 111.942057, -7.197497 ], [ 111.942052, -7.197505 ], [ 111.942033, -7.197508 ], [ 111.941947, -7.197512 ], [ 111.941805, -7.197512 ], [ 111.941562, -7.197492 ], [ 111.941525, -7.197495 ], [ 111.941516, -7.197504 ], [ 111.941511, -7.197528 ], [ 111.941506, -7.197655 ], [ 111.941233, -7.197633 ], [ 111.941219, -7.19758 ], [ 111.9412, -7.197536 ], [ 111.941181, -7.197502 ], [ 111.941159, -7.197468 ], [ 111.941113, -7.197408 ] ] ] ] } },
{ "type": "Feature", "properties": { "GM_LAYER": "Unknown Area Type", "LAYER": "Unknown Area Type", "MAP_NAME": "Hutan", "id": null, "LUAS": "6628", "PERIMETER": "550.47 m", "ENCLOSED_A": "0.622 ha" }, "geometry": { "type": "MultiPolygon", "coordinates": [ [ [ [ 111.852052, -7.204379 ], [ 111.852156, -7.2041 ], [ 111.852262, -7.204024 ], [ 111.852305, -7.203896 ], [ 111.852333, -7.203826 ], [ 111.852285, -7.20381 ], [ 111.852341, -7.203651 ], [ 111.852457, -7.203677 ], [ 111.852619, -7.203711 ], [ 111.85263, -7.203658 ], [ 111.853176, -7.203703 ], [ 111.853159, -7.20381 ], [ 111.853267, -7.203828 ], [ 111.853266, -7.203844 ], [ 111.853411, -7.203867 ], [ 111.853414, -7.203824 ], [ 111.853614, -7.203849 ], [ 111.853637, -7.203886 ], [ 111.853653, -7.203892 ], [ 111.853648, -7.203923 ], [ 111.853599, -7.20393 ], [ 111.853557, -7.203972 ], [ 111.853519, -7.204092 ], [ 111.853494, -7.204078 ], [ 111.853386, -7.204052 ], [ 111.853299, -7.204035 ], [ 111.853184, -7.204023 ], [ 111.85317, -7.204024 ], [ 111.853163, -7.204027 ], [ 111.85316, -7.204052 ], [ 111.853154, -7.204125 ], [ 111.853148, -7.204152 ], [ 111.853141, -7.20416 ], [ 111.853122, -7.204163 ], [ 111.852966, -7.204128 ], [ 111.852888, -7.20411 ], [ 111.852789, -7.204096 ], [ 111.852766, -7.2041 ], [ 111.852732, -7.204108 ], [ 111.852755, -7.203912 ], [ 111.852546, -7.20388 ], [ 111.852512, -7.20411 ], [ 111.852493, -7.204109 ], [ 111.852453, -7.204112 ], [ 111.852424, -7.204118 ], [ 111.852406, -7.20413 ], [ 111.852389, -7.204147 ], [ 111.852292, -7.204467 ], [ 111.852052, -7.204379 ] ] ] ] } },
{ "type": "Feature", "properties": { "GM_LAYER": "Unknown Area Type", "LAYER": "Unknown Area Type", "MAP_NAME": "Hutan", "id": null, "LUAS": "1657", "PERIMETER": "189.57 m", "ENCLOSED_A": "0.1472 ha" }, "geometry": { "type": "MultiPolygon", "coordinates": [ [ [ [ 111.85867, -7.205579 ], [ 111.858683, -7.205432 ], [ 111.858687, -7.205418 ], [ 111.8587, -7.205407 ], [ 111.859097, -7.205263 ], [ 111.859121, -7.205261 ], [ 111.859166, -7.20526 ], [ 111.859215, -7.205269 ], [ 111.859175, -7.205459 ], [ 111.859031, -7.205459 ], [ 111.859027, -7.205575 ], [ 111.859078, -7.205575 ], [ 111.859077, -7.205627 ], [ 111.858861, -7.205609 ], [ 111.858862, -7.20558 ], [ 111.85867, -7.205579 ] ] ] ] } },
{ "type": "Feature", "properties": { "GM_LAYER": "Unknown Area Type", "LAYER": "Unknown Area Type", "MAP_NAME": "Hutan", "id": null, "LUAS": "35544,", "PERIMETER": "388.73 m", "ENCLOSED_A": "0.711 ha" }, "geometry": { "type": "MultiPolygon", "coordinates": [ [ [ [ 111.920425, -7.211156 ], [ 111.920425, -7.211156 ], [ 111.920359, -7.211151 ], [ 111.920375, -7.211118 ], [ 111.920623, -7.210691 ], [ 111.920712, -7.210535 ], [ 111.920959, -7.21012 ], [ 111.920998, -7.210053 ], [ 111.921052, -7.210059 ], [ 111.921052, -7.210059 ], [ 111.921065, -7.210061 ], [ 111.92147, -7.210091 ], [ 111.921432, -7.210195 ], [ 111.920882, -7.21119 ], [ 111.920425, -7.211156 ] ] ] ] } },
{ "type": "Feature", "properties": { "GM_LAYER": "Unknown Area Type", "LAYER": "Unknown Area Type", "MAP_NAME": "Hutan", "id": null, "LUAS": "7199,,", "PERIMETER": "646.93 m", "ENCLOSED_A": "0.733 ha" }, "geometry": { "type": "MultiPolygon", "coordinates": [ [ [ [ 111.854602, -7.204352 ], [ 111.854602, -7.204352 ], [ 111.854588, -7.204395 ], [ 111.854572, -7.20441 ], [ 111.854556, -7.204434 ], [ 111.85454, -7.20446 ], [ 111.854529, -7.204487 ], [ 111.854519, -7.204527 ], [ 111.854511, -7.204571 ], [ 111.854428, -7.204979 ], [ 111.854428, -7.204991 ], [ 111.854419, -7.20499 ], [ 111.854362, -7.204988 ], [ 111.853985, -7.20493 ], [ 111.85397, -7.205068 ], [ 111.85383, -7.205056 ], [ 111.853828, -7.205084 ], [ 111.85364, -7.205079 ], [ 111.853636, -7.205126 ], [ 111.853382, -7.205093 ], [ 111.853146, -7.205055 ], [ 111.853123, -7.205117 ], [ 111.853003, -7.205096 ], [ 111.853039, -7.204988 ], [ 111.853047, -7.204964 ], [ 111.853059, -7.204979 ], [ 111.853089, -7.204992 ], [ 111.853122, -7.205002 ], [ 111.85322, -7.205017 ], [ 111.853232, -7.205016 ], [ 111.853242, -7.205012 ], [ 111.853246, -7.205006 ], [ 111.853279, -7.20481 ], [ 111.853287, -7.204777 ], [ 111.853294, -7.204763 ], [ 111.853314, -7.204758 ], [ 111.85334, -7.204766 ], [ 111.853405, -7.204793 ], [ 111.853418, -7.204794 ], [ 111.853427, -7.204788 ], [ 111.853444, -7.204758 ], [ 111.853456, -7.204728 ], [ 111.853459, -7.204714 ], [ 111.853481, -7.204717 ], [ 111.853548, -7.204733 ], [ 111.853576, -7.204743 ], [ 111.853641, -7.204758 ], [ 111.853721, -7.204755 ], [ 111.853775, -7.204744 ], [ 111.853851, -7.204726 ], [ 111.853874, -7.204717 ], [ 111.853884, -7.204698 ], [ 111.853885, -7.204664 ], [ 111.853887, -7.204648 ], [ 111.853893, -7.204636 ], [ 111.853962, -7.204652 ], [ 111.854049, -7.204654 ], [ 111.854114, -7.204662 ], [ 111.854123, -7.204663 ], [ 111.854175, -7.204667 ], [ 111.854189, -7.204658 ], [ 111.854217, -7.204442 ], [ 111.854225, -7.20439 ], [ 111.854232, -7.204323 ], [ 111.85423, -7.204286 ], [ 111.854227, -7.204279 ], [ 111.854246, -7.204166 ], [ 111.854375, -7.203868 ], [ 111.854378, -7.203857 ], [ 111.854393, -7.203862 ], [ 111.854506, -7.203892 ], [ 111.854501, -7.203908 ], [ 111.854449, -7.204102 ], [ 111.854513, -7.204122 ], [ 111.854481, -7.204237 ], [ 111.85438, -7.204207 ], [ 111.854353, -7.204317 ], [ 111.854573, -7.204384 ], [ 111.85459, -7.204389 ], [ 111.854602, -7.204352 ] ] ] ] } },
{ "type": "Feature", "properties": { "GM_LAYER": "Unknown Area Type", "LAYER": "Unknown Area Type", "MAP_NAME": "Hutan", "id": null, "LUAS": "2883", "PERIMETER": "79.697 m", "ENCLOSED_A": "0.01957 ha" }, "geometry": { "type": "MultiPolygon", "coordinates": [ [ [ [ 111.848574, -7.203374 ], [ 111.848557, -7.203362 ], [ 111.848633, -7.203362 ], [ 111.84864, -7.203362 ], [ 111.848647, -7.203362 ], [ 111.848653, -7.203363 ], [ 111.848886, -7.203371 ], [ 111.848875, -7.203409 ], [ 111.848824, -7.203455 ], [ 111.848574, -7.203374 ] ] ] ] } },
{ "type": "Feature", "properties": { "GM_LAYER": "Unknown Area Type", "LAYER": "Unknown Area Type", "MAP_NAME": "Hutan", "id": null, "LUAS": "3587,,", "PERIMETER": "650.71 m", "ENCLOSED_A": "0.91 ha" }, "geometry": { "type": "MultiPolygon", "coordinates": [ [ [ [ 111.944053, -7.195121 ], [ 111.944083, -7.195151 ], [ 111.943312, -7.19506 ], [ 111.943303, -7.195094 ], [ 111.94311, -7.195064 ], [ 111.943154, -7.194769 ], [ 111.94294, -7.194551 ], [ 111.94257, -7.194494 ], [ 111.942169, -7.194481 ], [ 111.94213, -7.194472 ], [ 111.94211, -7.194464 ], [ 111.942167, -7.194242 ], [ 111.941986, -7.194192 ], [ 111.942056, -7.194132 ], [ 111.942092, -7.194103 ], [ 111.942147, -7.194071 ], [ 111.942175, -7.194058 ], [ 111.942271, -7.194017 ], [ 111.942404, -7.193961 ], [ 111.942434, -7.193949 ], [ 111.942495, -7.193933 ], [ 111.942527, -7.193929 ], [ 111.942624, -7.193917 ], [ 111.942624, -7.193932 ], [ 111.942845, -7.194008 ], [ 111.942906, -7.194073 ], [ 111.942977, -7.194146 ], [ 111.943039, -7.194165 ], [ 111.943129, -7.194171 ], [ 111.94337, -7.194273 ], [ 111.943398, -7.194351 ], [ 111.943368, -7.194421 ], [ 111.943308, -7.194504 ], [ 111.943308, -7.194707 ], [ 111.94333, -7.194769 ], [ 111.943375, -7.194838 ], [ 111.943405, -7.194903 ], [ 111.94342, -7.19496 ], [ 111.943429, -7.194991 ], [ 111.943452, -7.195011 ], [ 111.943523, -7.195023 ], [ 111.943643, -7.195049 ], [ 111.943957, -7.195107 ], [ 111.944052, -7.19512 ], [ 111.944053, -7.195121 ] ] ] ] } },
{ "type": "Feature", "properties": { "GM_LAYER": "Unknown Area Type", "LAYER": "Unknown Area Type", "MAP_NAME": "Hutan", "id": null, "LUAS": "4806,,", "PERIMETER": "350.06 m", "ENCLOSED_A": "0.27 ha" }, "geometry": { "type": "MultiPolygon", "coordinates": [ [ [ [ 111.848437, -7.20412 ], [ 111.848476, -7.204159 ], [ 111.848476, -7.20416 ], [ 111.848477, -7.20421 ], [ 111.848455, -7.204258 ], [ 111.84834, -7.204303 ], [ 111.84831, -7.204302 ], [ 111.848309, -7.204304 ], [ 111.848308, -7.204303 ], [ 111.848305, -7.204264 ], [ 111.848321, -7.204143 ], [ 111.848254, -7.204093 ], [ 111.848137, -7.204043 ], [ 111.848106, -7.204028 ], [ 111.848108, -7.203996 ], [ 111.848113, -7.20397 ], [ 111.848129, -7.203944 ], [ 111.848151, -7.203913 ], [ 111.84815, -7.203903 ], [ 111.848146, -7.203876 ], [ 111.848156, -7.203862 ], [ 111.848166, -7.203837 ], [ 111.848165, -7.203806 ], [ 111.848156, -7.203776 ], [ 111.848142, -7.203733 ], [ 111.848116, -7.203697 ], [ 111.848042, -7.20366 ], [ 111.848014, -7.20365 ], [ 111.847912, -7.203596 ], [ 111.847915, -7.203577 ], [ 111.847912, -7.203552 ], [ 111.847895, -7.203492 ], [ 111.847863, -7.203464 ], [ 111.847832, -7.203453 ], [ 111.847775, -7.203421 ], [ 111.847743, -7.203407 ], [ 111.847695, -7.203391 ], [ 111.847652, -7.203368 ], [ 111.84807, -7.203358 ], [ 111.848076, -7.203358 ], [ 111.848083, -7.203358 ], [ 111.84809, -7.203358 ], [ 111.848277, -7.203359 ], [ 111.848284, -7.20336 ], [ 111.848283, -7.203374 ], [ 111.848235, -7.203498 ], [ 111.848248, -7.203529 ], [ 111.84826, -7.203558 ], [ 111.848229, -7.2036 ], [ 111.848236, -7.203667 ], [ 111.848278, -7.203736 ], [ 111.848309, -7.20384 ], [ 111.848337, -7.203936 ], [ 111.84836, -7.204012 ], [ 111.848369, -7.204045 ], [ 111.848404, -7.204098 ], [ 111.848403, -7.204102 ], [ 111.848435, -7.204118 ], [ 111.848437, -7.20412 ] ] ] ] } },
{ "type": "Feature", "properties": { "GM_LAYER": "Unknown Area Type", "LAYER": "Unknown Area Type", "MAP_NAME": "Hutan", "id": null, "LUAS": "2612", "PERIMETER": "204.51 m", "ENCLOSED_A": "0.2078 ha" }, "geometry": { "type": "MultiPolygon", "coordinates": [ [ [ [ 111.860082, -7.204589 ], [ 111.860134, -7.204416 ], [ 111.860212, -7.204439 ], [ 111.860247, -7.204367 ], [ 111.860251, -7.20436 ], [ 111.86028, -7.204364 ], [ 111.860283, -7.204364 ], [ 111.860286, -7.204365 ], [ 111.860289, -7.204365 ], [ 111.86067, -7.204418 ], [ 111.860532, -7.204857 ], [ 111.860344, -7.204797 ], [ 111.860348, -7.204788 ], [ 111.86038, -7.204703 ], [ 111.860283, -7.204661 ], [ 111.860082, -7.204589 ] ] ] ] } },
{ "type": "Feature", "properties": { "GM_LAYER": "Unknown Area Type", "LAYER": "Unknown Area Type", "MAP_NAME": "Hutan", "id": null, "LUAS": "10274,,,", "PERIMETER": "763.47 m", "ENCLOSED_A": "0.779 ha" }, "geometry": { "type": "MultiPolygon", "coordinates": [ [ [ [ 111.848757, -7.204332 ], [ 111.848759, -7.204338 ], [ 111.848763, -7.204342 ], [ 111.849066, -7.204489 ], [ 111.849162, -7.204535 ], [ 111.84918, -7.204534 ], [ 111.849206, -7.204529 ], [ 111.849247, -7.204519 ], [ 111.849295, -7.204538 ], [ 111.849254, -7.204616 ], [ 111.849044, -7.204551 ], [ 111.848968, -7.204724 ], [ 111.848941, -7.204922 ], [ 111.848654, -7.204913 ], [ 111.848734, -7.2046 ], [ 111.848554, -7.204548 ], [ 111.848454, -7.204907 ], [ 111.848023, -7.204894 ], [ 111.848216, -7.204716 ], [ 111.848275, -7.204631 ], [ 111.848288, -7.2044 ], [ 111.848312, -7.204373 ], [ 111.848311, -7.204353 ], [ 111.848329, -7.204356 ], [ 111.848374, -7.204342 ], [ 111.848424, -7.204312 ], [ 111.848485, -7.204286 ], [ 111.848535, -7.204259 ], [ 111.848562, -7.204209 ], [ 111.848551, -7.204177 ], [ 111.84853, -7.204136 ], [ 111.848502, -7.204106 ], [ 111.848441, -7.20405 ], [ 111.848424, -7.204015 ], [ 111.848424, -7.204015 ], [ 111.848332, -7.203757 ], [ 111.848424, -7.204015 ], [ 111.848413, -7.20399 ], [ 111.848373, -7.203887 ], [ 111.848348, -7.203827 ], [ 111.848316, -7.203735 ], [ 111.84829, -7.203657 ], [ 111.848272, -7.203602 ], [ 111.848297, -7.203541 ], [ 111.848276, -7.203515 ], [ 111.848269, -7.203497 ], [ 111.848287, -7.203463 ], [ 111.8483, -7.203435 ], [ 111.848322, -7.203372 ], [ 111.848324, -7.20336 ], [ 111.84833, -7.20336 ], [ 111.84833, -7.20336 ], [ 111.848494, -7.203361 ], [ 111.848494, -7.203361 ], [ 111.848543, -7.203392 ], [ 111.848594, -7.203417 ], [ 111.848625, -7.203426 ], [ 111.848575, -7.203554 ], [ 111.848593, -7.203563 ], [ 111.848591, -7.203567 ], [ 111.848591, -7.203567 ], [ 111.848581, -7.203596 ], [ 111.848539, -7.203592 ], [ 111.848533, -7.203651 ], [ 111.848569, -7.203655 ], [ 111.848541, -7.203767 ], [ 111.848505, -7.203753 ], [ 111.848488, -7.203799 ], [ 111.848572, -7.203831 ], [ 111.848594, -7.20384 ], [ 111.848587, -7.203857 ], [ 111.848666, -7.20389 ], [ 111.848663, -7.203899 ], [ 111.848668, -7.203912 ], [ 111.848702, -7.203963 ], [ 111.848721, -7.20398 ], [ 111.848779, -7.204067 ], [ 111.848782, -7.204076 ], [ 111.848773, -7.204106 ], [ 111.848771, -7.204116 ], [ 111.848787, -7.204255 ], [ 111.848793, -7.204262 ], [ 111.848757, -7.204332 ] ] ] ] } },
{ "type": "Feature", "properties": { "GM_LAYER": "Unknown Area Type", "LAYER": "Unknown Area Type", "MAP_NAME": "Hutan", "id": null, "LUAS": null, "PERIMETER": "441.65 m", "ENCLOSED_A": "0.618 ha" }, "geometry": { "type": "MultiPolygon", "coordinates": [ [ [ [ 111.943249, -7.195315 ], [ 111.943312, -7.19506 ], [ 111.944083, -7.195151 ], [ 111.944086, -7.195154 ], [ 111.944168, -7.19521 ], [ 111.944279, -7.195265 ], [ 111.944417, -7.195313 ], [ 111.944476, -7.195324 ], [ 111.944527, -7.195528 ], [ 111.944623, -7.195611 ], [ 111.944702, -7.195887 ], [ 111.944666, -7.195894 ], [ 111.944494, -7.195932 ], [ 111.944216, -7.195642 ], [ 111.944074, -7.195449 ], [ 111.943672, -7.195567 ], [ 111.943682, -7.19538 ], [ 111.943249, -7.195315 ] ] ] ] } },
{ "type": "Feature", "properties": { "GM_LAYER": "Unknown Area Type", "LAYER": "Unknown Area Type", "MAP_NAME": "Hutan", "id": null, "LUAS": null, "PERIMETER": "412.37 m", "ENCLOSED_A": "0.62 ha" }, "geometry": { "type": "MultiPolygon", "coordinates": [ [ [ [ 111.943209, -7.1938 ], [ 111.943186, -7.193727 ], [ 111.94322, -7.193691 ], [ 111.943232, -7.193678 ], [ 111.943543, -7.193506 ], [ 111.943577, -7.193489 ], [ 111.943606, -7.193477 ], [ 111.94391, -7.193366 ], [ 111.943915, -7.193364 ], [ 111.943946, -7.193354 ], [ 111.943947, -7.193354 ], [ 111.9444, -7.193404 ], [ 111.944382, -7.193562 ], [ 111.944381, -7.193613 ], [ 111.944385, -7.193644 ], [ 111.944394, -7.193707 ], [ 111.944398, -7.193733 ], [ 111.944419, -7.193861 ], [ 111.944418, -7.193862 ], [ 111.944406, -7.193893 ], [ 111.944378, -7.193921 ], [ 111.944346, -7.19391 ], [ 111.944302, -7.193867 ], [ 111.944228, -7.193772 ], [ 111.9438, -7.193711 ], [ 111.943793, -7.193806 ], [ 111.943876, -7.193823 ], [ 111.943857, -7.193999 ], [ 111.943445, -7.19397 ], [ 111.94341, -7.193989 ], [ 111.943381, -7.194017 ], [ 111.943312, -7.194011 ], [ 111.943282, -7.193964 ], [ 111.943263, -7.193921 ], [ 111.943261, -7.193873 ], [ 111.943251, -7.193839 ], [ 111.943209, -7.1938 ] ] ] ] } },
{ "type": "Feature", "properties": { "GM_LAYER": "Unknown Area Type", "LAYER": "Unknown Area Type", "MAP_NAME": "Hutan", "id": null, "LUAS": null, "PERIMETER": "239.12 m", "ENCLOSED_A": "0.3627 ha" }, "geometry": { "type": "MultiPolygon", "coordinates": [ [ [ [ 111.849437, -7.159659 ], [ 111.849437, -7.159635 ], [ 111.84949, -7.15957 ], [ 111.849594, -7.159458 ], [ 111.84963, -7.159417 ], [ 111.849749, -7.159395 ], [ 111.849845, -7.159382 ], [ 111.849883, -7.159352 ], [ 111.84999, -7.15943 ], [ 111.849995, -7.159434 ], [ 111.850057, -7.159479 ], [ 111.850058, -7.15948 ], [ 111.850062, -7.159483 ], [ 111.850064, -7.159484 ], [ 111.850065, -7.159485 ], [ 111.850065, -7.159485 ], [ 111.850065, -7.159485 ], [ 111.850066, -7.159486 ], [ 111.850068, -7.159487 ], [ 111.85007, -7.159489 ], [ 111.850087, -7.159502 ], [ 111.850105, -7.159515 ], [ 111.850108, -7.159518 ], [ 111.850109, -7.159518 ], [ 111.850109, -7.159518 ], [ 111.850109, -7.159518 ], [ 111.85011, -7.159519 ], [ 111.850113, -7.159521 ], [ 111.850116, -7.159524 ], [ 111.850131, -7.159536 ], [ 111.850137, -7.15954 ], [ 111.850139, -7.159542 ], [ 111.850141, -7.159544 ], [ 111.850144, -7.159546 ], [ 111.850155, -7.159555 ], [ 111.850158, -7.159557 ], [ 111.85016, -7.159559 ], [ 111.850161, -7.15956 ], [ 111.850161, -7.15956 ], [ 111.850161, -7.15956 ], [ 111.850162, -7.15956 ], [ 111.850164, -7.159562 ], [ 111.850197, -7.15959 ], [ 111.8502, -7.159593 ], [ 111.850203, -7.159595 ], [ 111.850206, -7.159598 ], [ 111.850217, -7.159608 ], [ 111.850219, -7.159609 ], [ 111.85022, -7.15961 ], [ 111.850269, -7.159653 ], [ 111.850275, -7.159657 ], [ 111.849981, -7.15996 ], [ 111.849948, -7.159997 ], [ 111.849437, -7.159659 ] ] ] ] } },
{ "type": "Feature", "properties": { "GM_LAYER": "Unknown Area Type", "LAYER": "Unknown Area Type", "MAP_NAME": "Hutan", "id": null, "LUAS": null, "PERIMETER": "409.32 m", "ENCLOSED_A": "0.385 ha" }, "geometry": { "type": "MultiPolygon", "coordinates": [ [ [ [ 111.878707, -7.210515 ], [ 111.878692, -7.21048 ], [ 111.878802, -7.210098 ], [ 111.878811, -7.210031 ], [ 111.878805, -7.209959 ], [ 111.878802, -7.209928 ], [ 111.879405, -7.2106 ], [ 111.879408, -7.210603 ], [ 111.879604, -7.210814 ], [ 111.879609, -7.21082 ], [ 111.879808, -7.21102 ], [ 111.879814, -7.211026 ], [ 111.879922, -7.211127 ], [ 111.8799, -7.21112 ], [ 111.879713, -7.211117 ], [ 111.879689, -7.21111 ], [ 111.879673, -7.211084 ], [ 111.879651, -7.21104 ], [ 111.879637, -7.211013 ], [ 111.879543, -7.210936 ], [ 111.879425, -7.210784 ], [ 111.879275, -7.210648 ], [ 111.879182, -7.210601 ], [ 111.879084, -7.2106 ], [ 111.878898, -7.210587 ], [ 111.878758, -7.210547 ], [ 111.878707, -7.210515 ] ] ] ] } },
{ "type": "Feature", "properties": { "GM_LAYER": "Unknown Area Type", "LAYER": "Unknown Area Type", "MAP_NAME": "Hutan", "id": null, "LUAS": null, "PERIMETER": "77.172 m", "ENCLOSED_A": "0.017 ha" }, "geometry": { "type": "MultiPolygon", "coordinates": [ [ [ [ 111.879968, -7.211179 ], [ 111.879956, -7.211159 ], [ 111.88002, -7.211219 ], [ 111.880026, -7.211225 ], [ 111.880192, -7.21137 ], [ 111.880002, -7.211338 ], [ 111.880004, -7.211286 ], [ 111.87999, -7.211231 ], [ 111.879968, -7.211179 ] ] ] ] } },
{ "type": "Feature", "properties": { "GM_LAYER": "Unknown Area Type", "LAYER": "Unknown Area Type", "MAP_NAME": "Hutan", "id": null, "LUAS": null, "PERIMETER": "2.152 km", "ENCLOSED_A": "1.436 ha" }, "geometry": { "type": "MultiPolygon", "coordinates": [ [ [ [ 111.843618, -7.156105 ], [ 111.843681, -7.156011 ], [ 111.843781, -7.156074 ], [ 111.844365, -7.156445 ], [ 111.845031, -7.156873 ], [ 111.84574, -7.157338 ], [ 111.846789, -7.158027 ], [ 111.847959, -7.158796 ], [ 111.848957, -7.159451 ], [ 111.849206, -7.159573 ], [ 111.849464, -7.15974 ], [ 111.849786, -7.15997 ], [ 111.849871, -7.160056 ], [ 111.849899, -7.160084 ], [ 111.850627, -7.160562 ], [ 111.851731, -7.161284 ], [ 111.851731, -7.161284 ], [ 111.851708, -7.161316 ], [ 111.851665, -7.161362 ], [ 111.851652, -7.161374 ], [ 111.851649, -7.161374 ], [ 111.850629, -7.160698 ], [ 111.848845, -7.159518 ], [ 111.845149, -7.1571 ], [ 111.843618, -7.156105 ] ] ] ] } },
{ "type": "Feature", "properties": { "GM_LAYER": "Unknown Area Type", "LAYER": "Unknown Area Type", "MAP_NAME": "Hutan", "id": null, "LUAS": null, "PERIMETER": "191.39 m", "ENCLOSED_A": "0.1652 ha" }, "geometry": { "type": "MultiPolygon", "coordinates": [ [ [ [ 111.878189, -7.209878 ], [ 111.878175, -7.209867 ], [ 111.878196, -7.209665 ], [ 111.87825, -7.209343 ], [ 111.878257, -7.20932 ], [ 111.878524, -7.209617 ], [ 111.878509, -7.209618 ], [ 111.878466, -7.209652 ], [ 111.878463, -7.209685 ], [ 111.87848, -7.20972 ], [ 111.878524, -7.209751 ], [ 111.878587, -7.209781 ], [ 111.878588, -7.209818 ], [ 111.878575, -7.209877 ], [ 111.87853, -7.209897 ], [ 111.87848, -7.209889 ], [ 111.878439, -7.209876 ], [ 111.878398, -7.209865 ], [ 111.878353, -7.209863 ], [ 111.878325, -7.209865 ], [ 111.878265, -7.209868 ], [ 111.878209, -7.209869 ], [ 111.878189, -7.209878 ] ] ] ] } },
{ "type": "Feature", "properties": { "GM_LAYER": "Unknown Area Type", "LAYER": "Unknown Area Type", "MAP_NAME": "Hutan", "id": null, "LUAS": "35544,", "PERIMETER": "622.39 m", "ENCLOSED_A": "1.458 ha" }, "geometry": { "type": "MultiPolygon", "coordinates": [ [ [ [ 111.919322, -7.213222 ], [ 111.919298, -7.213212 ], [ 111.919595, -7.212646 ], [ 111.919816, -7.212215 ], [ 111.920033, -7.21179 ], [ 111.920235, -7.211399 ], [ 111.9203, -7.211268 ], [ 111.920364, -7.211272 ], [ 111.920777, -7.211295 ], [ 111.920763, -7.211319 ], [ 111.920703, -7.211497 ], [ 111.920707, -7.211505 ], [ 111.920724, -7.21154 ], [ 111.920773, -7.211573 ], [ 111.920812, -7.211613 ], [ 111.920812, -7.211657 ], [ 111.920793, -7.211688 ], [ 111.920745, -7.211725 ], [ 111.920675, -7.21182 ], [ 111.920604, -7.211915 ], [ 111.920551, -7.211985 ], [ 111.920541, -7.212026 ], [ 111.920542, -7.212078 ], [ 111.92056, -7.212127 ], [ 111.920576, -7.21217 ], [ 111.920566, -7.212217 ], [ 111.920527, -7.212239 ], [ 111.92046, -7.212231 ], [ 111.920431, -7.212224 ], [ 111.92039, -7.212239 ], [ 111.920371, -7.212267 ], [ 111.920366, -7.212306 ], [ 111.920331, -7.212376 ], [ 111.920174, -7.212838 ], [ 111.920146, -7.21289 ], [ 111.920089, -7.212977 ], [ 111.920043, -7.213066 ], [ 111.919992, -7.213106 ], [ 111.919937, -7.213116 ], [ 111.919817, -7.213115 ], [ 111.919741, -7.213127 ], [ 111.919674, -7.213163 ], [ 111.919649, -7.213202 ], [ 111.919649, -7.213202 ], [ 111.919649, -7.213202 ], [ 111.91934, -7.213221 ], [ 111.919322, -7.213222 ] ] ] ] } }
]
}
