{
"type": "FeatureCollection",
"name": "jalan",
"features": [
{ "type": "Feature", "properties": { "GM_LAYER": "Unknown Area Type", "LAYER": "Unknown Area Type", "MAP_NAME": "AR_Jalan.shp", "id": null, "PERIMETER": "317.83 m", "ENCLOSED_A": "0.0712 ha", "LENGTH": null, "WIDTH": null }, "geometry": { "type": "MultiPolygon", "coordinates": [ [ [ [ 111.834485, -7.188744 ], [ 111.834501, -7.188701 ], [ 111.835608, -7.189029 ], [ 111.83571, -7.189049 ], [ 111.835841, -7.189077 ], [ 111.835827, -7.189119 ], [ 111.835656, -7.189082 ], [ 111.834907, -7.188866 ], [ 111.834485, -7.188744 ] ] ] ] } },
{ "type": "Feature", "properties": { "GM_LAYER": "Unknown Area Type", "LAYER": "Unknown Area Type", "MAP_NAME": "AR_Jalan.shp", "id": null, "PERIMETER": "779.28 m", "ENCLOSED_A": "0.4616 ha", "LENGTH": null, "WIDTH": null }, "geometry": { "type": "MultiPolygon", "coordinates": [ [ [ [ 111.852135, -7.204074 ], [ 111.852137, -7.204099 ], [ 111.852136, -7.204122 ], [ 111.852128, -7.204157 ], [ 111.852113, -7.204196 ], [ 111.852035, -7.204374 ], [ 111.851988, -7.204482 ], [ 111.851915, -7.204667 ], [ 111.851912, -7.204674 ], [ 111.851913, -7.204687 ], [ 111.851918, -7.204695 ], [ 111.852004, -7.204733 ], [ 111.852057, -7.204758 ], [ 111.852085, -7.204772 ], [ 111.852107, -7.204786 ], [ 111.852135, -7.204806 ], [ 111.852169, -7.204844 ], [ 111.852187, -7.204872 ], [ 111.8522, -7.204901 ], [ 111.85222, -7.20498 ], [ 111.852224, -7.204996 ], [ 111.852231, -7.204998 ], [ 111.852259, -7.20499 ], [ 111.852282, -7.204986 ], [ 111.852303, -7.204981 ], [ 111.852318, -7.20498 ], [ 111.852332, -7.204981 ], [ 111.852349, -7.204984 ], [ 111.852362, -7.204988 ], [ 111.852392, -7.205006 ], [ 111.852415, -7.205022 ], [ 111.852438, -7.205042 ], [ 111.852462, -7.205066 ], [ 111.85247, -7.205074 ], [ 111.852459, -7.205074 ], [ 111.852453, -7.205066 ], [ 111.852434, -7.205048 ], [ 111.852412, -7.205029 ], [ 111.852389, -7.205014 ], [ 111.852362, -7.204997 ], [ 111.852337, -7.204989 ], [ 111.852313, -7.204989 ], [ 111.852283, -7.204995 ], [ 111.852247, -7.205005 ], [ 111.852232, -7.205008 ], [ 111.852222, -7.205007 ], [ 111.852214, -7.205002 ], [ 111.85221, -7.204993 ], [ 111.852208, -7.20498 ], [ 111.852202, -7.204949 ], [ 111.85219, -7.204908 ], [ 111.852182, -7.20489 ], [ 111.852159, -7.20485 ], [ 111.852129, -7.204814 ], [ 111.852079, -7.204781 ], [ 111.852, -7.204743 ], [ 111.851935, -7.204715 ], [ 111.851861, -7.204687 ], [ 111.851768, -7.20465 ], [ 111.851749, -7.204646 ], [ 111.851709, -7.204642 ], [ 111.851683, -7.204632 ], [ 111.851509, -7.20456 ], [ 111.851483, -7.204546 ], [ 111.851472, -7.204545 ], [ 111.851462, -7.204545 ], [ 111.851443, -7.20458 ], [ 111.851425, -7.20461 ], [ 111.851402, -7.20464 ], [ 111.851386, -7.204663 ], [ 111.851365, -7.20469 ], [ 111.851325, -7.204727 ], [ 111.851295, -7.204757 ], [ 111.851268, -7.20478 ], [ 111.851247, -7.204799 ], [ 111.851216, -7.204828 ], [ 111.851198, -7.204848 ], [ 111.851185, -7.20487 ], [ 111.85117, -7.204894 ], [ 111.851161, -7.204913 ], [ 111.85116, -7.204935 ], [ 111.851163, -7.204984 ], [ 111.851163, -7.204988 ], [ 111.851145, -7.204988 ], [ 111.851145, -7.204967 ], [ 111.851141, -7.204937 ], [ 111.851139, -7.204923 ], [ 111.851142, -7.204906 ], [ 111.85117, -7.204853 ], [ 111.851197, -7.204821 ], [ 111.851245, -7.204776 ], [ 111.851297, -7.204731 ], [ 111.851318, -7.20471 ], [ 111.851354, -7.204673 ], [ 111.851424, -7.204578 ], [ 111.851533, -7.204377 ], [ 111.8518, -7.203895 ], [ 111.851515, -7.20374 ], [ 111.851387, -7.203675 ], [ 111.8511, -7.203532 ], [ 111.851199, -7.20354 ], [ 111.851534, -7.203709 ], [ 111.851788, -7.203844 ], [ 111.851802, -7.203844 ], [ 111.851813, -7.20384 ], [ 111.851822, -7.203835 ], [ 111.851834, -7.203822 ], [ 111.851855, -7.203789 ], [ 111.851876, -7.203753 ], [ 111.851904, -7.203687 ], [ 111.851935, -7.203601 ], [ 111.851962, -7.203603 ], [ 111.851954, -7.203627 ], [ 111.851941, -7.203665 ], [ 111.851928, -7.203696 ], [ 111.851919, -7.203723 ], [ 111.851908, -7.203747 ], [ 111.851892, -7.203779 ], [ 111.851879, -7.203802 ], [ 111.851838, -7.203861 ], [ 111.851838, -7.203868 ], [ 111.851841, -7.203874 ], [ 111.851849, -7.203881 ], [ 111.851862, -7.203888 ], [ 111.851882, -7.203898 ], [ 111.851984, -7.203945 ], [ 111.852087, -7.203992 ], [ 111.852101, -7.204002 ], [ 111.852116, -7.204016 ], [ 111.852121, -7.204027 ], [ 111.852129, -7.204042 ], [ 111.852134, -7.20406 ], [ 111.852135, -7.204074 ] ], [ [ 111.852112, -7.204079 ], [ 111.852108, -7.204059 ], [ 111.852099, -7.204039 ], [ 111.852088, -7.204025 ], [ 111.852079, -7.204016 ], [ 111.85207, -7.204009 ], [ 111.852039, -7.203991 ], [ 111.85187, -7.203909 ], [ 111.851839, -7.203893 ], [ 111.851834, -7.203891 ], [ 111.851828, -7.203893 ], [ 111.851772, -7.203991 ], [ 111.851655, -7.204191 ], [ 111.851479, -7.20451 ], [ 111.851493, -7.204525 ], [ 111.851518, -7.204538 ], [ 111.851693, -7.204617 ], [ 111.851713, -7.204622 ], [ 111.851733, -7.204624 ], [ 111.851752, -7.204626 ], [ 111.851772, -7.204631 ], [ 111.851867, -7.204665 ], [ 111.851881, -7.204668 ], [ 111.851885, -7.204667 ], [ 111.851887, -7.204665 ], [ 111.851953, -7.204501 ], [ 111.852022, -7.204345 ], [ 111.852077, -7.204226 ], [ 111.852094, -7.204182 ], [ 111.852109, -7.204139 ], [ 111.852114, -7.204107 ], [ 111.852112, -7.204079 ] ] ] ] } },
{ "type": "Feature", "properties": { "GM_LAYER": "Unknown Area Type", "LAYER": "Unknown Area Type", "MAP_NAME": "AR_Jalan.shp", "id": null, "PERIMETER": "3.231 km", "ENCLOSED_A": "1.4 ha", "LENGTH": null, "WIDTH": null }, "geometry": { "type": "MultiPolygon", "coordinates": [ [ [ [ 111.851747, -7.161123 ], [ 111.851976, -7.160779 ], [ 111.851975, -7.160815 ], [ 111.85197, -7.160847 ], [ 111.851778, -7.161139 ], [ 111.851752, -7.161182 ], [ 111.852005, -7.161346 ], [ 111.852009, -7.161349 ], [ 111.852008, -7.161349 ], [ 111.852008, -7.16135 ], [ 111.851956, -7.161429 ], [ 111.851955, -7.16143 ], [ 111.851955, -7.161431 ], [ 111.851947, -7.161426 ], [ 111.851252, -7.160973 ], [ 111.850568, -7.160523 ], [ 111.849899, -7.160084 ], [ 111.849786, -7.15997 ], [ 111.849358, -7.159673 ], [ 111.849236, -7.159591 ], [ 111.849106, -7.159512 ], [ 111.848957, -7.159451 ], [ 111.845103, -7.15692 ], [ 111.845098, -7.156916 ], [ 111.843995, -7.156208 ], [ 111.843681, -7.156011 ], [ 111.843708, -7.15597 ], [ 111.843742, -7.155933 ], [ 111.844044, -7.156132 ], [ 111.845145, -7.156831 ], [ 111.847592, -7.158429 ], [ 111.847608, -7.158428 ], [ 111.847625, -7.158425 ], [ 111.847642, -7.158416 ], [ 111.847703, -7.158248 ], [ 111.847817, -7.157868 ], [ 111.847922, -7.157525 ], [ 111.848006, -7.157282 ], [ 111.848172, -7.156861 ], [ 111.848241, -7.156693 ], [ 111.848285, -7.156582 ], [ 111.848331, -7.156464 ], [ 111.848346, -7.156472 ], [ 111.848361, -7.15648 ], [ 111.848372, -7.156486 ], [ 111.848373, -7.156487 ], [ 111.84835, -7.156549 ], [ 111.84835, -7.156564 ], [ 111.848357, -7.156578 ], [ 111.848369, -7.156593 ], [ 111.848375, -7.156598 ], [ 111.848744, -7.156749 ], [ 111.848855, -7.156793 ], [ 111.848894, -7.156817 ], [ 111.848929, -7.15684 ], [ 111.84895, -7.156863 ], [ 111.848969, -7.156889 ], [ 111.848984, -7.156909 ], [ 111.848998, -7.156922 ], [ 111.849028, -7.156947 ], [ 111.849087, -7.156979 ], [ 111.849188, -7.157013 ], [ 111.849298, -7.157047 ], [ 111.849323, -7.15705 ], [ 111.849337, -7.157049 ], [ 111.849358, -7.157042 ], [ 111.849381, -7.157019 ], [ 111.8494, -7.156987 ], [ 111.849445, -7.156905 ], [ 111.849458, -7.156882 ], [ 111.849469, -7.156871 ], [ 111.849481, -7.156859 ], [ 111.849497, -7.15685 ], [ 111.849512, -7.156843 ], [ 111.849524, -7.156839 ], [ 111.849544, -7.156838 ], [ 111.849583, -7.156841 ], [ 111.849619, -7.156853 ], [ 111.849659, -7.156871 ], [ 111.849702, -7.156891 ], [ 111.849718, -7.1569 ], [ 111.849688, -7.156935 ], [ 111.849678, -7.156929 ], [ 111.849645, -7.156912 ], [ 111.849579, -7.156886 ], [ 111.849567, -7.156882 ], [ 111.849551, -7.156883 ], [ 111.849532, -7.156887 ], [ 111.849514, -7.156896 ], [ 111.849494, -7.156913 ], [ 111.849486, -7.156929 ], [ 111.849418, -7.157052 ], [ 111.849413, -7.15706 ], [ 111.849392, -7.157078 ], [ 111.849373, -7.15709 ], [ 111.849359, -7.157097 ], [ 111.849343, -7.157102 ], [ 111.84931, -7.157095 ], [ 111.849262, -7.157081 ], [ 111.849082, -7.157023 ], [ 111.849039, -7.157007 ], [ 111.849011, -7.156995 ], [ 111.848992, -7.156981 ], [ 111.848973, -7.156967 ], [ 111.848934, -7.156918 ], [ 111.848912, -7.156884 ], [ 111.848884, -7.156864 ], [ 111.848824, -7.156826 ], [ 111.848733, -7.156789 ], [ 111.848655, -7.156759 ], [ 111.848459, -7.156675 ], [ 111.848362, -7.156632 ], [ 111.848341, -7.156633 ], [ 111.848319, -7.156641 ], [ 111.848311, -7.156645 ], [ 111.848162, -7.157013 ], [ 111.848007, -7.15741 ], [ 111.847983, -7.157477 ], [ 111.847944, -7.157613 ], [ 111.847843, -7.157936 ], [ 111.847707, -7.158379 ], [ 111.847693, -7.158411 ], [ 111.847686, -7.158441 ], [ 111.847688, -7.158465 ], [ 111.847691, -7.158494 ], [ 111.847692, -7.158498 ], [ 111.848995, -7.159366 ], [ 111.849387, -7.159626 ], [ 111.84983, -7.159917 ], [ 111.849948, -7.159997 ], [ 111.849981, -7.15996 ], [ 111.850275, -7.159657 ], [ 111.850341, -7.159701 ], [ 111.850011, -7.159988 ], [ 111.849982, -7.16002 ], [ 111.850173, -7.160149 ], [ 111.850424, -7.16031 ], [ 111.85069, -7.160485 ], [ 111.850977, -7.160673 ], [ 111.85126, -7.160858 ], [ 111.851502, -7.16102 ], [ 111.851718, -7.16116 ], [ 111.851747, -7.161123 ] ] ] ] } },
{ "type": "Feature", "properties": { "GM_LAYER": "Unknown Area Type", "LAYER": "Unknown Area Type", "MAP_NAME": "AR_Jalan.shp", "id": null, "PERIMETER": "437.46 m", "ENCLOSED_A": "0.0944 ha", "LENGTH": null, "WIDTH": null }, "geometry": { "type": "MultiPolygon", "coordinates": [ [ [ [ 111.849988, -7.204953 ], [ 111.849997, -7.204902 ], [ 111.85001, -7.204854 ], [ 111.850051, -7.204742 ], [ 111.850092, -7.20464 ], [ 111.850161, -7.204469 ], [ 111.850244, -7.204253 ], [ 111.850255, -7.204223 ], [ 111.850319, -7.204004 ], [ 111.850458, -7.20354 ], [ 111.850476, -7.20348 ], [ 111.850521, -7.203484 ], [ 111.850494, -7.203576 ], [ 111.850433, -7.203775 ], [ 111.850374, -7.20398 ], [ 111.850321, -7.204169 ], [ 111.850295, -7.204245 ], [ 111.850276, -7.204305 ], [ 111.850245, -7.204383 ], [ 111.85022, -7.204443 ], [ 111.850194, -7.204513 ], [ 111.850159, -7.204604 ], [ 111.850101, -7.204741 ], [ 111.85006, -7.204847 ], [ 111.850429, -7.204966 ], [ 111.850372, -7.204965 ], [ 111.850053, -7.204864 ], [ 111.850038, -7.204925 ], [ 111.850034, -7.204954 ], [ 111.849988, -7.204953 ] ] ] ] } },
{ "type": "Feature", "properties": { "GM_LAYER": "Unknown Area Type", "LAYER": "Unknown Area Type", "MAP_NAME": "AR_Jalan.shp", "id": null, "PERIMETER": "2.789 km", "ENCLOSED_A": "0.4225 ha", "LENGTH": null, "WIDTH": null }, "geometry": { "type": "MultiPolygon", "coordinates": [ [ [ [ 111.929243, -7.211519 ], [ 111.929244, -7.211535 ], [ 111.929197, -7.211538 ], [ 111.929197, -7.211538 ], [ 111.929085, -7.211538 ], [ 111.928993, -7.211541 ], [ 111.92885, -7.211549 ], [ 111.928669, -7.211559 ], [ 111.928668, -7.211559 ], [ 111.928519, -7.211564 ], [ 111.928507, -7.211572 ], [ 111.928501, -7.211626 ], [ 111.928493, -7.211703 ], [ 111.928493, -7.211704 ], [ 111.928484, -7.211764 ], [ 111.92848, -7.2118 ], [ 111.928482, -7.211822 ], [ 111.928485, -7.211831 ], [ 111.928496, -7.21184 ], [ 111.928602, -7.21188 ], [ 111.928696, -7.211909 ], [ 111.92869, -7.211928 ], [ 111.928596, -7.211899 ], [ 111.928596, -7.211899 ], [ 111.928485, -7.211866 ], [ 111.928471, -7.211861 ], [ 111.928457, -7.211853 ], [ 111.928449, -7.211846 ], [ 111.928446, -7.211837 ], [ 111.928448, -7.211828 ], [ 111.928454, -7.211811 ], [ 111.928457, -7.211793 ], [ 111.928464, -7.211761 ], [ 111.928464, -7.211761 ], [ 111.928473, -7.211701 ], [ 111.928481, -7.211624 ], [ 111.928481, -7.211624 ], [ 111.928489, -7.211559 ], [ 111.928491, -7.211515 ], [ 111.928495, -7.211413 ], [ 111.928498, -7.211276 ], [ 111.92849, -7.211268 ], [ 111.928489, -7.211268 ], [ 111.928443, -7.211261 ], [ 111.928442, -7.21126 ], [ 111.928417, -7.211252 ], [ 111.928417, -7.211252 ], [ 111.928383, -7.211238 ], [ 111.928382, -7.211238 ], [ 111.928351, -7.211221 ], [ 111.928351, -7.21122 ], [ 111.928311, -7.211191 ], [ 111.92831, -7.211191 ], [ 111.928274, -7.211161 ], [ 111.928273, -7.211161 ], [ 111.928239, -7.211128 ], [ 111.928239, -7.211128 ], [ 111.92818, -7.211072 ], [ 111.928094, -7.210996 ], [ 111.928013, -7.210919 ], [ 111.927969, -7.210886 ], [ 111.927923, -7.210864 ], [ 111.92788, -7.210852 ], [ 111.92788, -7.210852 ], [ 111.927718, -7.210803 ], [ 111.927561, -7.210755 ], [ 111.927332, -7.210699 ], [ 111.927326, -7.210697 ], [ 111.927118, -7.210641 ], [ 111.927017, -7.210613 ], [ 111.926906, -7.210595 ], [ 111.926787, -7.210584 ], [ 111.926662, -7.210577 ], [ 111.926627, -7.210577 ], [ 111.926579, -7.210582 ], [ 111.9265, -7.210591 ], [ 111.926499, -7.210591 ], [ 111.926404, -7.2106 ], [ 111.926404, -7.2106 ], [ 111.926339, -7.210603 ], [ 111.926338, -7.210603 ], [ 111.926293, -7.210601 ], [ 111.926292, -7.210601 ], [ 111.926197, -7.210588 ], [ 111.926197, -7.210588 ], [ 111.926096, -7.210574 ], [ 111.926096, -7.210574 ], [ 111.925918, -7.210548 ], [ 111.925884, -7.210545 ], [ 111.92585, -7.210548 ], [ 111.925827, -7.210609 ], [ 111.925781, -7.210721 ], [ 111.925772, -7.21074 ], [ 111.925771, -7.210748 ], [ 111.92577, -7.21076 ], [ 111.925772, -7.21077 ], [ 111.925777, -7.210783 ], [ 111.925798, -7.210817 ], [ 111.925813, -7.21084 ], [ 111.925855, -7.210884 ], [ 111.925914, -7.210935 ], [ 111.926008, -7.211005 ], [ 111.926141, -7.211105 ], [ 111.92624, -7.211176 ], [ 111.926339, -7.211243 ], [ 111.926436, -7.211308 ], [ 111.926488, -7.21134 ], [ 111.926557, -7.211375 ], [ 111.926601, -7.2114 ], [ 111.926648, -7.211424 ], [ 111.926717, -7.211447 ], [ 111.926782, -7.211466 ], [ 111.926817, -7.211478 ], [ 111.926818, -7.211478 ], [ 111.926848, -7.211488 ], [ 111.926862, -7.211496 ], [ 111.926875, -7.211518 ], [ 111.926876, -7.21153 ], [ 111.926873, -7.211559 ], [ 111.926844, -7.211682 ], [ 111.926825, -7.211766 ], [ 111.926807, -7.211845 ], [ 111.926785, -7.211934 ], [ 111.926767, -7.212014 ], [ 111.926754, -7.212067 ], [ 111.926751, -7.212081 ], [ 111.926754, -7.212094 ], [ 111.926761, -7.212105 ], [ 111.926811, -7.212128 ], [ 111.926965, -7.212181 ], [ 111.927171, -7.212251 ], [ 111.927308, -7.212293 ], [ 111.927448, -7.212343 ], [ 111.927533, -7.212371 ], [ 111.927557, -7.212381 ], [ 111.927575, -7.212393 ], [ 111.927596, -7.212408 ], [ 111.927624, -7.212438 ], [ 111.92764, -7.212455 ], [ 111.92772, -7.212542 ], [ 111.927827, -7.212647 ], [ 111.92791, -7.212733 ], [ 111.927913, -7.212735 ], [ 111.927876, -7.212736 ], [ 111.927873, -7.212732 ], [ 111.927836, -7.212696 ], [ 111.927814, -7.21267 ], [ 111.927804, -7.212665 ], [ 111.927797, -7.212664 ], [ 111.927792, -7.212665 ], [ 111.92778, -7.212669 ], [ 111.927767, -7.212677 ], [ 111.927757, -7.212689 ], [ 111.927735, -7.212718 ], [ 111.927727, -7.212737 ], [ 111.927704, -7.212737 ], [ 111.927714, -7.212718 ], [ 111.927737, -7.21268 ], [ 111.927751, -7.212666 ], [ 111.927765, -7.212657 ], [ 111.927769, -7.212654 ], [ 111.927771, -7.212646 ], [ 111.927772, -7.21264 ], [ 111.927773, -7.212627 ], [ 111.927759, -7.21261 ], [ 111.927714, -7.212563 ], [ 111.927664, -7.212516 ], [ 111.927607, -7.212455 ], [ 111.92757, -7.212419 ], [ 111.927556, -7.212408 ], [ 111.927264, -7.212305 ], [ 111.927018, -7.212223 ], [ 111.92676, -7.212133 ], [ 111.926734, -7.212123 ], [ 111.926722, -7.212111 ], [ 111.926721, -7.212091 ], [ 111.926739, -7.212014 ], [ 111.926788, -7.211809 ], [ 111.926825, -7.211643 ], [ 111.926831, -7.211614 ], [ 111.926845, -7.211548 ], [ 111.926844, -7.211538 ], [ 111.926839, -7.211527 ], [ 111.926828, -7.211515 ], [ 111.926812, -7.211505 ], [ 111.92681, -7.211504 ], [ 111.926648, -7.211458 ], [ 111.926514, -7.211384 ], [ 111.926349, -7.211278 ], [ 111.926173, -7.211154 ], [ 111.925942, -7.210981 ], [ 111.925843, -7.210903 ], [ 111.925819, -7.210881 ], [ 111.925791, -7.210855 ], [ 111.925759, -7.210804 ], [ 111.925745, -7.210786 ], [ 111.925737, -7.21078 ], [ 111.925715, -7.210769 ], [ 111.925675, -7.210758 ], [ 111.925417, -7.210704 ], [ 111.9252, -7.21066 ], [ 111.925077, -7.210636 ], [ 111.92505, -7.210634 ], [ 111.925002, -7.210637 ], [ 111.924989, -7.210642 ], [ 111.924989, -7.210642 ], [ 111.924989, -7.210642 ], [ 111.925027, -7.210895 ], [ 111.925049, -7.211051 ], [ 111.925067, -7.211167 ], [ 111.92508, -7.21126 ], [ 111.925095, -7.211355 ], [ 111.925111, -7.211465 ], [ 111.925127, -7.211565 ], [ 111.925138, -7.211643 ], [ 111.92515, -7.21173 ], [ 111.92516, -7.21179 ], [ 111.925173, -7.211882 ], [ 111.925197, -7.212042 ], [ 111.925215, -7.212169 ], [ 111.925227, -7.21226 ], [ 111.925244, -7.212374 ], [ 111.925257, -7.21246 ], [ 111.925276, -7.212605 ], [ 111.925295, -7.212746 ], [ 111.925327, -7.212967 ], [ 111.925285, -7.21297 ], [ 111.925214, -7.21246 ], [ 111.925186, -7.212269 ], [ 111.925134, -7.211901 ], [ 111.925093, -7.211621 ], [ 111.925059, -7.211402 ], [ 111.925031, -7.211217 ], [ 111.925002, -7.21101 ], [ 111.924959, -7.210736 ], [ 111.924924, -7.210508 ], [ 111.9249, -7.210345 ], [ 111.924943, -7.210349 ], [ 111.92496, -7.21046 ], [ 111.924982, -7.210597 ], [ 111.924996, -7.2106 ], [ 111.925006, -7.210602 ], [ 111.925022, -7.210603 ], [ 111.925179, -7.21063 ], [ 111.925366, -7.210667 ], [ 111.925557, -7.210709 ], [ 111.925646, -7.210727 ], [ 111.925687, -7.210734 ], [ 111.925714, -7.210736 ], [ 111.925729, -7.210735 ], [ 111.925738, -7.210726 ], [ 111.925752, -7.210711 ], [ 111.925798, -7.210598 ], [ 111.925798, -7.210598 ], [ 111.925834, -7.210504 ], [ 111.925862, -7.210417 ], [ 111.925894, -7.210419 ], [ 111.925871, -7.21049 ], [ 111.925885, -7.21051 ], [ 111.925923, -7.210516 ], [ 111.925924, -7.210516 ], [ 111.9261, -7.210547 ], [ 111.926201, -7.210562 ], [ 111.926295, -7.210574 ], [ 111.926338, -7.210575 ], [ 111.926402, -7.210573 ], [ 111.926497, -7.210564 ], [ 111.926576, -7.210555 ], [ 111.926576, -7.210555 ], [ 111.926625, -7.21055 ], [ 111.926626, -7.21055 ], [ 111.926662, -7.21055 ], [ 111.926663, -7.21055 ], [ 111.926789, -7.210557 ], [ 111.92679, -7.210557 ], [ 111.926909, -7.210568 ], [ 111.92691, -7.210568 ], [ 111.927022, -7.210586 ], [ 111.927023, -7.210587 ], [ 111.927126, -7.210615 ], [ 111.927126, -7.210615 ], [ 111.927336, -7.210673 ], [ 111.927565, -7.210731 ], [ 111.927565, -7.210731 ], [ 111.927726, -7.210777 ], [ 111.927726, -7.210777 ], [ 111.927887, -7.210829 ], [ 111.927918, -7.210841 ], [ 111.927941, -7.210843 ], [ 111.927961, -7.210841 ], [ 111.927975, -7.210829 ], [ 111.927984, -7.210815 ], [ 111.92806, -7.21058 ], [ 111.928083, -7.210582 ], [ 111.928009, -7.210823 ], [ 111.928006, -7.210841 ], [ 111.928008, -7.210856 ], [ 111.928004, -7.21087 ], [ 111.92801, -7.210887 ], [ 111.928031, -7.210909 ], [ 111.928107, -7.210985 ], [ 111.92819, -7.211062 ], [ 111.92819, -7.211062 ], [ 111.928249, -7.211118 ], [ 111.928283, -7.21115 ], [ 111.928319, -7.211179 ], [ 111.928359, -7.211208 ], [ 111.928389, -7.211225 ], [ 111.928422, -7.211238 ], [ 111.928446, -7.211246 ], [ 111.928491, -7.211254 ], [ 111.928569, -7.211256 ], [ 111.928569, -7.211256 ], [ 111.928659, -7.211262 ], [ 111.928764, -7.211267 ], [ 111.928813, -7.211269 ], [ 111.928845, -7.211265 ], [ 111.928876, -7.211253 ], [ 111.928906, -7.21124 ], [ 111.928918, -7.211226 ], [ 111.928928, -7.211194 ], [ 111.92895, -7.211116 ], [ 111.928962, -7.211059 ], [ 111.92896, -7.211045 ], [ 111.928956, -7.211037 ], [ 111.928946, -7.21103 ], [ 111.928855, -7.210999 ], [ 111.92886, -7.210985 ], [ 111.928952, -7.211017 ], [ 111.928953, -7.211018 ], [ 111.928965, -7.211026 ], [ 111.928968, -7.211029 ], [ 111.928973, -7.21104 ], [ 111.928974, -7.211042 ], [ 111.928976, -7.211058 ], [ 111.928976, -7.21106 ], [ 111.928964, -7.211119 ], [ 111.928964, -7.211119 ], [ 111.928942, -7.211198 ], [ 111.928942, -7.211199 ], [ 111.928932, -7.211232 ], [ 111.92893, -7.211235 ], [ 111.928915, -7.211251 ], [ 111.928913, -7.211252 ], [ 111.928882, -7.211267 ], [ 111.928881, -7.211267 ], [ 111.928849, -7.211279 ], [ 111.928847, -7.211279 ], [ 111.928815, -7.211283 ], [ 111.928813, -7.211283 ], [ 111.928764, -7.211281 ], [ 111.928659, -7.211276 ], [ 111.928658, -7.211276 ], [ 111.928568, -7.21127 ], [ 111.928526, -7.211269 ], [ 111.92852, -7.211276 ], [ 111.928517, -7.211312 ], [ 111.928514, -7.211413 ], [ 111.928514, -7.211413 ], [ 111.928511, -7.211515 ], [ 111.928511, -7.211515 ], [ 111.928511, -7.21153 ], [ 111.92852, -7.211539 ], [ 111.928532, -7.211544 ], [ 111.928668, -7.211543 ], [ 111.928849, -7.211532 ], [ 111.928849, -7.211532 ], [ 111.928992, -7.211525 ], [ 111.928992, -7.211525 ], [ 111.929084, -7.211521 ], [ 111.929085, -7.211521 ], [ 111.929197, -7.211522 ], [ 111.929243, -7.211519 ] ] ] ] } },
{ "type": "Feature", "properties": { "GM_LAYER": "Unknown Area Type", "LAYER": "Unknown Area Type", "MAP_NAME": "AR_Jalan.shp", "id": null, "PERIMETER": "820.45 m", "ENCLOSED_A": "0.1213 ha", "LENGTH": null, "WIDTH": null }, "geometry": { "type": "MultiPolygon", "coordinates": [ [ [ [ 111.929874, -7.210821 ], [ 111.929885, -7.210795 ], [ 111.930063, -7.210871 ], [ 111.930204, -7.210933 ], [ 111.930357, -7.210999 ], [ 111.930457, -7.21104 ], [ 111.930519, -7.211063 ], [ 111.930556, -7.211071 ], [ 111.930599, -7.211071 ], [ 111.93071, -7.211064 ], [ 111.930811, -7.211055 ], [ 111.930859, -7.21105 ], [ 111.930883, -7.211047 ], [ 111.930919, -7.211047 ], [ 111.930984, -7.211053 ], [ 111.931169, -7.211086 ], [ 111.93124, -7.211097 ], [ 111.931314, -7.211109 ], [ 111.931528, -7.211142 ], [ 111.931607, -7.211154 ], [ 111.931642, -7.211154 ], [ 111.931667, -7.211149 ], [ 111.931689, -7.211144 ], [ 111.931696, -7.211132 ], [ 111.931697, -7.211128 ], [ 111.9317, -7.21112 ], [ 111.931702, -7.211094 ], [ 111.9317, -7.210973 ], [ 111.931701, -7.21085 ], [ 111.931729, -7.210852 ], [ 111.931728, -7.210973 ], [ 111.931725, -7.211132 ], [ 111.931725, -7.211134 ], [ 111.931725, -7.211143 ], [ 111.931726, -7.211274 ], [ 111.931724, -7.211437 ], [ 111.931718, -7.211629 ], [ 111.931721, -7.211739 ], [ 111.931727, -7.211864 ], [ 111.931742, -7.211988 ], [ 111.931764, -7.212161 ], [ 111.931791, -7.212321 ], [ 111.931816, -7.212447 ], [ 111.931832, -7.212533 ], [ 111.931854, -7.212621 ], [ 111.931862, -7.212657 ], [ 111.931863, -7.212658 ], [ 111.931837, -7.212659 ], [ 111.931834, -7.212648 ], [ 111.931828, -7.212624 ], [ 111.931813, -7.21257 ], [ 111.931796, -7.212497 ], [ 111.931787, -7.212447 ], [ 111.931766, -7.212337 ], [ 111.931743, -7.212184 ], [ 111.931726, -7.212075 ], [ 111.931716, -7.211981 ], [ 111.931705, -7.211876 ], [ 111.931696, -7.211708 ], [ 111.931699, -7.211499 ], [ 111.9317, -7.21122 ], [ 111.931696, -7.211208 ], [ 111.931688, -7.211195 ], [ 111.931672, -7.211188 ], [ 111.931428, -7.211154 ], [ 111.931198, -7.211119 ], [ 111.930986, -7.211086 ], [ 111.930917, -7.211076 ], [ 111.930881, -7.211076 ], [ 111.930855, -7.211079 ], [ 111.930711, -7.211091 ], [ 111.930649, -7.211096 ], [ 111.930607, -7.211099 ], [ 111.930572, -7.211098 ], [ 111.930529, -7.211094 ], [ 111.93048, -7.21108 ], [ 111.930411, -7.211049 ], [ 111.930293, -7.210997 ], [ 111.93012, -7.210927 ], [ 111.929874, -7.210821 ] ] ] ] } },
{ "type": "Feature", "properties": { "GM_LAYER": "Unknown Area Type", "LAYER": "Unknown Area Type", "MAP_NAME": "AR_Jalan.shp", "id": null, "PERIMETER": "539.01 m", "ENCLOSED_A": "0.0808 ha", "LENGTH": null, "WIDTH": null }, "geometry": { "type": "MultiPolygon", "coordinates": [ [ [ [ 111.859728, -7.204295 ], [ 111.859762, -7.204299 ], [ 111.859744, -7.204364 ], [ 111.859677, -7.204624 ], [ 111.85968, -7.20463 ], [ 111.859686, -7.204633 ], [ 111.859813, -7.204668 ], [ 111.859834, -7.204667 ], [ 111.859945, -7.204672 ], [ 111.860009, -7.204683 ], [ 111.860223, -7.204756 ], [ 111.860417, -7.204821 ], [ 111.860532, -7.204857 ], [ 111.860525, -7.204877 ], [ 111.860286, -7.204797 ], [ 111.860002, -7.204699 ], [ 111.859942, -7.204689 ], [ 111.859831, -7.204682 ], [ 111.859813, -7.204684 ], [ 111.859684, -7.204648 ], [ 111.859677, -7.204647 ], [ 111.859671, -7.204648 ], [ 111.859566, -7.205057 ], [ 111.859497, -7.205338 ], [ 111.859434, -7.205641 ], [ 111.859403, -7.205769 ], [ 111.859367, -7.205766 ], [ 111.859453, -7.20539 ], [ 111.859567, -7.204915 ], [ 111.859728, -7.204295 ] ] ] ] } },
{ "type": "Feature", "properties": { "GM_LAYER": "Unknown Area Type", "LAYER": "Unknown Area Type", "MAP_NAME": "AR_Jalan.shp", "id": null, "PERIMETER": "1.876 km", "ENCLOSED_A": "0.2386 ha", "LENGTH": null, "WIDTH": null }, "geometry": { "type": "MultiPolygon", "coordinates": [ [ [ [ 111.941013, -7.207026 ], [ 111.941018, -7.207018 ], [ 111.941025, -7.207018 ], [ 111.941085, -7.207019 ], [ 111.941151, -7.207022 ], [ 111.941172, -7.207026 ], [ 111.941193, -7.207031 ], [ 111.941219, -7.207034 ], [ 111.941318, -7.207041 ], [ 111.941336, -7.207044 ], [ 111.94136, -7.207051 ], [ 111.941391, -7.207063 ], [ 111.941448, -7.207088 ], [ 111.941471, -7.207098 ], [ 111.941488, -7.207108 ], [ 111.941498, -7.207115 ], [ 111.941531, -7.207141 ], [ 111.941587, -7.207191 ], [ 111.941678, -7.207256 ], [ 111.941706, -7.207276 ], [ 111.941779, -7.207325 ], [ 111.941872, -7.207388 ], [ 111.941995, -7.207467 ], [ 111.942035, -7.207489 ], [ 111.942057, -7.207496 ], [ 111.94212, -7.207515 ], [ 111.942193, -7.207533 ], [ 111.942316, -7.207559 ], [ 111.942364, -7.207555 ], [ 111.942415, -7.207556 ], [ 111.942439, -7.207549 ], [ 111.942453, -7.207539 ], [ 111.942472, -7.207402 ], [ 111.942486, -7.207308 ], [ 111.94249, -7.207229 ], [ 111.942491, -7.207221 ], [ 111.942504, -7.207184 ], [ 111.942529, -7.207033 ], [ 111.942536, -7.206969 ], [ 111.942534, -7.206937 ], [ 111.94255, -7.206771 ], [ 111.942614, -7.206273 ], [ 111.942674, -7.205826 ], [ 111.94272, -7.205574 ], [ 111.942732, -7.205539 ], [ 111.942756, -7.205348 ], [ 111.94279, -7.20513 ], [ 111.942825, -7.204903 ], [ 111.942869, -7.204677 ], [ 111.942929, -7.204255 ], [ 111.94295, -7.204114 ], [ 111.942955, -7.204102 ], [ 111.942972, -7.203984 ], [ 111.942968, -7.203898 ], [ 111.94297, -7.203789 ], [ 111.942968, -7.203778 ], [ 111.943017, -7.203382 ], [ 111.943036, -7.203382 ], [ 111.943012, -7.203556 ], [ 111.942984, -7.203784 ], [ 111.942984, -7.203792 ], [ 111.942995, -7.203814 ], [ 111.942996, -7.203823 ], [ 111.942986, -7.203945 ], [ 111.942975, -7.204047 ], [ 111.942943, -7.204257 ], [ 111.942916, -7.204471 ], [ 111.942881, -7.204693 ], [ 111.942844, -7.204971 ], [ 111.942825, -7.205153 ], [ 111.942821, -7.205159 ], [ 111.942818, -7.205168 ], [ 111.942812, -7.205192 ], [ 111.9428, -7.205235 ], [ 111.942784, -7.205297 ], [ 111.942755, -7.205525 ], [ 111.942738, -7.205687 ], [ 111.942728, -7.205717 ], [ 111.942725, -7.205747 ], [ 111.942715, -7.205831 ], [ 111.942701, -7.20591 ], [ 111.942698, -7.205959 ], [ 111.942696, -7.206031 ], [ 111.942688, -7.206109 ], [ 111.942679, -7.206161 ], [ 111.942668, -7.206199 ], [ 111.942655, -7.206227 ], [ 111.942644, -7.206247 ], [ 111.942617, -7.206606 ], [ 111.94261, -7.206622 ], [ 111.942598, -7.20665 ], [ 111.942582, -7.206784 ], [ 111.942579, -7.206807 ], [ 111.942575, -7.206834 ], [ 111.942578, -7.206851 ], [ 111.942578, -7.206863 ], [ 111.942533, -7.207133 ], [ 111.942479, -7.207574 ], [ 111.942485, -7.207584 ], [ 111.942493, -7.207589 ], [ 111.942726, -7.207627 ], [ 111.942809, -7.207641 ], [ 111.942809, -7.207646 ], [ 111.942808, -7.207654 ], [ 111.942808, -7.207658 ], [ 111.942808, -7.207662 ], [ 111.942492, -7.207608 ], [ 111.942484, -7.20761 ], [ 111.942478, -7.207616 ], [ 111.942472, -7.207627 ], [ 111.942456, -7.207728 ], [ 111.942445, -7.207783 ], [ 111.942157, -7.209842 ], [ 111.942126, -7.209899 ], [ 111.942264, -7.208929 ], [ 111.942442, -7.207603 ], [ 111.942428, -7.207591 ], [ 111.942407, -7.207584 ], [ 111.942317, -7.207569 ], [ 111.942185, -7.207542 ], [ 111.942064, -7.20751 ], [ 111.942048, -7.207505 ], [ 111.942019, -7.207493 ], [ 111.941953, -7.207455 ], [ 111.941791, -7.207344 ], [ 111.94173, -7.207307 ], [ 111.941648, -7.207247 ], [ 111.941546, -7.207174 ], [ 111.941509, -7.207144 ], [ 111.941459, -7.207111 ], [ 111.941418, -7.207089 ], [ 111.941377, -7.207074 ], [ 111.941342, -7.207062 ], [ 111.941314, -7.207058 ], [ 111.941281, -7.207055 ], [ 111.941199, -7.207045 ], [ 111.941097, -7.207037 ], [ 111.941027, -7.207031 ], [ 111.941013, -7.207026 ] ] ] ] } },
{ "type": "Feature", "properties": { "GM_LAYER": "Unknown Area Type", "LAYER": "Unknown Area Type", "MAP_NAME": "AR_Jalan.shp", "id": null, "PERIMETER": "738.84 m", "ENCLOSED_A": "0.126 ha", "LENGTH": null, "WIDTH": null }, "geometry": { "type": "MultiPolygon", "coordinates": [ [ [ [ 111.879263, -7.213317 ], [ 111.879265, -7.2133 ], [ 111.879279, -7.213261 ], [ 111.879289, -7.213244 ], [ 111.879303, -7.213222 ], [ 111.879318, -7.213207 ], [ 111.87933, -7.213197 ], [ 111.87935, -7.213186 ], [ 111.879374, -7.213179 ], [ 111.879406, -7.213169 ], [ 111.879441, -7.213161 ], [ 111.879516, -7.213146 ], [ 111.879602, -7.213129 ], [ 111.879694, -7.213109 ], [ 111.879766, -7.21309 ], [ 111.879807, -7.213074 ], [ 111.879827, -7.213065 ], [ 111.87986, -7.213045 ], [ 111.879886, -7.213028 ], [ 111.8799, -7.213018 ], [ 111.879947, -7.212973 ], [ 111.879981, -7.212937 ], [ 111.880027, -7.212881 ], [ 111.880075, -7.212812 ], [ 111.880089, -7.21278 ], [ 111.880101, -7.212739 ], [ 111.880115, -7.212662 ], [ 111.880123, -7.21262 ], [ 111.880141, -7.212497 ], [ 111.880158, -7.212431 ], [ 111.880171, -7.212391 ], [ 111.880184, -7.212351 ], [ 111.880204, -7.212293 ], [ 111.880225, -7.212246 ], [ 111.880243, -7.212213 ], [ 111.88026, -7.212171 ], [ 111.880285, -7.212103 ], [ 111.880307, -7.212037 ], [ 111.880324, -7.211974 ], [ 111.88035, -7.211858 ], [ 111.880373, -7.211711 ], [ 111.880384, -7.211646 ], [ 111.880395, -7.211587 ], [ 111.880403, -7.211546 ], [ 111.88043, -7.211568 ], [ 111.880422, -7.211603 ], [ 111.8804, -7.211748 ], [ 111.880391, -7.211804 ], [ 111.880365, -7.211935 ], [ 111.880343, -7.212026 ], [ 111.880316, -7.212112 ], [ 111.880265, -7.21224 ], [ 111.880235, -7.212303 ], [ 111.880238, -7.212324 ], [ 111.880241, -7.212333 ], [ 111.880245, -7.212341 ], [ 111.880249, -7.212345 ], [ 111.880257, -7.212345 ], [ 111.880298, -7.21231 ], [ 111.880342, -7.212266 ], [ 111.880402, -7.212196 ], [ 111.880509, -7.212057 ], [ 111.88054, -7.212028 ], [ 111.880582, -7.211997 ], [ 111.880613, -7.211979 ], [ 111.880625, -7.211975 ], [ 111.880636, -7.211973 ], [ 111.88065, -7.211973 ], [ 111.880689, -7.211976 ], [ 111.880725, -7.211979 ], [ 111.880808, -7.211985 ], [ 111.880948, -7.211995 ], [ 111.88098, -7.211997 ], [ 111.881025, -7.212002 ], [ 111.881082, -7.21204 ], [ 111.880958, -7.21203 ], [ 111.880816, -7.212017 ], [ 111.880719, -7.212011 ], [ 111.880674, -7.212009 ], [ 111.88064, -7.212012 ], [ 111.880612, -7.212017 ], [ 111.880585, -7.212032 ], [ 111.880543, -7.212066 ], [ 111.880522, -7.212091 ], [ 111.880497, -7.21212 ], [ 111.880445, -7.212188 ], [ 111.880397, -7.212248 ], [ 111.880303, -7.212343 ], [ 111.88026, -7.212376 ], [ 111.880231, -7.212396 ], [ 111.8802, -7.212418 ], [ 111.880178, -7.212482 ], [ 111.880137, -7.212722 ], [ 111.88012, -7.21278 ], [ 111.8801, -7.212821 ], [ 111.880075, -7.21286 ], [ 111.880039, -7.212907 ], [ 111.879973, -7.212988 ], [ 111.879927, -7.213032 ], [ 111.879899, -7.213053 ], [ 111.87985, -7.213083 ], [ 111.879828, -7.213095 ], [ 111.879774, -7.213119 ], [ 111.879713, -7.213137 ], [ 111.879645, -7.213152 ], [ 111.879564, -7.213166 ], [ 111.879481, -7.213183 ], [ 111.879427, -7.213192 ], [ 111.879368, -7.213208 ], [ 111.879359, -7.213212 ], [ 111.879343, -7.213224 ], [ 111.879327, -7.213244 ], [ 111.879314, -7.213265 ], [ 111.879306, -7.213283 ], [ 111.879297, -7.213309 ], [ 111.879294, -7.213324 ], [ 111.879263, -7.213317 ] ] ] ] } },
{ "type": "Feature", "properties": { "GM_LAYER": "Unknown Area Type", "LAYER": "Unknown Area Type", "MAP_NAME": "AR_Jalan.shp", "id": null, "PERIMETER": "330.53 m", "ENCLOSED_A": "0.0768 ha", "LENGTH": null, "WIDTH": null }, "geometry": { "type": "MultiPolygon", "coordinates": [ [ [ [ 111.899745, -7.212988 ], [ 111.899788, -7.212982 ], [ 111.899819, -7.213641 ], [ 111.899857, -7.214433 ], [ 111.899813, -7.214436 ], [ 111.899745, -7.212988 ] ] ] ] } },
{ "type": "Feature", "properties": { "GM_LAYER": "Unknown Area Type", "LAYER": "Unknown Area Type", "MAP_NAME": "AR_Jalan.shp", "id": null, "PERIMETER": "1.24 km", "ENCLOSED_A": "0.1471 ha", "LENGTH": null, "WIDTH": null }, "geometry": { "type": "MultiPolygon", "coordinates": [ [ [ [ 111.856318, -7.203964 ], [ 111.85635, -7.203966 ], [ 111.856332, -7.203986 ], [ 111.856265, -7.204056 ], [ 111.85619, -7.204137 ], [ 111.856075, -7.204255 ], [ 111.855945, -7.204396 ], [ 111.855761, -7.204589 ], [ 111.855602, -7.204757 ], [ 111.855547, -7.204815 ], [ 111.855413, -7.204958 ], [ 111.855311, -7.205071 ], [ 111.855138, -7.205261 ], [ 111.855107, -7.205295 ], [ 111.85508, -7.205293 ], [ 111.855108, -7.205263 ], [ 111.855207, -7.20515 ], [ 111.855313, -7.205032 ], [ 111.85537, -7.204968 ], [ 111.855449, -7.204881 ], [ 111.85561, -7.204708 ], [ 111.855722, -7.204592 ], [ 111.855995, -7.204305 ], [ 111.855997, -7.204285 ], [ 111.855991, -7.204268 ], [ 111.855969, -7.204248 ], [ 111.855936, -7.204234 ], [ 111.855843, -7.204209 ], [ 111.855756, -7.20419 ], [ 111.855582, -7.204161 ], [ 111.85551, -7.20415 ], [ 111.855449, -7.204139 ], [ 111.855375, -7.204123 ], [ 111.855355, -7.204117 ], [ 111.855335, -7.204108 ], [ 111.855265, -7.204066 ], [ 111.855215, -7.204042 ], [ 111.855176, -7.204028 ], [ 111.855126, -7.204018 ], [ 111.855038, -7.204005 ], [ 111.854929, -7.203992 ], [ 111.854882, -7.203985 ], [ 111.85484, -7.203975 ], [ 111.85472, -7.203944 ], [ 111.854712, -7.203943 ], [ 111.854702, -7.203946 ], [ 111.854694, -7.203951 ], [ 111.854691, -7.203958 ], [ 111.854679, -7.204007 ], [ 111.854641, -7.204292 ], [ 111.854606, -7.2044 ], [ 111.854604, -7.204403 ], [ 111.8546, -7.204407 ], [ 111.854592, -7.204414 ], [ 111.854579, -7.20443 ], [ 111.85457, -7.204443 ], [ 111.854556, -7.204468 ], [ 111.854543, -7.2045 ], [ 111.854535, -7.204534 ], [ 111.854529, -7.204568 ], [ 111.854446, -7.204971 ], [ 111.854448, -7.20498 ], [ 111.854453, -7.204989 ], [ 111.854463, -7.204993 ], [ 111.8545, -7.205001 ], [ 111.85456, -7.205022 ], [ 111.854597, -7.205037 ], [ 111.85465, -7.20506 ], [ 111.854676, -7.205073 ], [ 111.85472, -7.205094 ], [ 111.854726, -7.205098 ], [ 111.85473, -7.205104 ], [ 111.854731, -7.205114 ], [ 111.854735, -7.205134 ], [ 111.85474, -7.20516 ], [ 111.854747, -7.205206 ], [ 111.854751, -7.205228 ], [ 111.854755, -7.205244 ], [ 111.854758, -7.20525 ], [ 111.854764, -7.205255 ], [ 111.854776, -7.205262 ], [ 111.854802, -7.20527 ], [ 111.854749, -7.205265 ], [ 111.854745, -7.205262 ], [ 111.854739, -7.205254 ], [ 111.854725, -7.20518 ], [ 111.854719, -7.205144 ], [ 111.854715, -7.205122 ], [ 111.854714, -7.205117 ], [ 111.854712, -7.205113 ], [ 111.854708, -7.20511 ], [ 111.854704, -7.205108 ], [ 111.854671, -7.205091 ], [ 111.854635, -7.205072 ], [ 111.854555, -7.205039 ], [ 111.854497, -7.20502 ], [ 111.854453, -7.205011 ], [ 111.854441, -7.205007 ], [ 111.854412, -7.205019 ], [ 111.854388, -7.205028 ], [ 111.854374, -7.205039 ], [ 111.854367, -7.205053 ], [ 111.854359, -7.205075 ], [ 111.854349, -7.205112 ], [ 111.854342, -7.205148 ], [ 111.854325, -7.20523 ], [ 111.854303, -7.205228 ], [ 111.854319, -7.205145 ], [ 111.854328, -7.205105 ], [ 111.854337, -7.205068 ], [ 111.854344, -7.205044 ], [ 111.854358, -7.205028 ], [ 111.854379, -7.205015 ], [ 111.854412, -7.205 ], [ 111.854428, -7.204991 ], [ 111.854428, -7.204979 ], [ 111.854511, -7.204571 ], [ 111.854519, -7.204527 ], [ 111.854529, -7.204487 ], [ 111.85454, -7.20446 ], [ 111.854556, -7.204434 ], [ 111.854572, -7.20441 ], [ 111.854588, -7.204395 ], [ 111.85462, -7.204295 ], [ 111.854629, -7.204234 ], [ 111.854653, -7.204064 ], [ 111.854666, -7.20397 ], [ 111.854665, -7.203958 ], [ 111.854662, -7.203952 ], [ 111.854657, -7.203944 ], [ 111.854649, -7.203935 ], [ 111.854636, -7.203927 ], [ 111.854393, -7.203862 ], [ 111.854205, -7.203801 ], [ 111.854161, -7.203785 ], [ 111.854247, -7.203792 ], [ 111.85435, -7.203827 ], [ 111.854426, -7.20385 ], [ 111.854513, -7.203875 ], [ 111.854547, -7.203884 ], [ 111.854684, -7.203916 ], [ 111.85476, -7.203936 ], [ 111.85483, -7.203953 ], [ 111.854869, -7.203963 ], [ 111.854919, -7.203972 ], [ 111.854974, -7.203979 ], [ 111.855042, -7.203985 ], [ 111.855088, -7.203992 ], [ 111.855128, -7.203997 ], [ 111.855169, -7.204005 ], [ 111.855206, -7.204017 ], [ 111.855247, -7.204035 ], [ 111.855278, -7.20405 ], [ 111.855305, -7.204065 ], [ 111.855335, -7.204085 ], [ 111.855362, -7.2041 ], [ 111.85543, -7.204116 ], [ 111.8555, -7.20413 ], [ 111.855594, -7.204145 ], [ 111.855702, -7.204161 ], [ 111.855769, -7.204173 ], [ 111.855846, -7.204189 ], [ 111.855899, -7.204201 ], [ 111.855954, -7.204215 ], [ 111.855995, -7.204224 ], [ 111.856027, -7.204231 ], [ 111.856057, -7.204228 ], [ 111.85608, -7.204217 ], [ 111.856223, -7.204064 ], [ 111.856285, -7.203999 ], [ 111.856318, -7.203964 ] ] ] ] } },
{ "type": "Feature", "properties": { "GM_LAYER": "Unknown Area Type", "LAYER": "Unknown Area Type", "MAP_NAME": "AR_Jalan.shp", "id": null, "PERIMETER": "316.29 m", "ENCLOSED_A": "0.0892 ha", "LENGTH": null, "WIDTH": null }, "geometry": { "type": "MultiPolygon", "coordinates": [ [ [ [ 111.864371, -7.206322 ], [ 111.864314, -7.206316 ], [ 111.864439, -7.205291 ], [ 111.864477, -7.20495 ], [ 111.864529, -7.204958 ], [ 111.864522, -7.205023 ], [ 111.864449, -7.20563 ], [ 111.864371, -7.206322 ] ] ] ] } },
{ "type": "Feature", "properties": { "GM_LAYER": "Unknown Area Type", "LAYER": "Unknown Area Type", "MAP_NAME": "AR_Jalan.shp", "id": null, "PERIMETER": "1.607 km", "ENCLOSED_A": "0.1292 ha", "LENGTH": null, "WIDTH": null }, "geometry": { "type": "MultiPolygon", "coordinates": [ [ [ [ 111.839471, -7.203363 ], [ 111.839469, -7.203354 ], [ 111.839471, -7.203328 ], [ 111.839475, -7.203304 ], [ 111.839489, -7.203246 ], [ 111.83951, -7.203162 ], [ 111.839527, -7.203102 ], [ 111.839547, -7.203028 ], [ 111.839576, -7.202924 ], [ 111.839588, -7.202891 ], [ 111.839597, -7.20286 ], [ 111.839611, -7.202807 ], [ 111.839623, -7.202763 ], [ 111.839627, -7.202739 ], [ 111.839623, -7.202716 ], [ 111.839618, -7.202699 ], [ 111.83961, -7.202683 ], [ 111.839608, -7.202668 ], [ 111.839609, -7.202643 ], [ 111.839612, -7.202625 ], [ 111.839619, -7.202602 ], [ 111.839632, -7.202561 ], [ 111.839639, -7.20254 ], [ 111.839648, -7.202543 ], [ 111.839641, -7.202564 ], [ 111.839619, -7.202632 ], [ 111.839616, -7.202659 ], [ 111.839618, -7.202679 ], [ 111.839625, -7.202697 ], [ 111.839631, -7.202716 ], [ 111.839635, -7.202739 ], [ 111.839633, -7.202755 ], [ 111.839624, -7.202791 ], [ 111.839608, -7.20286 ], [ 111.839579, -7.20295 ], [ 111.839541, -7.203093 ], [ 111.839487, -7.203314 ], [ 111.839486, -7.203334 ], [ 111.839486, -7.203349 ], [ 111.839493, -7.203357 ], [ 111.839517, -7.203364 ], [ 111.839554, -7.203373 ], [ 111.839612, -7.203387 ], [ 111.839684, -7.20341 ], [ 111.839788, -7.203446 ], [ 111.839951, -7.203495 ], [ 111.840013, -7.203517 ], [ 111.840106, -7.203561 ], [ 111.840214, -7.203603 ], [ 111.840314, -7.203637 ], [ 111.84047, -7.203686 ], [ 111.84058, -7.203727 ], [ 111.840625, -7.203751 ], [ 111.84069, -7.203787 ], [ 111.840729, -7.203815 ], [ 111.840787, -7.203855 ], [ 111.840832, -7.203892 ], [ 111.840895, -7.203927 ], [ 111.840961, -7.203947 ], [ 111.841046, -7.203974 ], [ 111.841116, -7.203999 ], [ 111.841179, -7.204031 ], [ 111.841274, -7.204107 ], [ 111.84142, -7.204207 ], [ 111.841485, -7.204247 ], [ 111.841542, -7.204279 ], [ 111.841588, -7.204302 ], [ 111.84161, -7.204313 ], [ 111.84163, -7.204319 ], [ 111.841653, -7.204325 ], [ 111.841676, -7.204331 ], [ 111.841718, -7.204344 ], [ 111.841746, -7.204351 ], [ 111.84176, -7.204361 ], [ 111.841775, -7.204376 ], [ 111.841799, -7.204402 ], [ 111.841831, -7.204428 ], [ 111.841891, -7.204473 ], [ 111.841939, -7.204506 ], [ 111.842029, -7.20456 ], [ 111.842102, -7.2046 ], [ 111.842283, -7.204688 ], [ 111.842341, -7.204716 ], [ 111.842359, -7.204723 ], [ 111.842407, -7.204742 ], [ 111.842436, -7.204748 ], [ 111.842453, -7.204749 ], [ 111.842493, -7.204749 ], [ 111.842537, -7.204747 ], [ 111.842581, -7.204745 ], [ 111.842614, -7.204744 ], [ 111.842634, -7.204748 ], [ 111.842646, -7.204753 ], [ 111.842663, -7.204761 ], [ 111.842694, -7.204784 ], [ 111.842734, -7.204813 ], [ 111.842772, -7.204837 ], [ 111.842811, -7.204856 ], [ 111.842868, -7.20487 ], [ 111.842912, -7.204879 ], [ 111.842962, -7.204895 ], [ 111.842989, -7.204907 ], [ 111.843008, -7.204925 ], [ 111.843017, -7.204952 ], [ 111.84302, -7.204978 ], [ 111.843021, -7.205029 ], [ 111.843021, -7.205087 ], [ 111.843022, -7.205123 ], [ 111.843029, -7.205166 ], [ 111.843043, -7.205188 ], [ 111.843056, -7.205199 ], [ 111.843095, -7.205209 ], [ 111.84313, -7.205214 ], [ 111.843182, -7.205221 ], [ 111.843246, -7.20523 ], [ 111.84329, -7.205238 ], [ 111.843329, -7.205243 ], [ 111.843384, -7.205258 ], [ 111.843448, -7.205271 ], [ 111.843504, -7.205279 ], [ 111.843606, -7.205298 ], [ 111.843707, -7.205316 ], [ 111.84388, -7.205349 ], [ 111.844148, -7.205402 ], [ 111.844478, -7.205462 ], [ 111.84466, -7.205493 ], [ 111.844865, -7.205529 ], [ 111.844997, -7.20555 ], [ 111.845079, -7.205565 ], [ 111.845175, -7.205582 ], [ 111.845182, -7.205583 ], [ 111.845235, -7.205602 ], [ 111.84515, -7.20559 ], [ 111.844901, -7.205546 ], [ 111.844754, -7.205521 ], [ 111.84438, -7.205457 ], [ 111.84403, -7.205393 ], [ 111.843954, -7.205376 ], [ 111.843954, -7.205377 ], [ 111.843857, -7.205358 ], [ 111.843754, -7.205341 ], [ 111.843612, -7.205314 ], [ 111.84357, -7.205305 ], [ 111.843513, -7.205296 ], [ 111.843441, -7.205288 ], [ 111.843375, -7.205273 ], [ 111.843341, -7.205258 ], [ 111.843268, -7.205244 ], [ 111.843206, -7.205236 ], [ 111.843125, -7.205223 ], [ 111.843042, -7.205208 ], [ 111.84303, -7.205197 ], [ 111.843021, -7.205177 ], [ 111.843014, -7.205155 ], [ 111.843011, -7.205099 ], [ 111.843012, -7.205047 ], [ 111.843013, -7.205012 ], [ 111.843009, -7.204975 ], [ 111.843006, -7.20495 ], [ 111.843, -7.204933 ], [ 111.842984, -7.204915 ], [ 111.842967, -7.204906 ], [ 111.84294, -7.204898 ], [ 111.842904, -7.204888 ], [ 111.842864, -7.204879 ], [ 111.842801, -7.204866 ], [ 111.842792, -7.204862 ], [ 111.842757, -7.204844 ], [ 111.842732, -7.20483 ], [ 111.842705, -7.204808 ], [ 111.842677, -7.204786 ], [ 111.842649, -7.204769 ], [ 111.842626, -7.204761 ], [ 111.842567, -7.204758 ], [ 111.842507, -7.204762 ], [ 111.842452, -7.204765 ], [ 111.842413, -7.204759 ], [ 111.842367, -7.204742 ], [ 111.842355, -7.204736 ], [ 111.842319, -7.204721 ], [ 111.842276, -7.204701 ], [ 111.842244, -7.204685 ], [ 111.842209, -7.204667 ], [ 111.842153, -7.20464 ], [ 111.842111, -7.204618 ], [ 111.842053, -7.204589 ], [ 111.842021, -7.204573 ], [ 111.841981, -7.204549 ], [ 111.841943, -7.204525 ], [ 111.841918, -7.204506 ], [ 111.841845, -7.204457 ], [ 111.841795, -7.204418 ], [ 111.841779, -7.204399 ], [ 111.841755, -7.204377 ], [ 111.841742, -7.204368 ], [ 111.841729, -7.204361 ], [ 111.841697, -7.204352 ], [ 111.841604, -7.20432 ], [ 111.841532, -7.204286 ], [ 111.841504, -7.204271 ], [ 111.841465, -7.204247 ], [ 111.841429, -7.204226 ], [ 111.841318, -7.204158 ], [ 111.841277, -7.20413 ], [ 111.841254, -7.204115 ], [ 111.841234, -7.2041 ], [ 111.841217, -7.204085 ], [ 111.841193, -7.204068 ], [ 111.841168, -7.204047 ], [ 111.841132, -7.204029 ], [ 111.841099, -7.204013 ], [ 111.841055, -7.203996 ], [ 111.841026, -7.203989 ], [ 111.840961, -7.203966 ], [ 111.840895, -7.203943 ], [ 111.840853, -7.203924 ], [ 111.840808, -7.203898 ], [ 111.840764, -7.203868 ], [ 111.840736, -7.203845 ], [ 111.840659, -7.203798 ], [ 111.84063, -7.203777 ], [ 111.840577, -7.20375 ], [ 111.840506, -7.203721 ], [ 111.84043, -7.203694 ], [ 111.840338, -7.203667 ], [ 111.840282, -7.20365 ], [ 111.84024, -7.203633 ], [ 111.840203, -7.20362 ], [ 111.840146, -7.203602 ], [ 111.840081, -7.203572 ], [ 111.840033, -7.203551 ], [ 111.839997, -7.203535 ], [ 111.839969, -7.203523 ], [ 111.839916, -7.203508 ], [ 111.839842, -7.203486 ], [ 111.839772, -7.203459 ], [ 111.839707, -7.203437 ], [ 111.839637, -7.203413 ], [ 111.839585, -7.203398 ], [ 111.839532, -7.203388 ], [ 111.839482, -7.203378 ], [ 111.839471, -7.203363 ] ] ] ] } },
{ "type": "Feature", "properties": { "GM_LAYER": "Unknown Area Type", "LAYER": "Unknown Area Type", "MAP_NAME": "AR_Jalan.shp", "id": null, "PERIMETER": "515.18 m", "ENCLOSED_A": "0.1161 ha", "LENGTH": null, "WIDTH": null }, "geometry": { "type": "MultiPolygon", "coordinates": [ [ [ [ 111.91933, -7.213291 ], [ 111.919281, -7.213295 ], [ 111.919456, -7.212973 ], [ 111.91957, -7.212741 ], [ 111.919571, -7.21274 ], [ 111.919691, -7.212517 ], [ 111.919691, -7.212517 ], [ 111.919891, -7.212149 ], [ 111.920077, -7.211791 ], [ 111.920199, -7.211551 ], [ 111.920199, -7.211551 ], [ 111.920306, -7.211343 ], [ 111.920343, -7.21127 ], [ 111.920388, -7.211273 ], [ 111.920344, -7.211361 ], [ 111.920343, -7.211362 ], [ 111.920236, -7.21157 ], [ 111.920114, -7.21181 ], [ 111.920114, -7.21181 ], [ 111.919927, -7.212168 ], [ 111.919927, -7.212169 ], [ 111.919727, -7.212537 ], [ 111.919607, -7.21276 ], [ 111.919493, -7.212991 ], [ 111.919492, -7.212992 ], [ 111.91933, -7.213291 ] ] ] ] } },
{ "type": "Feature", "properties": { "GM_LAYER": "Unknown Area Type", "LAYER": "Unknown Area Type", "MAP_NAME": "AR_Jalan.shp", "id": null, "PERIMETER": "706.37 m", "ENCLOSED_A": "0.1486 ha", "LENGTH": null, "WIDTH": null }, "geometry": { "type": "MultiPolygon", "coordinates": [ [ [ [ 111.934449, -7.211972 ], [ 111.934451, -7.211956 ], [ 111.93451, -7.211967 ], [ 111.934551, -7.211973 ], [ 111.934552, -7.211973 ], [ 111.934615, -7.211986 ], [ 111.934615, -7.211986 ], [ 111.934668, -7.212 ], [ 111.934668, -7.212 ], [ 111.934712, -7.212012 ], [ 111.934712, -7.212012 ], [ 111.93478, -7.212032 ], [ 111.93478, -7.212032 ], [ 111.934826, -7.212046 ], [ 111.934827, -7.212046 ], [ 111.934863, -7.212059 ], [ 111.934864, -7.212059 ], [ 111.934888, -7.212069 ], [ 111.934889, -7.212069 ], [ 111.934911, -7.21208 ], [ 111.934912, -7.21208 ], [ 111.934929, -7.21209 ], [ 111.934929, -7.21209 ], [ 111.934946, -7.212101 ], [ 111.934966, -7.212111 ], [ 111.934995, -7.212121 ], [ 111.934999, -7.212123 ], [ 111.935006, -7.212124 ], [ 111.935007, -7.212125 ], [ 111.935031, -7.212131 ], [ 111.935031, -7.212131 ], [ 111.935115, -7.212157 ], [ 111.935124, -7.212153 ], [ 111.935133, -7.212121 ], [ 111.935156, -7.212029 ], [ 111.935188, -7.2119 ], [ 111.935207, -7.211805 ], [ 111.935232, -7.211666 ], [ 111.935247, -7.21157 ], [ 111.935258, -7.211494 ], [ 111.935267, -7.21143 ], [ 111.935267, -7.21143 ], [ 111.935294, -7.211247 ], [ 111.935321, -7.211052 ], [ 111.935321, -7.211052 ], [ 111.935345, -7.210909 ], [ 111.935345, -7.210909 ], [ 111.935367, -7.210779 ], [ 111.935386, -7.210646 ], [ 111.935405, -7.210511 ], [ 111.935407, -7.210494 ], [ 111.935407, -7.210494 ], [ 111.935415, -7.210442 ], [ 111.935423, -7.21037 ], [ 111.935446, -7.210196 ], [ 111.935493, -7.210186 ], [ 111.935468, -7.210375 ], [ 111.935468, -7.210375 ], [ 111.93546, -7.210448 ], [ 111.93546, -7.210449 ], [ 111.935452, -7.210501 ], [ 111.93545, -7.210518 ], [ 111.935431, -7.210652 ], [ 111.935431, -7.210652 ], [ 111.935412, -7.210786 ], [ 111.935412, -7.210786 ], [ 111.93539, -7.210916 ], [ 111.935366, -7.211059 ], [ 111.935338, -7.211254 ], [ 111.935338, -7.211254 ], [ 111.935311, -7.211437 ], [ 111.935303, -7.2115 ], [ 111.935303, -7.2115 ], [ 111.935292, -7.211576 ], [ 111.935292, -7.211577 ], [ 111.935277, -7.211673 ], [ 111.935277, -7.211674 ], [ 111.935251, -7.211813 ], [ 111.935251, -7.211813 ], [ 111.935235, -7.211893 ], [ 111.935232, -7.211909 ], [ 111.935232, -7.21191 ], [ 111.9352, -7.21204 ], [ 111.9352, -7.21204 ], [ 111.935177, -7.212132 ], [ 111.935176, -7.212133 ], [ 111.935143, -7.21225 ], [ 111.935143, -7.21225 ], [ 111.935077, -7.212479 ], [ 111.935047, -7.212591 ], [ 111.935, -7.212592 ], [ 111.935033, -7.212467 ], [ 111.935033, -7.212466 ], [ 111.9351, -7.212237 ], [ 111.935117, -7.212178 ], [ 111.935111, -7.212169 ], [ 111.935028, -7.212143 ], [ 111.935004, -7.212137 ], [ 111.934992, -7.212136 ], [ 111.934989, -7.212137 ], [ 111.93496, -7.212127 ], [ 111.934959, -7.212126 ], [ 111.934939, -7.212115 ], [ 111.934938, -7.212115 ], [ 111.934921, -7.212104 ], [ 111.934904, -7.212095 ], [ 111.934882, -7.212084 ], [ 111.934858, -7.212074 ], [ 111.934821, -7.212062 ], [ 111.934775, -7.212047 ], [ 111.934707, -7.212028 ], [ 111.934664, -7.212016 ], [ 111.934611, -7.212002 ], [ 111.934548, -7.211989 ], [ 111.934507, -7.211983 ], [ 111.934507, -7.211983 ], [ 111.934449, -7.211972 ] ] ] ] } },
{ "type": "Feature", "properties": { "GM_LAYER": "Unknown Area Type", "LAYER": "Unknown Area Type", "MAP_NAME": "AR_Jalan.shp", "id": null, "PERIMETER": "388.07 m", "ENCLOSED_A": "0.0978 ha", "LENGTH": null, "WIDTH": null }, "geometry": { "type": "MultiPolygon", "coordinates": [ [ [ [ 111.870235, -7.207407 ], [ 111.870188, -7.2074 ], [ 111.870415, -7.205709 ], [ 111.870463, -7.205715 ], [ 111.87038, -7.20632 ], [ 111.870235, -7.207407 ] ] ] ] } },
{ "type": "Feature", "properties": { "GM_LAYER": "Unknown Area Type", "LAYER": "Unknown Area Type", "MAP_NAME": "AR_Jalan.shp", "id": null, "PERIMETER": "493.71 m", "ENCLOSED_A": "0.0525 ha", "LENGTH": null, "WIDTH": null }, "geometry": { "type": "MultiPolygon", "coordinates": [ [ [ [ 111.943017, -7.203382 ], [ 111.943017, -7.203382 ], [ 111.94305, -7.203174 ], [ 111.943073, -7.202995 ], [ 111.943096, -7.202819 ], [ 111.943122, -7.202622 ], [ 111.943141, -7.202453 ], [ 111.943167, -7.202218 ], [ 111.943177, -7.202098 ], [ 111.943187, -7.202007 ], [ 111.94321, -7.201758 ], [ 111.943219, -7.201701 ], [ 111.943229, -7.201635 ], [ 111.943245, -7.201533 ], [ 111.943268, -7.201385 ], [ 111.943283, -7.201237 ], [ 111.943293, -7.201176 ], [ 111.943299, -7.201238 ], [ 111.943286, -7.201343 ], [ 111.943252, -7.201618 ], [ 111.943224, -7.201839 ], [ 111.943198, -7.202043 ], [ 111.943191, -7.202237 ], [ 111.943159, -7.20249 ], [ 111.943117, -7.202827 ], [ 111.94308, -7.20308 ], [ 111.943035, -7.203382 ], [ 111.943035, -7.203382 ], [ 111.943017, -7.203382 ] ] ] ] } },
{ "type": "Feature", "properties": { "GM_LAYER": "Unknown Area Type", "LAYER": "Unknown Area Type", "MAP_NAME": "AR_Jalan.shp", "id": null, "PERIMETER": "5.952 km", "ENCLOSED_A": "1.867 ha", "LENGTH": null, "WIDTH": null }, "geometry": { "type": "MultiPolygon", "coordinates": [ [ [ [ 111.948231, -7.195207 ], [ 111.948236, -7.195295 ], [ 111.948249, -7.195332 ], [ 111.948714, -7.195257 ], [ 111.94872, -7.195353 ], [ 111.948262, -7.195425 ], [ 111.948263, -7.195426 ], [ 111.948263, -7.195427 ], [ 111.948172, -7.19544 ], [ 111.947729, -7.195513 ], [ 111.947323, -7.195583 ], [ 111.946973, -7.195638 ], [ 111.946992, -7.196122 ], [ 111.946968, -7.196106 ], [ 111.946953, -7.195641 ], [ 111.94693, -7.195645 ], [ 111.946619, -7.195697 ], [ 111.945915, -7.19582 ], [ 111.945666, -7.195864 ], [ 111.945433, -7.195907 ], [ 111.945006, -7.195999 ], [ 111.944652, -7.196082 ], [ 111.944156, -7.196199 ], [ 111.944156, -7.196199 ], [ 111.943943, -7.196249 ], [ 111.943827, -7.196277 ], [ 111.943801, -7.196298 ], [ 111.94379, -7.196321 ], [ 111.943789, -7.196394 ], [ 111.943777, -7.196596 ], [ 111.943765, -7.196802 ], [ 111.943723, -7.196817 ], [ 111.943738, -7.196632 ], [ 111.94375, -7.196443 ], [ 111.943745, -7.196387 ], [ 111.943738, -7.196334 ], [ 111.943722, -7.196316 ], [ 111.943698, -7.196307 ], [ 111.943515, -7.196349 ], [ 111.943227, -7.196418 ], [ 111.943227, -7.196418 ], [ 111.9428, -7.196519 ], [ 111.9428, -7.196519 ], [ 111.942586, -7.196568 ], [ 111.942386, -7.196616 ], [ 111.942211, -7.196657 ], [ 111.942134, -7.196675 ], [ 111.94197, -7.196715 ], [ 111.941861, -7.196741 ], [ 111.941548, -7.196816 ], [ 111.941385, -7.196856 ], [ 111.940926, -7.196981 ], [ 111.940923, -7.196995 ], [ 111.940944, -7.197096 ], [ 111.940969, -7.197192 ], [ 111.940992, -7.19725 ], [ 111.941011, -7.197283 ], [ 111.941049, -7.197328 ], [ 111.941073, -7.197358 ], [ 111.941113, -7.197408 ], [ 111.941159, -7.197468 ], [ 111.941181, -7.197502 ], [ 111.9412, -7.197536 ], [ 111.941219, -7.19758 ], [ 111.941233, -7.197633 ], [ 111.941239, -7.197692 ], [ 111.941238, -7.197762 ], [ 111.941228, -7.197845 ], [ 111.941211, -7.197923 ], [ 111.941182, -7.198046 ], [ 111.941098, -7.198303 ], [ 111.941068, -7.198395 ], [ 111.941046, -7.198479 ], [ 111.941024, -7.198576 ], [ 111.941028, -7.198581 ], [ 111.941032, -7.198583 ], [ 111.941281, -7.198637 ], [ 111.941289, -7.198638 ], [ 111.941296, -7.198638 ], [ 111.941359, -7.198625 ], [ 111.941367, -7.198623 ], [ 111.94148, -7.198637 ], [ 111.94148, -7.198648 ], [ 111.941432, -7.198643 ], [ 111.941369, -7.198637 ], [ 111.941363, -7.198638 ], [ 111.9413, -7.19865 ], [ 111.941286, -7.19865 ], [ 111.941272, -7.198648 ], [ 111.941028, -7.198595 ], [ 111.941024, -7.198594 ], [ 111.94102, -7.198595 ], [ 111.940962, -7.198873 ], [ 111.940936, -7.198868 ], [ 111.94095, -7.198799 ], [ 111.940995, -7.198581 ], [ 111.94102, -7.198474 ], [ 111.941039, -7.198397 ], [ 111.94107, -7.198301 ], [ 111.941108, -7.198174 ], [ 111.941151, -7.198035 ], [ 111.941185, -7.197898 ], [ 111.941197, -7.197846 ], [ 111.941204, -7.197797 ], [ 111.941211, -7.197733 ], [ 111.941211, -7.197693 ], [ 111.941206, -7.197638 ], [ 111.941201, -7.197615 ], [ 111.941196, -7.197598 ], [ 111.941185, -7.197568 ], [ 111.941162, -7.197524 ], [ 111.941145, -7.197496 ], [ 111.941123, -7.197465 ], [ 111.941017, -7.197335 ], [ 111.940989, -7.197299 ], [ 111.940974, -7.197278 ], [ 111.940964, -7.197258 ], [ 111.940956, -7.197241 ], [ 111.940937, -7.197186 ], [ 111.940893, -7.197002 ], [ 111.940882, -7.196993 ], [ 111.940624, -7.197063 ], [ 111.940466, -7.197111 ], [ 111.940353, -7.197147 ], [ 111.940216, -7.197192 ], [ 111.939991, -7.197274 ], [ 111.939838, -7.197333 ], [ 111.939717, -7.19738 ], [ 111.939609, -7.197425 ], [ 111.939491, -7.197474 ], [ 111.939269, -7.197568 ], [ 111.938971, -7.197688 ], [ 111.938665, -7.197821 ], [ 111.938663, -7.197817 ], [ 111.938661, -7.197818 ], [ 111.938609, -7.197841 ], [ 111.938451, -7.198584 ], [ 111.938403, -7.198574 ], [ 111.938552, -7.197867 ], [ 111.938551, -7.197866 ], [ 111.938212, -7.198014 ], [ 111.937553, -7.198319 ], [ 111.937233, -7.198455 ], [ 111.937001, -7.198509 ], [ 111.936995, -7.198455 ], [ 111.937218, -7.198389 ], [ 111.937569, -7.198222 ], [ 111.937502, -7.197952 ], [ 111.937375, -7.197974 ], [ 111.937244, -7.197982 ], [ 111.93718, -7.197979 ], [ 111.937156, -7.197971 ], [ 111.937129, -7.197967 ], [ 111.937064, -7.19796 ], [ 111.937069, -7.197924 ], [ 111.937122, -7.197929 ], [ 111.937185, -7.197944 ], [ 111.937309, -7.197947 ], [ 111.937436, -7.197937 ], [ 111.937486, -7.197916 ], [ 111.937479, -7.197833 ], [ 111.937476, -7.197716 ], [ 111.937516, -7.197708 ], [ 111.937526, -7.197871 ], [ 111.937545, -7.197991 ], [ 111.937556, -7.198038 ], [ 111.937584, -7.198139 ], [ 111.937609, -7.198203 ], [ 111.937641, -7.198188 ], [ 111.938629, -7.19774 ], [ 111.938626, -7.197734 ], [ 111.938654, -7.197723 ], [ 111.938553, -7.19745 ], [ 111.9385, -7.197287 ], [ 111.938525, -7.197279 ], [ 111.938573, -7.197444 ], [ 111.938675, -7.197713 ], [ 111.938889, -7.197623 ], [ 111.939258, -7.197468 ], [ 111.939362, -7.197424 ], [ 111.939454, -7.197386 ], [ 111.939532, -7.197352 ], [ 111.939603, -7.197322 ], [ 111.939699, -7.197286 ], [ 111.9397, -7.197278 ], [ 111.9397, -7.197269 ], [ 111.939653, -7.197086 ], [ 111.939652, -7.197073 ], [ 111.939652, -7.197059 ], [ 111.939659, -7.196934 ], [ 111.939658, -7.196925 ], [ 111.939653, -7.196917 ], [ 111.939643, -7.196911 ], [ 111.939479, -7.196886 ], [ 111.939372, -7.196882 ], [ 111.939346, -7.196881 ], [ 111.939264, -7.196865 ], [ 111.938701, -7.19678 ], [ 111.938703, -7.196766 ], [ 111.939299, -7.196858 ], [ 111.939352, -7.196867 ], [ 111.939401, -7.19687 ], [ 111.939472, -7.196873 ], [ 111.939476, -7.19687 ], [ 111.939478, -7.196867 ], [ 111.939496, -7.196748 ], [ 111.939501, -7.196694 ], [ 111.939518, -7.196689 ], [ 111.939509, -7.196757 ], [ 111.939492, -7.196867 ], [ 111.939493, -7.196874 ], [ 111.939496, -7.196877 ], [ 111.939649, -7.196901 ], [ 111.939657, -7.196903 ], [ 111.939663, -7.196908 ], [ 111.93967, -7.196915 ], [ 111.939674, -7.196925 ], [ 111.939674, -7.196935 ], [ 111.939669, -7.197061 ], [ 111.939669, -7.197072 ], [ 111.93967, -7.197084 ], [ 111.939717, -7.197265 ], [ 111.939721, -7.197271 ], [ 111.939726, -7.197275 ], [ 111.939837, -7.19723 ], [ 111.939954, -7.197183 ], [ 111.94008, -7.197138 ], [ 111.940136, -7.197117 ], [ 111.940242, -7.197081 ], [ 111.94023, -7.196979 ], [ 111.940224, -7.196864 ], [ 111.940227, -7.196829 ], [ 111.940233, -7.196775 ], [ 111.940241, -7.196718 ], [ 111.940256, -7.196651 ], [ 111.940299, -7.196476 ], [ 111.940302, -7.196465 ], [ 111.940301, -7.196459 ], [ 111.940297, -7.196456 ], [ 111.940266, -7.196446 ], [ 111.940207, -7.196428 ], [ 111.940133, -7.196407 ], [ 111.940132, -7.196395 ], [ 111.940237, -7.196426 ], [ 111.940308, -7.196445 ], [ 111.940318, -7.196449 ], [ 111.940323, -7.196454 ], [ 111.940325, -7.19646 ], [ 111.940325, -7.196466 ], [ 111.940321, -7.196482 ], [ 111.940261, -7.196718 ], [ 111.940251, -7.196792 ], [ 111.940244, -7.196867 ], [ 111.94025, -7.196978 ], [ 111.940261, -7.197074 ], [ 111.940328, -7.197053 ], [ 111.940441, -7.197018 ], [ 111.940547, -7.196985 ], [ 111.94062, -7.196965 ], [ 111.940743, -7.196931 ], [ 111.940865, -7.196899 ], [ 111.941013, -7.196858 ], [ 111.941119, -7.196827 ], [ 111.941257, -7.19679 ], [ 111.941266, -7.196778 ], [ 111.94127, -7.196756 ], [ 111.941268, -7.196694 ], [ 111.941275, -7.19631 ], [ 111.941284, -7.195981 ], [ 111.941285, -7.195918 ], [ 111.941286, -7.195878 ], [ 111.941288, -7.195853 ], [ 111.94129, -7.195823 ], [ 111.941296, -7.195783 ], [ 111.941299, -7.195767 ], [ 111.941305, -7.19574 ], [ 111.941318, -7.195697 ], [ 111.94135, -7.19559 ], [ 111.941353, -7.195563 ], [ 111.941361, -7.195517 ], [ 111.941353, -7.195497 ], [ 111.941345, -7.195482 ], [ 111.941331, -7.195474 ], [ 111.941315, -7.195471 ], [ 111.941202, -7.195457 ], [ 111.940994, -7.195439 ], [ 111.940848, -7.195429 ], [ 111.94065, -7.195424 ], [ 111.940411, -7.195424 ], [ 111.940389, -7.195422 ], [ 111.94036, -7.195418 ], [ 111.940268, -7.1954 ], [ 111.94021, -7.195387 ], [ 111.94015, -7.195366 ], [ 111.940017, -7.19531 ], [ 111.940008, -7.195312 ], [ 111.940003, -7.195317 ], [ 111.939988, -7.195354 ], [ 111.939984, -7.195322 ], [ 111.939987, -7.195313 ], [ 111.939988, -7.195308 ], [ 111.939988, -7.195301 ], [ 111.939985, -7.195294 ], [ 111.93998, -7.195291 ], [ 111.939976, -7.195263 ], [ 111.940057, -7.195305 ], [ 111.940125, -7.195332 ], [ 111.940157, -7.195345 ], [ 111.940216, -7.195366 ], [ 111.940275, -7.195379 ], [ 111.940385, -7.1954 ], [ 111.940676, -7.1954 ], [ 111.940891, -7.195407 ], [ 111.940924, -7.195409 ], [ 111.941098, -7.195424 ], [ 111.94112, -7.195426 ], [ 111.941279, -7.195441 ], [ 111.941337, -7.195446 ], [ 111.941345, -7.195444 ], [ 111.941354, -7.195436 ], [ 111.94136, -7.195429 ], [ 111.941368, -7.195285 ], [ 111.94137, -7.195274 ], [ 111.941374, -7.195252 ], [ 111.941382, -7.195222 ], [ 111.941406, -7.195121 ], [ 111.941438, -7.194984 ], [ 111.941475, -7.194826 ], [ 111.941512, -7.194674 ], [ 111.941512, -7.194666 ], [ 111.941509, -7.194656 ], [ 111.941507, -7.194647 ], [ 111.9415, -7.194641 ], [ 111.941373, -7.194602 ], [ 111.941346, -7.194594 ], [ 111.941364, -7.194586 ], [ 111.941382, -7.194579 ], [ 111.941442, -7.194596 ], [ 111.941507, -7.194617 ], [ 111.941513, -7.194618 ], [ 111.941519, -7.194617 ], [ 111.941523, -7.194615 ], [ 111.941525, -7.194612 ], [ 111.941543, -7.194546 ], [ 111.941548, -7.194527 ], [ 111.941554, -7.194526 ], [ 111.941559, -7.194525 ], [ 111.941564, -7.194524 ], [ 111.941568, -7.194523 ], [ 111.941582, -7.19452 ], [ 111.941565, -7.194593 ], [ 111.941533, -7.194701 ], [ 111.941504, -7.194819 ], [ 111.94151, -7.194824 ], [ 111.941616, -7.194849 ], [ 111.941758, -7.194886 ], [ 111.941976, -7.194942 ], [ 111.941999, -7.194948 ], [ 111.942064, -7.194966 ], [ 111.942147, -7.194989 ], [ 111.942202, -7.195001 ], [ 111.9422, -7.195027 ], [ 111.942147, -7.195016 ], [ 111.942064, -7.194991 ], [ 111.941983, -7.194967 ], [ 111.94184, -7.194929 ], [ 111.941721, -7.194898 ], [ 111.941504, -7.194842 ], [ 111.941498, -7.194843 ], [ 111.941475, -7.194938 ], [ 111.941435, -7.19511 ], [ 111.94141, -7.195229 ], [ 111.941401, -7.195266 ], [ 111.941398, -7.195281 ], [ 111.941391, -7.195488 ], [ 111.941385, -7.195541 ], [ 111.941377, -7.195593 ], [ 111.941375, -7.195602 ], [ 111.941354, -7.195667 ], [ 111.941333, -7.195743 ], [ 111.94133, -7.195756 ], [ 111.941322, -7.195801 ], [ 111.941316, -7.195862 ], [ 111.941313, -7.195931 ], [ 111.941308, -7.196078 ], [ 111.941306, -7.196211 ], [ 111.9413, -7.19647 ], [ 111.941298, -7.196603 ], [ 111.941302, -7.19673 ], [ 111.941307, -7.196751 ], [ 111.941317, -7.196765 ], [ 111.941328, -7.196772 ], [ 111.941413, -7.196751 ], [ 111.941521, -7.196724 ], [ 111.941813, -7.196653 ], [ 111.941966, -7.196619 ], [ 111.94202, -7.196606 ], [ 111.942095, -7.196587 ], [ 111.942173, -7.196569 ], [ 111.9422, -7.196562 ], [ 111.942565, -7.196477 ], [ 111.942565, -7.196477 ], [ 111.942778, -7.196428 ], [ 111.943167, -7.196336 ], [ 111.943172, -7.196301 ], [ 111.943161, -7.196255 ], [ 111.943151, -7.196185 ], [ 111.943155, -7.196124 ], [ 111.943159, -7.195892 ], [ 111.943163, -7.195706 ], [ 111.943187, -7.19571 ], [ 111.94318, -7.196189 ], [ 111.9432, -7.196301 ], [ 111.943218, -7.196323 ], [ 111.943493, -7.196258 ], [ 111.943494, -7.196258 ], [ 111.943707, -7.196208 ], [ 111.943921, -7.196157 ], [ 111.943921, -7.196157 ], [ 111.944134, -7.196108 ], [ 111.94463, -7.19599 ], [ 111.94463, -7.19599 ], [ 111.944985, -7.195908 ], [ 111.945251, -7.19585 ], [ 111.945519, -7.195794 ], [ 111.945519, -7.195794 ], [ 111.945536, -7.195775 ], [ 111.945543, -7.195747 ], [ 111.945538, -7.19573 ], [ 111.945472, -7.195612 ], [ 111.945377, -7.195447 ], [ 111.945292, -7.19531 ], [ 111.94529, -7.195305 ], [ 111.945258, -7.195279 ], [ 111.945306, -7.195261 ], [ 111.945349, -7.195295 ], [ 111.945348, -7.195297 ], [ 111.945421, -7.195426 ], [ 111.945484, -7.195539 ], [ 111.945561, -7.19567 ], [ 111.9456, -7.195729 ], [ 111.945616, -7.195754 ], [ 111.94563, -7.195768 ], [ 111.945643, -7.195773 ], [ 111.945654, -7.195771 ], [ 111.945986, -7.195715 ], [ 111.946313, -7.195659 ], [ 111.946598, -7.195609 ], [ 111.94681, -7.195572 ], [ 111.947088, -7.195527 ], [ 111.947338, -7.195485 ], [ 111.947447, -7.195468 ], [ 111.947463, -7.195417 ], [ 111.947526, -7.19497 ], [ 111.947546, -7.194972 ], [ 111.947477, -7.195431 ], [ 111.947492, -7.195461 ], [ 111.94758, -7.195447 ], [ 111.947846, -7.1954 ], [ 111.948099, -7.19536 ], [ 111.948157, -7.195348 ], [ 111.948179, -7.195302 ], [ 111.948203, -7.19518 ], [ 111.948241, -7.194852 ], [ 111.948288, -7.19486 ], [ 111.948259, -7.195071 ], [ 111.948231, -7.195207 ] ] ] ] } }
]
}
