{"type":"FeatureCollection","name":"kabel_sutet","features":[{"type":"Feature","properties":{"id":null},"geometry":{"type":"MultiLineString","coordinates":[[[111.798854,-7.177855],[111.801668,-7.177497],[111.80407,-7.177191],[111.807161,-7.176793],[111.810153,-7.176779],[111.813414,-7.176735],[111.81641,-7.176708],[111.819504,-7.176682],[111.822663,-7.176655],[111.82571,-7.176628],[111.828826,-7.176602],[111.831951,-7.176573],[111.835064,-7.176545],[111.8383,-7.176528],[111.84133,-7.1765],[111.844423,-7.176464]]]}},{"type":"Feature","properties":{"id":null},"geometry":{"type":"MultiLineString","coordinates":[[[111.937748,-7.205892],[111.940387,-7.20767],[111.943012,-7.209433],[111.945683,-7.211241],[111.948582,-7.209928],[111.951286,-7.208682],[111.954293,-7.207317],[111.957084,-7.206043],[111.959923,-7.204752],[111.96272,-7.203472],[111.96555,-7.202186],[111.968381,-7.200889],[111.971233,-7.199583],[111.974025,-7.198304],[111.976859,-7.197024],[111.97967,-7.195726],[111.982428,-7.194342],[111.985667,-7.192983]]]}},{"type":"Feature","properties":{"id":null},"geometry":{"type":"MultiLineString","coordinates":[[[111.905039,-7.18999],[111.902243,-7.18888],[111.899436,-7.187763],[111.896649,-7.186653]]]}}]}