{
"type": "FeatureCollection",
"name": "pemakaman",
"features": [
{ "type": "Feature", "properties": { "GM_LAYER": "Unknown Area Type", "LAYER": "Unknown Area Type", "MAP_NAME": "Makam", "id": null }, "geometry": { "type": "MultiPolygon", "coordinates": [ [ [ [ 111.942443, -7.195066 ], [ 111.942448, -7.19504 ], [ 111.942576, -7.194493 ], [ 111.942944, -7.194548 ], [ 111.943155, -7.194764 ], [ 111.94311, -7.195064 ], [ 111.943303, -7.195094 ], [ 111.943249, -7.195315 ], [ 111.943231, -7.195471 ], [ 111.942968, -7.195445 ], [ 111.942936, -7.195425 ], [ 111.942596, -7.195315 ], [ 111.942637, -7.195088 ], [ 111.942443, -7.195066 ] ] ] ] } }
]
}
