{
"type": "FeatureCollection",
"name": "pipa_exxon",
"crs": { "type": "name", "properties": { "name": "urn:ogc:def:crs:OGC:1.3:CRS84" } },
"features": [
{ "type": "Feature", "properties": { "LAYER": "Unknown Line Type", "ELEVATION": null }, "geometry": { "type": "MultiLineString", "coordinates": [ [ [ 111.715528694237875, -7.186909968449554 ], [ 111.719086766173419, -7.18716577754297 ], [ 111.723389010017073, -7.187375075892105 ], [ 111.726040122439613, -7.186956479193816 ], [ 111.727365678650898, -7.187816927962529 ], [ 111.743667694512467, -7.185537901494015 ], [ 111.749948098447717, -7.184674545803786 ], [ 111.751728587876244, -7.184311180614295 ], [ 111.753400067747933, -7.184456526690082 ], [ 111.75528956673331, -7.184274844095329 ], [ 111.755834614517568, -7.183620786754252 ], [ 111.756052633631256, -7.181876633844663 ], [ 111.756597681415499, -7.181476932136227 ], [ 111.763210927864321, -7.18071386523828 ], [ 111.766154185899239, -7.180241490491941 ], [ 111.770659914248995, -7.181077230427784 ], [ 111.771204962033238, -7.181840297325716 ], [ 111.775092969560831, -7.181367922579385 ], [ 111.7792353327211, -7.181295249541481 ], [ 111.782832648097113, -7.180677528719348 ], [ 111.783305022843464, -7.180314163529847 ], [ 111.787956097269017, -7.179660106188744 ], [ 111.788719164166949, -7.178788029733956 ], [ 111.791008364860772, -7.178170308911825 ], [ 111.79398795941465, -7.176317146445403 ], [ 111.795732112324231, -7.175735762142194 ], [ 111.798130322574906, -7.175517743028498 ], [ 111.799365764219189, -7.175699425623264 ], [ 111.800855561496121, -7.175808435180091 ], [ 111.806051683705931, -7.1760991273317 ], [ 111.815135813443334, -7.176280809926448 ], [ 111.822548463309076, -7.176208136888541 ], [ 111.83101487222433, -7.176099127331692 ], [ 111.83508959642856, -7.176099127331695 ], [ 111.836025744856627, -7.175917937313361 ], [ 111.837541311790517, -7.175638861144079 ], [ 111.838119834652389, -7.175539045579883 ], [ 111.838233552068985, -7.175525629480172 ], [ 111.838242057792243, -7.175520712108912 ], [ 111.838946877898607, -7.175382192550436 ], [ 111.839260583957511, -7.175253858253613 ], [ 111.839800402825091, -7.174905522305093 ], [ 111.840710965216829, -7.174363666385174 ], [ 111.840720701856625, -7.174362474838346 ], [ 111.841483008050105, -7.173907366663134 ], [ 111.842163383528515, -7.173497919144699 ], [ 111.843163576222807, -7.172915322178168 ], [ 111.844108768504171, -7.172361243944265 ], [ 111.844766736406939, -7.171974204001466 ], [ 111.845789336676859, -7.171359014197648 ], [ 111.846398415323691, -7.170996418882814 ], [ 111.847339533500389, -7.170460674119886 ], [ 111.84841306007857, -7.169847521368399 ], [ 111.84940714161587, -7.169240479773901 ], [ 111.849820663238972, -7.169004181703561 ], [ 111.849910293541512, -7.168967514761611 ], [ 111.850344185687916, -7.169053070959493 ], [ 111.85106326516059, -7.169228257459919 ], [ 111.851189044210216, -7.169312833027774 ], [ 111.853247007978567, -7.169724248447208 ], [ 111.856363227843687, -7.170538186471669 ], [ 111.857921337776247, -7.1709800385421 ], [ 111.858665509684315, -7.171003293914223 ], [ 111.860386407221768, -7.173142788149971 ], [ 111.864153777506502, -7.177514798109975 ], [ 111.866083973393089, -7.177724096459126 ], [ 111.867456040348628, -7.177584564226349 ], [ 111.874364339331365, -7.179333077518213 ], [ 111.879560461541161, -7.18093188435199 ], [ 111.883194113436105, -7.181949306882574 ], [ 111.886537073179483, -7.178533674101324 ], [ 111.891660522351373, -7.173410224929449 ], [ 111.895330510765291, -7.17195676417146 ], [ 111.900235940823492, -7.170248947780837 ], [ 111.90208910328991, -7.169667563477636 ], [ 111.904559986578491, -7.169703899996597 ], [ 111.90517770740064, -7.168868160060757 ], [ 111.904959688286951, -7.166106584620589 ], [ 111.907866609802937, -7.159893039880214 ], [ 111.909174724485112, -7.157531166148508 ], [ 111.910628185243084, -7.155278301973628 ], [ 111.911463925178921, -7.155205628935737 ], [ 111.914516192770705, -7.149973170207008 ], [ 111.914734211884408, -7.149464458941713 ], [ 111.914734211884408, -7.147829315588983 ], [ 111.917641133400394, -7.14208814559496 ], [ 111.91873122896888, -7.140525675280137 ], [ 111.92290992864811, -7.136019946930398 ], [ 111.923127947761785, -7.135075197437703 ], [ 111.925053783266137, -7.130242440417425 ], [ 111.925562494531434, -7.129079671811028 ], [ 111.925744177126163, -7.128280268394143 ], [ 111.936790478886863, -7.118941783024124 ] ] ] } },
{ "type": "Feature", "properties": { "LAYER": "Unknown Line Type", "ELEVATION": null }, "geometry": { "type": "MultiLineString", "coordinates": [ [ [ 111.823143660762696, -7.176212635571657 ], [ 111.824094066534627, -7.173662766427484 ], [ 111.824859027277881, -7.171182439169072 ], [ 111.825415362363884, -7.170208852768569 ], [ 111.825577626764002, -7.16958297579681 ], [ 111.82567034927834, -7.168122596196063 ], [ 111.827385715793511, -7.161933368364305 ], [ 111.827756605850823, -7.161261130135389 ], [ 111.828266579679678, -7.158734441619803 ], [ 111.82868383099418, -7.157876758362224 ], [ 111.826157142478579, -7.155744140532546 ], [ 111.824070885906082, -7.155373250475223 ], [ 111.823329105791416, -7.155465972989549 ], [ 111.821335571733229, -7.154909637903545 ], [ 111.81883206384623, -7.153217452016963 ], [ 111.817093516702471, -7.152429310645132 ] ] ] } }
]
}
