{
"type": "FeatureCollection",
"name": "rel_kereta",
"features": [
{ "type": "Feature", "properties": { "GM_LAYER": "Unknown Area Type", "LAYER": "Unknown Area Type", "MAP_NAME": "Rel Kereta", "id": null }, "geometry": { "type": "MultiPolygon", "coordinates": [ [ [ [ 111.843533, -7.156311 ], [ 111.843618, -7.156105 ], [ 111.843618, -7.156105 ], [ 111.847637, -7.158718 ], [ 111.851651, -7.161374 ], [ 111.851642, -7.161382 ], [ 111.851636, -7.161388 ], [ 111.85163, -7.161391 ], [ 111.851617, -7.161403 ], [ 111.851563, -7.161436 ], [ 111.851518, -7.161455 ], [ 111.851513, -7.161458 ], [ 111.85151, -7.161459 ], [ 111.851505, -7.161461 ], [ 111.851475, -7.161469 ], [ 111.848686, -7.159646 ], [ 111.84666, -7.158312 ], [ 111.845064, -7.157266 ], [ 111.843533, -7.156311 ] ] ] ] } },
{ "type": "Feature", "properties": { "GM_LAYER": "Unknown Area Type", "LAYER": "Unknown Area Type", "MAP_NAME": "Rel Kereta", "id": null }, "geometry": { "type": "MultiPolygon", "coordinates": [ [ [ [ 111.940555, -7.199466 ], [ 111.940537, -7.199337 ], [ 111.940716, -7.199298 ], [ 111.941097, -7.199196 ], [ 111.941392, -7.199102 ], [ 111.941671, -7.199003 ], [ 111.941687, -7.199112 ], [ 111.941601, -7.199142 ], [ 111.941317, -7.199246 ], [ 111.941079, -7.199319 ], [ 111.940698, -7.199432 ], [ 111.940555, -7.199466 ] ] ] ] } },
{ "type": "Feature", "properties": { "GM_LAYER": "Unknown Area Type", "LAYER": "Unknown Area Type", "MAP_NAME": "Rel Kereta", "id": null }, "geometry": { "type": "MultiPolygon", "coordinates": [ [ [ [ 111.941716, -7.199102 ], [ 111.941689, -7.198997 ], [ 111.941737, -7.19898 ], [ 111.94203, -7.198883 ], [ 111.942752, -7.198588 ], [ 111.942769, -7.198582 ], [ 111.942804, -7.198723 ], [ 111.942646, -7.198775 ], [ 111.94241, -7.198857 ], [ 111.942032, -7.198991 ], [ 111.941716, -7.199102 ] ] ] ] } }
]
}
