{
"type": "FeatureCollection",
"name": "sungai",
"features": [
{ "type": "Feature", "properties": { "GM_LAYER": "Unknown Area Type", "LAYER": "Unknown Area Type", "MAP_NAME": "Sungai", "id": null, "PERIMETER": "589.42 m", "ENCLOSED_A": "0.1566 ha" }, "geometry": { "type": "MultiPolygon", "coordinates": [ [ [ [ 111.848551, -7.204177 ], [ 111.848562, -7.204209 ], [ 111.848535, -7.204259 ], [ 111.848485, -7.204286 ], [ 111.848424, -7.204312 ], [ 111.848374, -7.204342 ], [ 111.848329, -7.204356 ], [ 111.848284, -7.204349 ], [ 111.848257, -7.204331 ], [ 111.848219, -7.20431 ], [ 111.848164, -7.204294 ], [ 111.848114, -7.204286 ], [ 111.848078, -7.204274 ], [ 111.848038, -7.204289 ], [ 111.847969, -7.204284 ], [ 111.847961, -7.204296 ], [ 111.84792, -7.204296 ], [ 111.847866, -7.204302 ], [ 111.847829, -7.204303 ], [ 111.847805, -7.20431 ], [ 111.847771, -7.204321 ], [ 111.84775, -7.204329 ], [ 111.847705, -7.204319 ], [ 111.847666, -7.204307 ], [ 111.847641, -7.204301 ], [ 111.847624, -7.204303 ], [ 111.847609, -7.204306 ], [ 111.847586, -7.204322 ], [ 111.847586, -7.204358 ], [ 111.847593, -7.204389 ], [ 111.847625, -7.204432 ], [ 111.847649, -7.204458 ], [ 111.847661, -7.204489 ], [ 111.84767, -7.20452 ], [ 111.847678, -7.204583 ], [ 111.847693, -7.204631 ], [ 111.847743, -7.204761 ], [ 111.847765, -7.204823 ], [ 111.847771, -7.204848 ], [ 111.847796, -7.204883 ], [ 111.847796, -7.204888 ], [ 111.847727, -7.204886 ], [ 111.84766, -7.204748 ], [ 111.847624, -7.204674 ], [ 111.847599, -7.204622 ], [ 111.847597, -7.204532 ], [ 111.847595, -7.204457 ], [ 111.847548, -7.204379 ], [ 111.847548, -7.204334 ], [ 111.84757, -7.204288 ], [ 111.847604, -7.204267 ], [ 111.847615, -7.204269 ], [ 111.847673, -7.204276 ], [ 111.847708, -7.20427 ], [ 111.847747, -7.204262 ], [ 111.847763, -7.204267 ], [ 111.847783, -7.204282 ], [ 111.847811, -7.204289 ], [ 111.847843, -7.204279 ], [ 111.84786, -7.204268 ], [ 111.847918, -7.204259 ], [ 111.847956, -7.20424 ], [ 111.847995, -7.204221 ], [ 111.848031, -7.204217 ], [ 111.848072, -7.204231 ], [ 111.848118, -7.204247 ], [ 111.848118, -7.204249 ], [ 111.848155, -7.204261 ], [ 111.848196, -7.204261 ], [ 111.848222, -7.204256 ], [ 111.848253, -7.204268 ], [ 111.848273, -7.204285 ], [ 111.848294, -7.204296 ], [ 111.848309, -7.204304 ], [ 111.84831, -7.204302 ], [ 111.84834, -7.204303 ], [ 111.848455, -7.204258 ], [ 111.848477, -7.20421 ], [ 111.848476, -7.20416 ], [ 111.848476, -7.204159 ], [ 111.848437, -7.20412 ], [ 111.848435, -7.204118 ], [ 111.848403, -7.204102 ], [ 111.848404, -7.204098 ], [ 111.848369, -7.204045 ], [ 111.84836, -7.204012 ], [ 111.848337, -7.203936 ], [ 111.848309, -7.20384 ], [ 111.848278, -7.203736 ], [ 111.848236, -7.203667 ], [ 111.848229, -7.2036 ], [ 111.84826, -7.203558 ], [ 111.848248, -7.203529 ], [ 111.848235, -7.203498 ], [ 111.848283, -7.203374 ], [ 111.848284, -7.20336 ], [ 111.848324, -7.20336 ], [ 111.848322, -7.203372 ], [ 111.8483, -7.203435 ], [ 111.848287, -7.203463 ], [ 111.848269, -7.203497 ], [ 111.848276, -7.203515 ], [ 111.848297, -7.203541 ], [ 111.848286, -7.203567 ], [ 111.848272, -7.203602 ], [ 111.84829, -7.203657 ], [ 111.848316, -7.203735 ], [ 111.848348, -7.203827 ], [ 111.848373, -7.203887 ], [ 111.848413, -7.20399 ], [ 111.848441, -7.20405 ], [ 111.848502, -7.204106 ], [ 111.84853, -7.204136 ], [ 111.848551, -7.204177 ] ] ] ] } },
{ "type": "Feature", "properties": { "GM_LAYER": "Unknown Area Type", "LAYER": "Unknown Area Type", "MAP_NAME": "Sungai", "id": null, "PERIMETER": "383.8 m", "ENCLOSED_A": "0.0599 ha" }, "geometry": { "type": "MultiPolygon", "coordinates": [ [ [ [ 111.870293, -7.207415 ], [ 111.870262, -7.207411 ], [ 111.870366, -7.206609 ], [ 111.87049, -7.205719 ], [ 111.870515, -7.205722 ], [ 111.870493, -7.205885 ], [ 111.87042, -7.206428 ], [ 111.870293, -7.207415 ] ] ] ] } },
{ "type": "Feature", "properties": { "GM_LAYER": "Unknown Area Type", "LAYER": "Unknown Area Type", "MAP_NAME": "Sungai", "id": null, "PERIMETER": "369.27 m", "ENCLOSED_A": "0.068 ha" }, "geometry": { "type": "MultiPolygon", "coordinates": [ [ [ [ 111.851168, -7.20494 ], [ 111.851167, -7.204923 ], [ 111.851168, -7.204912 ], [ 111.851174, -7.204897 ], [ 111.851183, -7.20488 ], [ 111.851204, -7.204853 ], [ 111.851225, -7.204828 ], [ 111.85125, -7.204806 ], [ 111.851291, -7.204771 ], [ 111.851329, -7.204737 ], [ 111.851358, -7.204714 ], [ 111.851383, -7.204689 ], [ 111.851398, -7.204669 ], [ 111.851414, -7.204646 ], [ 111.851473, -7.204551 ], [ 111.851562, -7.204393 ], [ 111.851642, -7.204237 ], [ 111.85173, -7.204091 ], [ 111.851838, -7.203902 ], [ 111.851893, -7.203808 ], [ 111.851916, -7.20377 ], [ 111.85193, -7.203745 ], [ 111.851952, -7.203704 ], [ 111.851961, -7.203674 ], [ 111.851983, -7.203605 ], [ 111.852023, -7.203608 ], [ 111.852012, -7.203646 ], [ 111.851987, -7.203721 ], [ 111.851951, -7.203791 ], [ 111.851812, -7.204015 ], [ 111.851617, -7.204355 ], [ 111.851525, -7.204533 ], [ 111.851427, -7.204687 ], [ 111.851296, -7.204806 ], [ 111.851262, -7.204834 ], [ 111.851238, -7.204856 ], [ 111.851217, -7.204881 ], [ 111.851205, -7.204901 ], [ 111.851199, -7.204912 ], [ 111.851196, -7.204919 ], [ 111.851205, -7.204986 ], [ 111.851205, -7.204989 ], [ 111.851172, -7.204988 ], [ 111.851168, -7.20494 ] ] ] ] } },
{ "type": "Feature", "properties": { "GM_LAYER": "Unknown Area Type", "LAYER": "Unknown Area Type", "MAP_NAME": "Sungai", "id": null, "PERIMETER": "257.77 m", "ENCLOSED_A": "0.02933 ha" }, "geometry": { "type": "MultiPolygon", "coordinates": [ [ [ [ 111.913646, -7.213419 ], [ 111.913646, -7.213332 ], [ 111.913648, -7.21323 ], [ 111.91365, -7.213136 ], [ 111.913649, -7.213069 ], [ 111.913648, -7.213014 ], [ 111.913652, -7.212997 ], [ 111.913657, -7.212968 ], [ 111.913665, -7.212811 ], [ 111.91367, -7.212673 ], [ 111.913675, -7.212557 ], [ 111.91368, -7.212453 ], [ 111.913681, -7.212431 ], [ 111.913701, -7.21243 ], [ 111.9137, -7.212458 ], [ 111.913698, -7.2125 ], [ 111.913693, -7.212592 ], [ 111.913684, -7.21277 ], [ 111.913681, -7.212875 ], [ 111.913681, -7.212964 ], [ 111.913679, -7.212995 ], [ 111.913681, -7.213008 ], [ 111.913682, -7.213036 ], [ 111.913678, -7.213097 ], [ 111.91367, -7.213175 ], [ 111.913665, -7.213238 ], [ 111.913665, -7.213272 ], [ 111.913665, -7.213355 ], [ 111.91367, -7.213499 ], [ 111.913675, -7.213573 ], [ 111.913654, -7.213575 ], [ 111.913649, -7.213501 ], [ 111.913646, -7.213419 ] ] ] ] } },
{ "type": "Feature", "properties": { "GM_LAYER": "Unknown Area Type", "LAYER": "Unknown Area Type", "MAP_NAME": "Sungai", "id": null, "PERIMETER": "258.57 m", "ENCLOSED_A": "0.02654 ha" }, "geometry": { "type": "MultiPolygon", "coordinates": [ [ [ [ 111.913683, -7.2124 ], [ 111.913688, -7.212308 ], [ 111.913692, -7.212204 ], [ 111.913696, -7.212126 ], [ 111.913703, -7.211991 ], [ 111.913708, -7.211891 ], [ 111.913712, -7.211797 ], [ 111.913717, -7.21169 ], [ 111.913723, -7.211572 ], [ 111.913727, -7.211485 ], [ 111.913731, -7.211387 ], [ 111.913736, -7.211312 ], [ 111.913738, -7.211252 ], [ 111.913758, -7.21125 ], [ 111.913757, -7.211262 ], [ 111.913756, -7.211295 ], [ 111.913754, -7.211325 ], [ 111.913753, -7.211359 ], [ 111.91375, -7.211412 ], [ 111.913748, -7.211451 ], [ 111.913745, -7.211486 ], [ 111.913744, -7.211537 ], [ 111.913742, -7.211564 ], [ 111.913741, -7.211599 ], [ 111.913739, -7.211645 ], [ 111.913737, -7.211687 ], [ 111.913733, -7.211746 ], [ 111.913731, -7.211787 ], [ 111.913729, -7.211833 ], [ 111.913727, -7.211878 ], [ 111.913725, -7.211917 ], [ 111.913723, -7.211973 ], [ 111.91372, -7.212023 ], [ 111.913718, -7.212075 ], [ 111.913715, -7.212105 ], [ 111.913714, -7.212158 ], [ 111.913711, -7.212212 ], [ 111.913707, -7.212274 ], [ 111.913706, -7.212312 ], [ 111.913704, -7.212352 ], [ 111.913702, -7.212399 ], [ 111.913683, -7.2124 ] ] ] ] } },
{ "type": "Feature", "properties": { "GM_LAYER": "Unknown Area Type", "LAYER": "Unknown Area Type", "MAP_NAME": "Sungai", "id": null, "PERIMETER": "412.64 m", "ENCLOSED_A": "0.0522 ha" }, "geometry": { "type": "MultiPolygon", "coordinates": [ [ [ [ 111.835624, -7.201597 ], [ 111.835612, -7.201584 ], [ 111.835626, -7.201569 ], [ 111.835639, -7.201547 ], [ 111.835645, -7.201515 ], [ 111.835648, -7.201499 ], [ 111.835642, -7.201478 ], [ 111.835637, -7.201472 ], [ 111.835633, -7.20146 ], [ 111.835631, -7.201455 ], [ 111.835643, -7.201444 ], [ 111.835654, -7.201435 ], [ 111.835692, -7.201426 ], [ 111.835718, -7.201418 ], [ 111.835749, -7.201416 ], [ 111.835765, -7.201425 ], [ 111.835779, -7.201433 ], [ 111.835802, -7.20144 ], [ 111.835817, -7.201446 ], [ 111.835835, -7.201449 ], [ 111.835841, -7.201443 ], [ 111.835845, -7.201434 ], [ 111.835861, -7.201426 ], [ 111.835858, -7.201418 ], [ 111.835869, -7.201409 ], [ 111.835888, -7.201387 ], [ 111.835899, -7.201367 ], [ 111.835909, -7.201343 ], [ 111.835917, -7.201327 ], [ 111.835924, -7.201315 ], [ 111.835953, -7.201304 ], [ 111.835974, -7.201295 ], [ 111.83599, -7.201284 ], [ 111.835997, -7.201263 ], [ 111.836008, -7.201252 ], [ 111.836018, -7.201245 ], [ 111.836034, -7.201236 ], [ 111.83605, -7.20122 ], [ 111.836063, -7.201216 ], [ 111.836072, -7.201199 ], [ 111.836076, -7.201189 ], [ 111.836082, -7.201178 ], [ 111.836092, -7.201171 ], [ 111.836093, -7.201163 ], [ 111.836096, -7.201156 ], [ 111.8361, -7.201149 ], [ 111.836112, -7.201141 ], [ 111.836117, -7.201137 ], [ 111.836138, -7.201113 ], [ 111.836148, -7.201098 ], [ 111.836151, -7.20108 ], [ 111.836151, -7.201066 ], [ 111.836147, -7.201047 ], [ 111.836143, -7.201036 ], [ 111.836137, -7.20101 ], [ 111.836134, -7.200993 ], [ 111.836127, -7.200984 ], [ 111.836121, -7.200943 ], [ 111.836122, -7.200915 ], [ 111.836128, -7.200894 ], [ 111.836139, -7.200872 ], [ 111.83615, -7.200849 ], [ 111.83616, -7.200831 ], [ 111.836162, -7.200821 ], [ 111.836162, -7.200801 ], [ 111.836159, -7.200789 ], [ 111.836166, -7.200774 ], [ 111.836177, -7.200763 ], [ 111.836189, -7.200742 ], [ 111.8362, -7.200722 ], [ 111.836225, -7.200702 ], [ 111.836242, -7.200681 ], [ 111.836261, -7.200654 ], [ 111.836287, -7.20064 ], [ 111.836331, -7.200632 ], [ 111.836358, -7.200631 ], [ 111.836386, -7.20063 ], [ 111.836397, -7.200622 ], [ 111.836408, -7.200614 ], [ 111.836418, -7.200615 ], [ 111.83642, -7.200627 ], [ 111.83642, -7.200634 ], [ 111.836429, -7.200635 ], [ 111.836439, -7.200633 ], [ 111.836462, -7.200634 ], [ 111.836484, -7.200642 ], [ 111.836501, -7.200655 ], [ 111.836551, -7.20066 ], [ 111.836585, -7.200657 ], [ 111.836623, -7.200654 ], [ 111.836659, -7.200657 ], [ 111.836686, -7.200676 ], [ 111.836693, -7.200676 ], [ 111.836756, -7.200736 ], [ 111.836733, -7.200732 ], [ 111.83668, -7.200718 ], [ 111.836668, -7.200711 ], [ 111.836658, -7.200708 ], [ 111.836638, -7.200712 ], [ 111.836586, -7.2007 ], [ 111.836536, -7.20069 ], [ 111.836498, -7.200674 ], [ 111.836479, -7.200661 ], [ 111.836462, -7.200653 ], [ 111.836448, -7.200653 ], [ 111.836434, -7.200654 ], [ 111.836419, -7.200648 ], [ 111.836387, -7.200648 ], [ 111.836368, -7.20065 ], [ 111.83634, -7.200649 ], [ 111.836319, -7.200649 ], [ 111.836296, -7.200662 ], [ 111.836272, -7.200671 ], [ 111.836249, -7.2007 ], [ 111.836227, -7.200726 ], [ 111.836202, -7.200748 ], [ 111.836187, -7.200775 ], [ 111.836193, -7.200792 ], [ 111.836187, -7.200812 ], [ 111.836174, -7.200829 ], [ 111.836161, -7.20087 ], [ 111.836148, -7.200903 ], [ 111.836139, -7.200925 ], [ 111.836141, -7.200957 ], [ 111.836148, -7.200984 ], [ 111.836159, -7.201015 ], [ 111.836174, -7.20105 ], [ 111.836181, -7.201064 ], [ 111.836185, -7.201076 ], [ 111.836175, -7.201089 ], [ 111.83615, -7.20112 ], [ 111.836113, -7.20117 ], [ 111.836089, -7.201201 ], [ 111.836065, -7.201233 ], [ 111.836051, -7.201238 ], [ 111.836033, -7.201252 ], [ 111.83602, -7.201266 ], [ 111.836009, -7.20128 ], [ 111.836008, -7.201295 ], [ 111.835971, -7.201321 ], [ 111.835946, -7.20135 ], [ 111.835916, -7.201376 ], [ 111.835895, -7.201396 ], [ 111.835888, -7.201414 ], [ 111.835888, -7.201429 ], [ 111.835869, -7.201454 ], [ 111.835862, -7.20145 ], [ 111.835853, -7.201452 ], [ 111.835843, -7.201455 ], [ 111.835833, -7.201458 ], [ 111.835818, -7.201463 ], [ 111.835799, -7.201458 ], [ 111.835779, -7.201456 ], [ 111.835764, -7.201452 ], [ 111.835746, -7.20145 ], [ 111.835727, -7.201456 ], [ 111.83571, -7.201465 ], [ 111.835681, -7.201477 ], [ 111.835669, -7.201492 ], [ 111.835665, -7.201505 ], [ 111.835661, -7.201538 ], [ 111.835653, -7.201562 ], [ 111.835624, -7.201597 ] ] ] ] } },
{ "type": "Feature", "properties": { "GM_LAYER": "Unknown Area Type", "LAYER": "Unknown Area Type", "MAP_NAME": "Sungai", "id": null, "PERIMETER": "339.22 m", "ENCLOSED_A": "0.03577 ha" }, "geometry": { "type": "MultiPolygon", "coordinates": [ [ [ [ 111.846289, -7.203414 ], [ 111.846316, -7.203416 ], [ 111.846269, -7.203547 ], [ 111.846226, -7.203646 ], [ 111.846209, -7.203688 ], [ 111.846205, -7.203709 ], [ 111.846185, -7.203761 ], [ 111.846156, -7.203842 ], [ 111.846124, -7.203914 ], [ 111.846074, -7.204051 ], [ 111.846051, -7.204112 ], [ 111.845971, -7.204306 ], [ 111.845927, -7.204426 ], [ 111.845875, -7.204567 ], [ 111.8458, -7.204766 ], [ 111.845778, -7.204827 ], [ 111.845758, -7.204827 ], [ 111.845802, -7.204712 ], [ 111.845848, -7.204586 ], [ 111.845944, -7.204318 ], [ 111.846022, -7.204133 ], [ 111.846108, -7.203917 ], [ 111.846209, -7.203636 ], [ 111.846235, -7.203571 ], [ 111.846235, -7.203571 ], [ 111.846253, -7.203529 ], [ 111.846289, -7.203414 ] ] ] ] } },
{ "type": "Feature", "properties": { "GM_LAYER": "Unknown Area Type", "LAYER": "Unknown Area Type", "MAP_NAME": "Sungai", "id": null, "PERIMETER": "308.33 m", "ENCLOSED_A": "0.0349 ha" }, "geometry": { "type": "MultiPolygon", "coordinates": [ [ [ [ 111.864428, -7.206329 ], [ 111.86441, -7.206327 ], [ 111.864451, -7.205959 ], [ 111.864572, -7.204964 ], [ 111.864572, -7.204964 ], [ 111.864597, -7.204967 ], [ 111.864447, -7.206145 ], [ 111.864428, -7.206329 ] ] ] ] } },
{ "type": "Feature", "properties": { "GM_LAYER": "Unknown Area Type", "LAYER": "Unknown Area Type", "MAP_NAME": "Sungai", "id": null, "PERIMETER": "1.339 km", "ENCLOSED_A": "0.1427 ha" }, "geometry": { "type": "MultiPolygon", "coordinates": [ [ [ [ 111.891628, -7.214977 ], [ 111.891629, -7.214982 ], [ 111.891664, -7.215041 ], [ 111.891673, -7.215055 ], [ 111.891692, -7.215083 ], [ 111.891706, -7.215096 ], [ 111.891696, -7.215096 ], [ 111.891688, -7.215088 ], [ 111.891671, -7.215066 ], [ 111.891654, -7.215043 ], [ 111.891632, -7.215003 ], [ 111.89162, -7.214983 ], [ 111.891618, -7.214977 ], [ 111.891623, -7.214934 ], [ 111.891627, -7.214895 ], [ 111.891625, -7.214848 ], [ 111.891623, -7.21482 ], [ 111.891619, -7.214802 ], [ 111.891606, -7.214788 ], [ 111.891568, -7.214762 ], [ 111.891544, -7.214742 ], [ 111.891532, -7.214729 ], [ 111.891522, -7.214702 ], [ 111.891524, -7.214681 ], [ 111.891526, -7.214656 ], [ 111.891527, -7.214611 ], [ 111.891528, -7.214567 ], [ 111.891535, -7.214527 ], [ 111.891545, -7.214469 ], [ 111.891551, -7.214431 ], [ 111.891552, -7.214401 ], [ 111.891548, -7.214383 ], [ 111.891537, -7.214358 ], [ 111.891521, -7.214322 ], [ 111.891517, -7.214292 ], [ 111.891511, -7.214272 ], [ 111.891503, -7.214247 ], [ 111.891501, -7.214233 ], [ 111.8915, -7.214223 ], [ 111.891503, -7.214199 ], [ 111.89151, -7.214155 ], [ 111.891516, -7.214112 ], [ 111.891518, -7.214067 ], [ 111.891523, -7.214034 ], [ 111.891525, -7.214008 ], [ 111.891523, -7.213938 ], [ 111.891521, -7.213883 ], [ 111.89152, -7.213832 ], [ 111.891518, -7.213811 ], [ 111.89152, -7.213789 ], [ 111.891528, -7.213757 ], [ 111.891535, -7.213728 ], [ 111.891539, -7.213706 ], [ 111.891538, -7.213689 ], [ 111.891529, -7.213678 ], [ 111.89152, -7.213669 ], [ 111.891512, -7.213656 ], [ 111.891511, -7.21365 ], [ 111.891512, -7.213627 ], [ 111.891514, -7.213603 ], [ 111.89152, -7.213584 ], [ 111.891519, -7.213564 ], [ 111.891519, -7.213546 ], [ 111.891519, -7.213526 ], [ 111.891513, -7.213508 ], [ 111.891501, -7.213486 ], [ 111.891482, -7.213458 ], [ 111.891474, -7.213442 ], [ 111.891468, -7.213417 ], [ 111.891468, -7.213355 ], [ 111.89147, -7.213339 ], [ 111.891476, -7.213293 ], [ 111.891476, -7.213271 ], [ 111.891474, -7.21326 ], [ 111.891453, -7.213251 ], [ 111.891409, -7.213241 ], [ 111.891374, -7.21324 ], [ 111.891365, -7.213249 ], [ 111.891351, -7.213259 ], [ 111.891337, -7.213265 ], [ 111.891154, -7.213256 ], [ 111.89113, -7.213252 ], [ 111.891113, -7.213244 ], [ 111.891029, -7.213168 ], [ 111.891008, -7.21316 ], [ 111.890986, -7.213157 ], [ 111.890964, -7.213161 ], [ 111.890946, -7.213176 ], [ 111.890933, -7.213193 ], [ 111.890914, -7.213215 ], [ 111.89085, -7.213305 ], [ 111.890775, -7.213407 ], [ 111.890766, -7.213416 ], [ 111.890761, -7.213434 ], [ 111.890737, -7.21346 ], [ 111.890672, -7.213518 ], [ 111.890649, -7.213546 ], [ 111.890633, -7.213589 ], [ 111.890623, -7.213648 ], [ 111.890627, -7.2137 ], [ 111.890638, -7.213726 ], [ 111.89066, -7.213755 ], [ 111.890691, -7.213812 ], [ 111.890719, -7.213863 ], [ 111.890735, -7.213912 ], [ 111.890764, -7.214099 ], [ 111.89077, -7.214177 ], [ 111.890769, -7.214193 ], [ 111.890697, -7.214369 ], [ 111.89068, -7.214423 ], [ 111.890671, -7.214478 ], [ 111.890662, -7.214512 ], [ 111.890667, -7.21453 ], [ 111.890676, -7.214541 ], [ 111.890686, -7.214544 ], [ 111.890716, -7.214558 ], [ 111.890787, -7.214597 ], [ 111.890824, -7.214618 ], [ 111.890848, -7.214636 ], [ 111.890861, -7.214652 ], [ 111.890868, -7.214665 ], [ 111.890867, -7.214683 ], [ 111.890856, -7.214703 ], [ 111.890774, -7.214776 ], [ 111.890731, -7.214804 ], [ 111.890707, -7.21482 ], [ 111.890691, -7.214836 ], [ 111.890682, -7.214855 ], [ 111.890669, -7.214887 ], [ 111.890649, -7.214936 ], [ 111.890644, -7.214961 ], [ 111.890642, -7.214973 ], [ 111.890647, -7.214991 ], [ 111.890664, -7.21503 ], [ 111.890675, -7.215051 ], [ 111.890691, -7.215064 ], [ 111.890727, -7.215097 ], [ 111.890756, -7.215119 ], [ 111.890766, -7.215128 ], [ 111.890729, -7.215128 ], [ 111.890719, -7.215121 ], [ 111.890684, -7.215091 ], [ 111.89066, -7.215067 ], [ 111.89064, -7.215032 ], [ 111.890623, -7.214989 ], [ 111.890621, -7.214968 ], [ 111.890625, -7.214947 ], [ 111.890639, -7.214904 ], [ 111.890659, -7.214848 ], [ 111.890669, -7.214827 ], [ 111.890684, -7.214812 ], [ 111.890714, -7.214793 ], [ 111.890765, -7.214756 ], [ 111.890837, -7.214693 ], [ 111.890841, -7.214681 ], [ 111.890841, -7.214672 ], [ 111.890836, -7.214661 ], [ 111.890828, -7.214654 ], [ 111.890808, -7.214642 ], [ 111.89074, -7.214609 ], [ 111.890688, -7.214579 ], [ 111.890669, -7.214568 ], [ 111.890654, -7.214553 ], [ 111.890639, -7.214528 ], [ 111.890636, -7.214508 ], [ 111.890645, -7.214482 ], [ 111.890658, -7.214435 ], [ 111.890659, -7.214409 ], [ 111.890665, -7.214381 ], [ 111.890677, -7.214355 ], [ 111.890705, -7.214277 ], [ 111.890721, -7.214223 ], [ 111.890735, -7.214188 ], [ 111.890737, -7.214175 ], [ 111.890731, -7.214136 ], [ 111.890723, -7.214048 ], [ 111.890706, -7.21395 ], [ 111.890688, -7.213885 ], [ 111.890653, -7.213811 ], [ 111.890611, -7.213734 ], [ 111.890596, -7.213685 ], [ 111.890594, -7.21365 ], [ 111.8906, -7.213606 ], [ 111.890611, -7.213573 ], [ 111.890616, -7.213549 ], [ 111.890627, -7.213536 ], [ 111.89064, -7.213519 ], [ 111.890698, -7.21347 ], [ 111.890723, -7.213439 ], [ 111.890736, -7.213421 ], [ 111.890735, -7.213401 ], [ 111.890747, -7.213392 ], [ 111.890876, -7.213229 ], [ 111.890928, -7.213153 ], [ 111.890935, -7.213137 ], [ 111.890951, -7.213128 ], [ 111.89098, -7.213122 ], [ 111.891017, -7.213128 ], [ 111.891047, -7.213147 ], [ 111.891139, -7.213229 ], [ 111.891152, -7.213234 ], [ 111.891288, -7.213241 ], [ 111.891312, -7.213239 ], [ 111.891324, -7.213233 ], [ 111.891334, -7.213227 ], [ 111.891344, -7.213211 ], [ 111.891345, -7.213202 ], [ 111.891345, -7.213175 ], [ 111.891291, -7.213061 ], [ 111.891286, -7.213026 ], [ 111.891283, -7.212984 ], [ 111.89129, -7.212938 ], [ 111.891317, -7.212886 ], [ 111.891336, -7.212825 ], [ 111.891348, -7.212798 ], [ 111.891357, -7.212791 ], [ 111.891374, -7.21278 ], [ 111.891477, -7.212749 ], [ 111.891541, -7.212728 ], [ 111.89157, -7.212714 ], [ 111.891587, -7.2127 ], [ 111.891599, -7.212675 ], [ 111.891609, -7.212638 ], [ 111.89161, -7.2126 ], [ 111.89161, -7.212555 ], [ 111.891608, -7.212486 ], [ 111.891605, -7.212441 ], [ 111.891592, -7.212402 ], [ 111.891571, -7.21238 ], [ 111.89154, -7.212349 ], [ 111.89152, -7.212338 ], [ 111.891567, -7.212327 ], [ 111.891575, -7.212331 ], [ 111.891592, -7.212349 ], [ 111.89161, -7.212369 ], [ 111.891627, -7.212403 ], [ 111.891632, -7.212432 ], [ 111.891632, -7.212558 ], [ 111.891631, -7.212606 ], [ 111.89163, -7.212627 ], [ 111.891627, -7.212649 ], [ 111.891611, -7.212693 ], [ 111.891592, -7.212721 ], [ 111.89157, -7.212737 ], [ 111.891512, -7.212758 ], [ 111.891478, -7.212769 ], [ 111.891377, -7.212799 ], [ 111.891367, -7.212807 ], [ 111.891353, -7.212834 ], [ 111.891336, -7.212894 ], [ 111.891322, -7.212914 ], [ 111.891309, -7.212941 ], [ 111.891306, -7.212981 ], [ 111.891307, -7.212996 ], [ 111.891311, -7.213032 ], [ 111.891318, -7.213073 ], [ 111.891323, -7.213083 ], [ 111.891332, -7.213093 ], [ 111.891371, -7.213175 ], [ 111.891381, -7.213194 ], [ 111.891384, -7.213209 ], [ 111.891382, -7.213222 ], [ 111.891378, -7.213231 ], [ 111.891417, -7.213236 ], [ 111.891453, -7.213244 ], [ 111.891481, -7.213255 ], [ 111.891484, -7.213265 ], [ 111.891484, -7.213289 ], [ 111.891476, -7.213344 ], [ 111.891473, -7.213367 ], [ 111.891473, -7.213419 ], [ 111.89148, -7.213441 ], [ 111.891485, -7.213452 ], [ 111.891493, -7.213465 ], [ 111.891508, -7.21349 ], [ 111.89152, -7.213508 ], [ 111.891525, -7.213526 ], [ 111.891524, -7.213539 ], [ 111.891525, -7.213561 ], [ 111.891525, -7.21358 ], [ 111.891524, -7.213587 ], [ 111.891522, -7.213596 ], [ 111.891518, -7.213612 ], [ 111.891516, -7.213634 ], [ 111.891517, -7.21365 ], [ 111.891518, -7.213653 ], [ 111.89152, -7.213659 ], [ 111.891525, -7.213666 ], [ 111.891531, -7.213671 ], [ 111.891537, -7.213676 ], [ 111.891544, -7.213685 ], [ 111.891544, -7.213691 ], [ 111.891545, -7.2137 ], [ 111.891545, -7.213713 ], [ 111.891533, -7.21376 ], [ 111.891529, -7.213796 ], [ 111.891527, -7.213811 ], [ 111.891529, -7.213927 ], [ 111.891529, -7.213987 ], [ 111.891531, -7.214011 ], [ 111.89153, -7.214024 ], [ 111.891526, -7.214062 ], [ 111.891522, -7.214087 ], [ 111.891521, -7.214113 ], [ 111.891518, -7.214142 ], [ 111.891513, -7.214169 ], [ 111.891505, -7.214221 ], [ 111.891507, -7.214243 ], [ 111.891512, -7.214257 ], [ 111.891521, -7.21428 ], [ 111.89153, -7.214323 ], [ 111.89155, -7.214365 ], [ 111.891558, -7.214383 ], [ 111.891562, -7.214401 ], [ 111.891562, -7.21441 ], [ 111.891555, -7.214449 ], [ 111.89155, -7.214484 ], [ 111.89154, -7.214546 ], [ 111.891535, -7.21458 ], [ 111.891534, -7.214633 ], [ 111.891532, -7.214695 ], [ 111.891534, -7.214705 ], [ 111.891537, -7.214714 ], [ 111.891543, -7.214724 ], [ 111.891552, -7.214735 ], [ 111.891582, -7.214763 ], [ 111.89161, -7.214779 ], [ 111.891617, -7.214785 ], [ 111.891626, -7.214797 ], [ 111.89163, -7.21481 ], [ 111.891632, -7.214851 ], [ 111.891633, -7.214903 ], [ 111.891628, -7.214977 ] ] ] ] } },
{ "type": "Feature", "properties": { "GM_LAYER": "Unknown Area Type", "LAYER": "Unknown Area Type", "MAP_NAME": "Sungai", "id": null, "PERIMETER": "546.33 m", "ENCLOSED_A": "0.2668 ha" }, "geometry": { "type": "MultiPolygon", "coordinates": [ [ [ [ 111.928807, -7.212722 ], [ 111.928808, -7.212714 ], [ 111.928843, -7.212651 ], [ 111.928876, -7.212598 ], [ 111.928955, -7.212536 ], [ 111.928968, -7.21248 ], [ 111.928945, -7.212422 ], [ 111.92895, -7.212389 ], [ 111.928982, -7.212346 ], [ 111.929046, -7.212329 ], [ 111.929117, -7.212307 ], [ 111.929195, -7.212215 ], [ 111.929243, -7.212146 ], [ 111.929268, -7.212084 ], [ 111.929322, -7.211974 ], [ 111.929437, -7.211831 ], [ 111.929524, -7.211706 ], [ 111.929556, -7.211602 ], [ 111.929561, -7.211512 ], [ 111.929544, -7.211431 ], [ 111.929521, -7.211338 ], [ 111.929508, -7.211272 ], [ 111.929506, -7.211238 ], [ 111.929533, -7.211197 ], [ 111.929533, -7.211155 ], [ 111.929506, -7.211123 ], [ 111.929456, -7.211092 ], [ 111.929424, -7.211026 ], [ 111.929407, -7.210926 ], [ 111.929371, -7.210818 ], [ 111.929354, -7.210711 ], [ 111.929358, -7.210676 ], [ 111.929463, -7.210684 ], [ 111.929459, -7.210748 ], [ 111.929466, -7.210834 ], [ 111.929493, -7.21091 ], [ 111.929524, -7.210959 ], [ 111.929545, -7.211013 ], [ 111.929548, -7.211081 ], [ 111.929578, -7.21114 ], [ 111.929587, -7.211189 ], [ 111.929564, -7.21125 ], [ 111.929579, -7.211333 ], [ 111.929589, -7.211412 ], [ 111.929611, -7.211492 ], [ 111.92962, -7.211589 ], [ 111.929593, -7.211748 ], [ 111.929541, -7.211867 ], [ 111.929454, -7.212016 ], [ 111.92939, -7.212121 ], [ 111.929327, -7.212247 ], [ 111.929275, -7.21229 ], [ 111.929229, -7.212324 ], [ 111.929165, -7.212371 ], [ 111.929122, -7.212452 ], [ 111.929072, -7.212522 ], [ 111.929017, -7.212563 ], [ 111.928977, -7.212624 ], [ 111.928924, -7.212696 ], [ 111.928911, -7.21272 ], [ 111.928807, -7.212722 ] ] ] ] } },
{ "type": "Feature", "properties": { "GM_LAYER": "Unknown Area Type", "LAYER": "Unknown Area Type", "MAP_NAME": "Sungai", "id": null, "PERIMETER": "531.68 m", "ENCLOSED_A": "0.1488 ha" }, "geometry": { "type": "MultiPolygon", "coordinates": [ [ [ [ 111.880397, -7.213579 ], [ 111.880427, -7.213526 ], [ 111.880503, -7.213441 ], [ 111.880667, -7.21326 ], [ 111.880719, -7.213249 ], [ 111.881072, -7.212921 ], [ 111.881104, -7.212891 ], [ 111.88114, -7.212879 ], [ 111.88117, -7.212876 ], [ 111.881448, -7.212773 ], [ 111.881724, -7.212698 ], [ 111.881813, -7.21269 ], [ 111.881823, -7.212683 ], [ 111.881834, -7.212682 ], [ 111.88184, -7.212685 ], [ 111.881848, -7.21269 ], [ 111.881853, -7.212694 ], [ 111.881857, -7.212703 ], [ 111.881857, -7.21271 ], [ 111.881867, -7.212716 ], [ 111.88188, -7.212712 ], [ 111.881887, -7.212711 ], [ 111.881895, -7.212704 ], [ 111.881891, -7.212696 ], [ 111.881887, -7.212687 ], [ 111.88191, -7.212681 ], [ 111.881932, -7.212683 ], [ 111.881965, -7.21269 ], [ 111.882061, -7.212701 ], [ 111.882219, -7.212742 ], [ 111.882284, -7.212765 ], [ 111.882299, -7.212767 ], [ 111.882322, -7.212764 ], [ 111.882409, -7.212748 ], [ 111.882455, -7.212768 ], [ 111.882291, -7.212799 ], [ 111.882208, -7.212772 ], [ 111.882087, -7.212743 ], [ 111.881994, -7.212736 ], [ 111.881897, -7.212745 ], [ 111.88176, -7.212751 ], [ 111.881619, -7.212784 ], [ 111.881496, -7.212823 ], [ 111.881245, -7.212912 ], [ 111.881193, -7.212932 ], [ 111.881107, -7.212975 ], [ 111.880775, -7.213273 ], [ 111.880715, -7.213297 ], [ 111.880687, -7.213313 ], [ 111.880476, -7.213552 ], [ 111.880453, -7.213592 ], [ 111.880397, -7.213579 ] ] ] ] } },
{ "type": "Feature", "properties": { "GM_LAYER": "Unknown Area Type", "LAYER": "Unknown Area Type", "MAP_NAME": "Sungai", "id": null, "PERIMETER": "325.46 m", "ENCLOSED_A": "0.1064 ha" }, "geometry": { "type": "MultiPolygon", "coordinates": [ [ [ [ 111.936639, -7.210128 ], [ 111.936598, -7.210029 ], [ 111.936666, -7.210014 ], [ 111.936698, -7.210098 ], [ 111.936741, -7.210199 ], [ 111.936752, -7.210255 ], [ 111.936778, -7.210352 ], [ 111.936802, -7.210403 ], [ 111.936828, -7.210444 ], [ 111.936875, -7.210489 ], [ 111.936922, -7.210518 ], [ 111.936982, -7.210549 ], [ 111.937089, -7.210592 ], [ 111.937187, -7.210631 ], [ 111.937265, -7.210666 ], [ 111.937308, -7.210689 ], [ 111.937353, -7.210745 ], [ 111.937397, -7.210813 ], [ 111.937468, -7.210875 ], [ 111.937541, -7.21093 ], [ 111.937579, -7.210966 ], [ 111.937549, -7.210975 ], [ 111.937542, -7.210977 ], [ 111.937534, -7.210979 ], [ 111.937527, -7.210981 ], [ 111.937514, -7.210984 ], [ 111.937403, -7.210884 ], [ 111.93733, -7.210782 ], [ 111.937309, -7.210747 ], [ 111.937268, -7.21073 ], [ 111.937158, -7.2107 ], [ 111.937088, -7.210665 ], [ 111.936972, -7.21062 ], [ 111.93688, -7.210581 ], [ 111.936829, -7.210548 ], [ 111.93677, -7.210476 ], [ 111.936736, -7.210394 ], [ 111.936682, -7.210292 ], [ 111.936671, -7.21021 ], [ 111.936639, -7.210128 ] ] ] ] } },
{ "type": "Feature", "properties": { "GM_LAYER": "Unknown Area Type", "LAYER": "Unknown Area Type", "MAP_NAME": "Sungai", "id": null, "PERIMETER": "492.76 m", "ENCLOSED_A": "0.0624 ha" }, "geometry": { "type": "MultiPolygon", "coordinates": [ [ [ [ 111.919265, -7.213226 ], [ 111.919273, -7.21321 ], [ 111.919289, -7.213177 ], [ 111.919307, -7.213145 ], [ 111.919324, -7.213114 ], [ 111.919339, -7.213084 ], [ 111.919353, -7.213056 ], [ 111.919387, -7.212992 ], [ 111.91943, -7.212911 ], [ 111.91947, -7.212834 ], [ 111.919509, -7.212759 ], [ 111.919539, -7.2127 ], [ 111.919573, -7.212635 ], [ 111.919595, -7.21259 ], [ 111.91962, -7.212541 ], [ 111.919641, -7.2125 ], [ 111.919699, -7.212389 ], [ 111.919707, -7.212369 ], [ 111.919716, -7.212342 ], [ 111.919758, -7.212261 ], [ 111.919833, -7.212124 ], [ 111.919892, -7.212012 ], [ 111.919943, -7.211914 ], [ 111.919987, -7.211832 ], [ 111.920027, -7.211756 ], [ 111.920096, -7.211627 ], [ 111.920134, -7.211553 ], [ 111.920171, -7.211482 ], [ 111.920216, -7.211394 ], [ 111.920257, -7.211318 ], [ 111.920283, -7.211267 ], [ 111.920303, -7.211268 ], [ 111.920298, -7.211277 ], [ 111.920274, -7.211322 ], [ 111.920245, -7.211379 ], [ 111.920213, -7.21144 ], [ 111.920174, -7.211516 ], [ 111.920139, -7.211584 ], [ 111.920105, -7.211651 ], [ 111.920066, -7.211728 ], [ 111.920033, -7.21179 ], [ 111.920002, -7.21185 ], [ 111.91996, -7.211931 ], [ 111.919906, -7.212038 ], [ 111.919853, -7.212135 ], [ 111.919807, -7.212233 ], [ 111.91971, -7.212426 ], [ 111.919644, -7.212542 ], [ 111.919586, -7.212665 ], [ 111.919499, -7.212831 ], [ 111.919425, -7.21297 ], [ 111.919354, -7.213105 ], [ 111.919298, -7.213212 ], [ 111.919292, -7.213224 ], [ 111.919265, -7.213226 ] ] ] ] } },
{ "type": "Feature", "properties": { "GM_LAYER": "Unknown Area Type", "LAYER": "Unknown Area Type", "MAP_NAME": "Sungai", "id": null, "PERIMETER": "417.72 m", "ENCLOSED_A": "0.0869 ha" }, "geometry": { "type": "MultiPolygon", "coordinates": [ [ [ [ 111.904512, -7.214143 ], [ 111.904514, -7.214131 ], [ 111.904541, -7.213934 ], [ 111.904572, -7.213817 ], [ 111.904604, -7.213674 ], [ 111.904611, -7.213577 ], [ 111.90465, -7.21334 ], [ 111.904674, -7.213212 ], [ 111.904693, -7.213089 ], [ 111.904719, -7.212923 ], [ 111.904742, -7.21274 ], [ 111.904747, -7.21267 ], [ 111.904751, -7.212615 ], [ 111.90476, -7.212561 ], [ 111.904781, -7.212475 ], [ 111.904804, -7.212387 ], [ 111.904814, -7.212327 ], [ 111.904854, -7.212322 ], [ 111.904827, -7.212442 ], [ 111.904785, -7.21269 ], [ 111.904755, -7.212914 ], [ 111.904671, -7.213443 ], [ 111.904655, -7.213605 ], [ 111.904632, -7.213704 ], [ 111.904585, -7.213936 ], [ 111.904564, -7.21414 ], [ 111.904512, -7.214143 ] ] ] ] } },
{ "type": "Feature", "properties": { "GM_LAYER": "Unknown Area Type", "LAYER": "Unknown Area Type", "MAP_NAME": "Sungai", "id": null, "PERIMETER": "1.078 km", "ENCLOSED_A": "0.1837 ha" }, "geometry": { "type": "MultiPolygon", "coordinates": [ [ [ [ 111.843075, -7.162873 ], [ 111.843073, -7.162824 ], [ 111.843098, -7.162793 ], [ 111.843098, -7.162828 ], [ 111.843103, -7.162888 ], [ 111.843116, -7.162978 ], [ 111.843146, -7.163053 ], [ 111.843181, -7.163103 ], [ 111.8432, -7.163128 ], [ 111.843244, -7.163164 ], [ 111.843314, -7.163197 ], [ 111.843391, -7.163228 ], [ 111.843489, -7.16329 ], [ 111.843557, -7.163308 ], [ 111.84361, -7.163338 ], [ 111.843664, -7.163376 ], [ 111.843708, -7.163412 ], [ 111.843748, -7.163478 ], [ 111.843796, -7.163538 ], [ 111.843861, -7.163642 ], [ 111.843889, -7.16367 ], [ 111.843906, -7.163688 ], [ 111.843929, -7.163697 ], [ 111.843976, -7.163701 ], [ 111.844042, -7.163701 ], [ 111.844105, -7.163687 ], [ 111.844167, -7.163652 ], [ 111.844202, -7.163618 ], [ 111.84422, -7.163575 ], [ 111.844324, -7.163357 ], [ 111.844479, -7.163026 ], [ 111.844519, -7.162949 ], [ 111.844546, -7.162904 ], [ 111.844587, -7.162858 ], [ 111.844629, -7.162833 ], [ 111.844673, -7.162819 ], [ 111.844723, -7.162803 ], [ 111.844784, -7.1628 ], [ 111.84486, -7.16281 ], [ 111.844899, -7.162825 ], [ 111.844967, -7.162861 ], [ 111.845006, -7.162895 ], [ 111.845104, -7.162986 ], [ 111.845146, -7.16304 ], [ 111.845208, -7.163127 ], [ 111.84526, -7.163164 ], [ 111.845354, -7.163207 ], [ 111.845418, -7.163229 ], [ 111.84545, -7.163229 ], [ 111.845471, -7.163221 ], [ 111.845492, -7.163206 ], [ 111.845507, -7.163185 ], [ 111.845537, -7.163105 ], [ 111.845544, -7.163054 ], [ 111.845541, -7.162979 ], [ 111.845538, -7.162839 ], [ 111.84555, -7.162668 ], [ 111.84556, -7.162591 ], [ 111.845574, -7.162541 ], [ 111.845623, -7.162465 ], [ 111.845652, -7.162423 ], [ 111.84569, -7.162386 ], [ 111.845713, -7.162369 ], [ 111.845753, -7.162351 ], [ 111.845798, -7.162337 ], [ 111.845826, -7.16233 ], [ 111.845895, -7.162335 ], [ 111.845944, -7.162348 ], [ 111.845978, -7.162363 ], [ 111.846016, -7.162389 ], [ 111.846044, -7.16241 ], [ 111.84606, -7.162428 ], [ 111.846046, -7.162448 ], [ 111.84601, -7.162418 ], [ 111.845977, -7.1624 ], [ 111.84594, -7.162382 ], [ 111.845895, -7.162367 ], [ 111.845856, -7.162362 ], [ 111.845818, -7.162359 ], [ 111.845784, -7.16237 ], [ 111.845752, -7.162381 ], [ 111.845712, -7.1624 ], [ 111.845681, -7.162424 ], [ 111.845634, -7.162487 ], [ 111.845592, -7.162559 ], [ 111.845582, -7.162615 ], [ 111.845571, -7.162686 ], [ 111.845568, -7.162757 ], [ 111.845564, -7.162857 ], [ 111.845566, -7.162955 ], [ 111.845572, -7.163068 ], [ 111.845562, -7.16311 ], [ 111.845562, -7.163152 ], [ 111.845552, -7.163197 ], [ 111.845541, -7.163211 ], [ 111.845523, -7.163234 ], [ 111.845515, -7.163244 ], [ 111.845475, -7.16326 ], [ 111.845445, -7.163268 ], [ 111.845393, -7.163258 ], [ 111.845324, -7.163235 ], [ 111.845239, -7.16319 ], [ 111.845191, -7.163156 ], [ 111.845139, -7.163089 ], [ 111.84507, -7.163001 ], [ 111.845011, -7.16295 ], [ 111.844968, -7.162917 ], [ 111.84493, -7.16289 ], [ 111.844911, -7.162872 ], [ 111.844878, -7.162852 ], [ 111.844842, -7.162838 ], [ 111.844787, -7.162829 ], [ 111.844735, -7.162831 ], [ 111.844677, -7.162851 ], [ 111.844623, -7.162876 ], [ 111.8446, -7.16289 ], [ 111.844585, -7.162907 ], [ 111.844501, -7.163061 ], [ 111.844238, -7.163633 ], [ 111.844206, -7.163672 ], [ 111.844158, -7.163702 ], [ 111.844094, -7.163725 ], [ 111.844063, -7.163726 ], [ 111.843977, -7.163725 ], [ 111.843916, -7.163719 ], [ 111.843921, -7.163711 ], [ 111.843915, -7.163718 ], [ 111.843911, -7.163718 ], [ 111.843877, -7.163704 ], [ 111.843853, -7.16368 ], [ 111.843794, -7.163599 ], [ 111.843773, -7.163547 ], [ 111.843702, -7.16346 ], [ 111.843669, -7.163419 ], [ 111.843608, -7.163379 ], [ 111.843543, -7.163342 ], [ 111.843504, -7.163323 ], [ 111.843421, -7.16327 ], [ 111.843393, -7.163253 ], [ 111.843332, -7.163231 ], [ 111.843299, -7.163225 ], [ 111.843256, -7.163203 ], [ 111.843189, -7.163152 ], [ 111.843155, -7.163112 ], [ 111.84311, -7.163047 ], [ 111.843091, -7.163012 ], [ 111.843075, -7.162873 ] ] ] ] } },
{ "type": "Feature", "properties": { "GM_LAYER": "Unknown Area Type", "LAYER": "Unknown Area Type", "MAP_NAME": "Sungai", "id": null, "PERIMETER": "309.37 m", "ENCLOSED_A": "0.0996 ha" }, "geometry": { "type": "MultiPolygon", "coordinates": [ [ [ [ 111.849028, -7.1601 ], [ 111.849066, -7.160081 ], [ 111.849158, -7.16005 ], [ 111.849225, -7.160042 ], [ 111.849259, -7.160041 ], [ 111.849314, -7.160023 ], [ 111.849355, -7.159978 ], [ 111.849391, -7.159934 ], [ 111.849417, -7.159885 ], [ 111.849439, -7.159824 ], [ 111.849428, -7.159776 ], [ 111.849414, -7.159749 ], [ 111.849382, -7.159691 ], [ 111.849384, -7.159634 ], [ 111.849392, -7.15961 ], [ 111.849395, -7.159596 ], [ 111.849436, -7.159528 ], [ 111.849472, -7.159478 ], [ 111.849482, -7.159455 ], [ 111.849519, -7.159406 ], [ 111.849552, -7.159387 ], [ 111.849607, -7.15935 ], [ 111.84963, -7.159346 ], [ 111.849669, -7.159334 ], [ 111.849713, -7.159333 ], [ 111.849787, -7.159328 ], [ 111.849831, -7.159313 ], [ 111.849844, -7.159323 ], [ 111.849883, -7.159352 ], [ 111.849845, -7.159382 ], [ 111.849749, -7.159395 ], [ 111.84963, -7.159417 ], [ 111.849594, -7.159458 ], [ 111.849539, -7.159518 ], [ 111.84949, -7.15957 ], [ 111.849437, -7.159635 ], [ 111.849437, -7.159672 ], [ 111.849443, -7.159707 ], [ 111.849464, -7.15974 ], [ 111.849488, -7.159772 ], [ 111.849489, -7.159802 ], [ 111.84948, -7.159854 ], [ 111.849458, -7.1599 ], [ 111.849446, -7.159939 ], [ 111.849434, -7.159987 ], [ 111.849407, -7.160021 ], [ 111.849389, -7.160035 ], [ 111.849323, -7.160069 ], [ 111.849272, -7.160083 ], [ 111.849203, -7.160103 ], [ 111.849093, -7.160144 ], [ 111.849028, -7.1601 ] ] ] ] } },
{ "type": "Feature", "properties": { "GM_LAYER": "Unknown Area Type", "LAYER": "Unknown Area Type", "MAP_NAME": "Sungai", "id": null, "PERIMETER": "1.021 km", "ENCLOSED_A": "0.1111 ha" }, "geometry": { "type": "MultiPolygon", "coordinates": [ [ [ [ 111.844925, -7.157218 ], [ 111.844937, -7.157201 ], [ 111.845305, -7.157438 ], [ 111.845745, -7.157735 ], [ 111.846257, -7.158076 ], [ 111.846444, -7.158203 ], [ 111.846536, -7.158275 ], [ 111.846738, -7.158406 ], [ 111.846841, -7.15848 ], [ 111.846942, -7.158548 ], [ 111.84709, -7.158657 ], [ 111.847198, -7.158713 ], [ 111.847555, -7.158948 ], [ 111.848046, -7.159273 ], [ 111.848534, -7.159592 ], [ 111.848636, -7.159649 ], [ 111.848641, -7.159656 ], [ 111.848635, -7.159668 ], [ 111.848544, -7.1598 ], [ 111.848534, -7.159794 ], [ 111.848622, -7.15967 ], [ 111.848623, -7.159665 ], [ 111.848616, -7.159659 ], [ 111.848039, -7.159283 ], [ 111.847158, -7.158719 ], [ 111.846689, -7.158396 ], [ 111.846435, -7.158226 ], [ 111.845838, -7.157824 ], [ 111.844925, -7.157218 ] ] ] ] } },
{ "type": "Feature", "properties": { "GM_LAYER": "Unknown Area Type", "LAYER": "Unknown Area Type", "MAP_NAME": "Sungai", "id": null, "PERIMETER": "18.022 m", "ENCLOSED_A": "0 ha" }, "geometry": { "type": "MultiPolygon", "coordinates": [ [ [ [ 111.846226, -7.203646 ], [ 111.846258, -7.203571 ], [ 111.846258, -7.203571 ], [ 111.846226, -7.203646 ] ] ] ] } },
{ "type": "Feature", "properties": { "GM_LAYER": "Unknown Area Type", "LAYER": "Unknown Area Type", "MAP_NAME": "Sungai", "id": null, "PERIMETER": "500.62 m", "ENCLOSED_A": "0.0716 ha" }, "geometry": { "type": "MultiPolygon", "coordinates": [ [ [ [ 111.885744, -7.21539 ], [ 111.885716, -7.215389 ], [ 111.885811, -7.215082 ], [ 111.88582, -7.215084 ], [ 111.885843, -7.21501 ], [ 111.885832, -7.215006 ], [ 111.885836, -7.214998 ], [ 111.885844, -7.214991 ], [ 111.88595, -7.214646 ], [ 111.885986, -7.214531 ], [ 111.886031, -7.214387 ], [ 111.886062, -7.214289 ], [ 111.886112, -7.214134 ], [ 111.886315, -7.213515 ], [ 111.886393, -7.213279 ], [ 111.886421, -7.21328 ], [ 111.886348, -7.213499 ], [ 111.886227, -7.213868 ], [ 111.886046, -7.214427 ], [ 111.88595, -7.214738 ], [ 111.885868, -7.214998 ], [ 111.885871, -7.215004 ], [ 111.885867, -7.215016 ], [ 111.885855, -7.215013 ], [ 111.885831, -7.215087 ], [ 111.885837, -7.215089 ], [ 111.885744, -7.21539 ] ] ] ] } },
{ "type": "Feature", "properties": { "GM_LAYER": "Unknown Area Type", "LAYER": "Unknown Area Type", "MAP_NAME": "Sungai", "id": null, "PERIMETER": "1.357 km", "ENCLOSED_A": "0.0754 ha" }, "geometry": { "type": "MultiPolygon", "coordinates": [ [ [ [ 111.880733, -7.211799 ], [ 111.880738, -7.211803 ], [ 111.880736, -7.211805 ], [ 111.880677, -7.211876 ], [ 111.880635, -7.211932 ], [ 111.880598, -7.211973 ], [ 111.880571, -7.211994 ], [ 111.880538, -7.212019 ], [ 111.880511, -7.212043 ], [ 111.88048, -7.212072 ], [ 111.880455, -7.212105 ], [ 111.880409, -7.212166 ], [ 111.880393, -7.212189 ], [ 111.880379, -7.212207 ], [ 111.88034, -7.212251 ], [ 111.880285, -7.212303 ], [ 111.880275, -7.212308 ], [ 111.880251, -7.212313 ], [ 111.880168, -7.212322 ], [ 111.880159, -7.212325 ], [ 111.880153, -7.212334 ], [ 111.880145, -7.212351 ], [ 111.880138, -7.212368 ], [ 111.880132, -7.212386 ], [ 111.880129, -7.212414 ], [ 111.880123, -7.212466 ], [ 111.880118, -7.21251 ], [ 111.88011, -7.212595 ], [ 111.880102, -7.212643 ], [ 111.880086, -7.212721 ], [ 111.880069, -7.212775 ], [ 111.880055, -7.212806 ], [ 111.880044, -7.212825 ], [ 111.880031, -7.212844 ], [ 111.880007, -7.212871 ], [ 111.879937, -7.212947 ], [ 111.879914, -7.212975 ], [ 111.879895, -7.212991 ], [ 111.879868, -7.213008 ], [ 111.879838, -7.213027 ], [ 111.879784, -7.213057 ], [ 111.879755, -7.213068 ], [ 111.879739, -7.213075 ], [ 111.879691, -7.213085 ], [ 111.879625, -7.213098 ], [ 111.879598, -7.213102 ], [ 111.879572, -7.213104 ], [ 111.879516, -7.213103 ], [ 111.879414, -7.213094 ], [ 111.879413, -7.213102 ], [ 111.879406, -7.213101 ], [ 111.879398, -7.21316 ], [ 111.879384, -7.213215 ], [ 111.879359, -7.213272 ], [ 111.879333, -7.213332 ], [ 111.879333, -7.213333 ], [ 111.879314, -7.213328 ], [ 111.879344, -7.213271 ], [ 111.87937, -7.213212 ], [ 111.879386, -7.213161 ], [ 111.879393, -7.213106 ], [ 111.879398, -7.213048 ], [ 111.879394, -7.213035 ], [ 111.879381, -7.213005 ], [ 111.879346, -7.212921 ], [ 111.879233, -7.212695 ], [ 111.879163, -7.212588 ], [ 111.879094, -7.212509 ], [ 111.879075, -7.21248 ], [ 111.87906, -7.21245 ], [ 111.878984, -7.21228 ], [ 111.878919, -7.212219 ], [ 111.878889, -7.212211 ], [ 111.87885, -7.212208 ], [ 111.878825, -7.212204 ], [ 111.878798, -7.212197 ], [ 111.878773, -7.212189 ], [ 111.878749, -7.212177 ], [ 111.878725, -7.212153 ], [ 111.878705, -7.212124 ], [ 111.8787, -7.21211 ], [ 111.878689, -7.212071 ], [ 111.878683, -7.212036 ], [ 111.878689, -7.212035 ], [ 111.878685, -7.212003 ], [ 111.878686, -7.212003 ], [ 111.878678, -7.211935 ], [ 111.878658, -7.21189 ], [ 111.878615, -7.211793 ], [ 111.878604, -7.211761 ], [ 111.8786, -7.211746 ], [ 111.878589, -7.211673 ], [ 111.878582, -7.211638 ], [ 111.878568, -7.211607 ], [ 111.878553, -7.211576 ], [ 111.878541, -7.211535 ], [ 111.878501, -7.21147 ], [ 111.878457, -7.211432 ], [ 111.878386, -7.211409 ], [ 111.878338, -7.211386 ], [ 111.87832, -7.211362 ], [ 111.878307, -7.211282 ], [ 111.8783, -7.211238 ], [ 111.878296, -7.211145 ], [ 111.878294, -7.211073 ], [ 111.878294, -7.211073 ], [ 111.878291, -7.211 ], [ 111.878285, -7.210955 ], [ 111.878281, -7.210904 ], [ 111.878279, -7.210877 ], [ 111.878277, -7.210858 ], [ 111.878277, -7.210846 ], [ 111.87829, -7.210692 ], [ 111.878289, -7.210687 ], [ 111.878286, -7.210684 ], [ 111.878278, -7.210681 ], [ 111.878208, -7.210663 ], [ 111.878177, -7.210656 ], [ 111.878167, -7.210653 ], [ 111.878159, -7.21065 ], [ 111.878142, -7.210642 ], [ 111.878135, -7.210636 ], [ 111.878126, -7.210628 ], [ 111.878117, -7.210614 ], [ 111.878112, -7.210604 ], [ 111.878108, -7.210592 ], [ 111.878123, -7.210467 ], [ 111.878124, -7.210458 ], [ 111.878124, -7.210425 ], [ 111.878126, -7.210394 ], [ 111.878128, -7.21038 ], [ 111.878135, -7.210321 ], [ 111.87815, -7.210268 ], [ 111.878165, -7.210217 ], [ 111.878179, -7.210154 ], [ 111.878178, -7.210149 ], [ 111.878174, -7.210143 ], [ 111.878131, -7.210061 ], [ 111.878131, -7.209972 ], [ 111.87814, -7.209955 ], [ 111.878156, -7.20992 ], [ 111.878178, -7.20987 ], [ 111.878185, -7.209873 ], [ 111.878162, -7.209927 ], [ 111.878141, -7.209972 ], [ 111.87814, -7.209976 ], [ 111.878139, -7.209984 ], [ 111.87814, -7.210056 ], [ 111.878141, -7.210059 ], [ 111.878142, -7.210062 ], [ 111.878187, -7.21015 ], [ 111.878187, -7.210153 ], [ 111.878173, -7.210223 ], [ 111.87815, -7.210303 ], [ 111.878143, -7.210324 ], [ 111.878143, -7.21033 ], [ 111.878135, -7.210391 ], [ 111.878134, -7.210443 ], [ 111.878133, -7.210462 ], [ 111.878129, -7.210499 ], [ 111.878122, -7.210557 ], [ 111.878118, -7.210587 ], [ 111.878118, -7.210593 ], [ 111.878123, -7.210607 ], [ 111.87813, -7.210616 ], [ 111.878139, -7.210627 ], [ 111.878153, -7.210637 ], [ 111.878172, -7.210646 ], [ 111.87821, -7.210655 ], [ 111.878243, -7.210665 ], [ 111.878285, -7.210676 ], [ 111.878299, -7.210678 ], [ 111.878299, -7.210681 ], [ 111.878292, -7.210761 ], [ 111.878286, -7.210852 ], [ 111.878296, -7.210957 ], [ 111.878306, -7.211086 ], [ 111.878305, -7.211085 ], [ 111.87831, -7.211214 ], [ 111.878322, -7.211326 ], [ 111.878336, -7.211366 ], [ 111.878363, -7.211392 ], [ 111.87844, -7.211413 ], [ 111.87847, -7.211426 ], [ 111.878489, -7.211443 ], [ 111.878512, -7.21147 ], [ 111.878547, -7.211526 ], [ 111.878584, -7.211619 ], [ 111.878594, -7.211655 ], [ 111.8786, -7.211691 ], [ 111.878609, -7.211724 ], [ 111.878612, -7.21175 ], [ 111.878632, -7.211815 ], [ 111.878672, -7.211904 ], [ 111.878685, -7.211929 ], [ 111.878693, -7.212005 ], [ 111.878693, -7.212005 ], [ 111.878697, -7.212034 ], [ 111.878701, -7.212034 ], [ 111.878706, -7.212074 ], [ 111.87872, -7.212116 ], [ 111.878726, -7.212127 ], [ 111.878757, -7.212162 ], [ 111.878789, -7.212179 ], [ 111.878809, -7.212185 ], [ 111.87883, -7.21219 ], [ 111.878863, -7.212194 ], [ 111.878884, -7.212196 ], [ 111.878914, -7.212201 ], [ 111.878922, -7.212204 ], [ 111.878941, -7.212218 ], [ 111.878972, -7.212246 ], [ 111.878985, -7.212259 ], [ 111.878995, -7.212273 ], [ 111.879013, -7.212312 ], [ 111.879032, -7.212352 ], [ 111.879083, -7.212464 ], [ 111.8791, -7.212499 ], [ 111.879161, -7.212567 ], [ 111.879177, -7.212583 ], [ 111.879191, -7.212602 ], [ 111.879232, -7.212662 ], [ 111.879249, -7.212694 ], [ 111.879291, -7.212776 ], [ 111.879341, -7.212865 ], [ 111.879377, -7.212957 ], [ 111.879408, -7.213028 ], [ 111.879413, -7.213041 ], [ 111.879417, -7.213046 ], [ 111.879418, -7.213049 ], [ 111.879418, -7.213059 ], [ 111.879415, -7.213085 ], [ 111.87949, -7.213094 ], [ 111.879512, -7.213097 ], [ 111.879546, -7.213098 ], [ 111.879584, -7.213097 ], [ 111.879603, -7.213095 ], [ 111.879628, -7.213091 ], [ 111.879651, -7.213086 ], [ 111.87968, -7.213081 ], [ 111.879705, -7.213075 ], [ 111.87973, -7.21307 ], [ 111.879746, -7.213066 ], [ 111.879764, -7.213058 ], [ 111.879784, -7.213049 ], [ 111.879801, -7.213039 ], [ 111.879841, -7.213017 ], [ 111.879875, -7.212996 ], [ 111.8799, -7.212977 ], [ 111.879918, -7.212959 ], [ 111.879953, -7.212918 ], [ 111.879993, -7.212873 ], [ 111.880017, -7.212849 ], [ 111.880029, -7.212836 ], [ 111.880043, -7.212816 ], [ 111.880054, -7.212797 ], [ 111.880071, -7.212749 ], [ 111.880082, -7.212708 ], [ 111.880091, -7.212666 ], [ 111.8801, -7.21262 ], [ 111.880105, -7.212572 ], [ 111.880109, -7.212528 ], [ 111.880114, -7.212485 ], [ 111.880121, -7.212425 ], [ 111.880128, -7.212374 ], [ 111.88013, -7.212366 ], [ 111.880151, -7.212319 ], [ 111.880155, -7.21231 ], [ 111.880163, -7.212305 ], [ 111.880174, -7.212305 ], [ 111.880184, -7.212305 ], [ 111.880272, -7.212298 ], [ 111.880285, -7.212296 ], [ 111.880311, -7.212272 ], [ 111.880354, -7.212228 ], [ 111.880386, -7.21219 ], [ 111.880404, -7.212163 ], [ 111.880422, -7.212139 ], [ 111.880449, -7.212102 ], [ 111.880463, -7.212084 ], [ 111.880475, -7.212069 ], [ 111.880493, -7.212051 ], [ 111.880518, -7.212028 ], [ 111.880564, -7.211992 ], [ 111.880589, -7.211973 ], [ 111.880595, -7.211969 ], [ 111.880628, -7.211932 ], [ 111.880654, -7.211896 ], [ 111.880731, -7.2118 ], [ 111.880733, -7.211799 ] ] ] ] } }
]
}
