{"type":"FeatureCollection","name":"tiang_sutet","features":[{"type":"Feature","properties":{"id":null},"geometry":{"type":"Point","coordinates":[111.835064,-7.176545]}},{"type":"Feature","properties":{"id":null},"geometry":{"type":"Point","coordinates":[111.8383,-7.176528]}},{"type":"Feature","properties":{"id":null},"geometry":{"type":"Point","coordinates":[111.84133,-7.1765]}},{"type":"Feature","properties":{"id":null},"geometry":{"type":"Point","coordinates":[111.844423,-7.176464]}},{"type":"Feature","properties":{"id":null},"geometry":{"type":"Point","coordinates":[111.937748,-7.205892]}},{"type":"Feature","properties":{"id":null},"geometry":{"type":"Point","coordinates":[111.940387,-7.20767]}},{"type":"Feature","properties":{"id":null},"geometry":{"type":"Point","coordinates":[111.943012,-7.209433]}},{"type":"Feature","properties":{"id":null},"geometry":{"type":"Point","coordinates":[111.945683,-7.211241]}},{"type":"Feature","properties":{"id":null},"geometry":{"type":"Point","coordinates":[111.948582,-7.209928]}},{"type":"Feature","properties":{"id":null},"geometry":{"type":"Point","coordinates":[111.959923,-7.204752]}},{"type":"Feature","properties":{"id":null},"geometry":{"type":"Point","coordinates":[111.96272,-7.203472]}},{"type":"Feature","properties":{"id":null},"geometry":{"type":"Point","coordinates":[111.96555,-7.202186]}},{"type":"Feature","properties":{"id":null},"geometry":{"type":"Point","coordinates":[111.968381,-7.200889]}},{"type":"Feature","properties":{"id":null},"geometry":{"type":"Point","coordinates":[111.971233,-7.199583]}},{"type":"Feature","properties":{"id":null},"geometry":{"type":"Point","coordinates":[111.974025,-7.198304]}},{"type":"Feature","properties":{"id":null},"geometry":{"type":"Point","coordinates":[111.976859,-7.197024]}},{"type":"Feature","properties":{"id":null},"geometry":{"type":"Point","coordinates":[111.97967,-7.195726]}},{"type":"Feature","properties":{"id":null},"geometry":{"type":"Point","coordinates":[111.982428,-7.194342]}},{"type":"Feature","properties":{"id":null},"geometry":{"type":"Point","coordinates":[111.985667,-7.192983]}},{"type":"Feature","properties":{"id":null},"geometry":{"type":"Point","coordinates":[111.831951,-7.176573]}},{"type":"Feature","properties":{"id":null},"geometry":{"type":"Point","coordinates":[111.828826,-7.176602]}},{"type":"Feature","properties":{"id":null},"geometry":{"type":"Point","coordinates":[111.82571,-7.176628]}},{"type":"Feature","properties":{"id":null},"geometry":{"type":"Point","coordinates":[111.822663,-7.176655]}},{"type":"Feature","properties":{"id":null},"geometry":{"type":"Point","coordinates":[111.819504,-7.176682]}},{"type":"Feature","properties":{"id":null},"geometry":{"type":"Point","coordinates":[111.81641,-7.176708]}},{"type":"Feature","properties":{"id":null},"geometry":{"type":"Point","coordinates":[111.813414,-7.176735]}},{"type":"Feature","properties":{"id":null},"geometry":{"type":"Point","coordinates":[111.810153,-7.176779]}},{"type":"Feature","properties":{"id":null},"geometry":{"type":"Point","coordinates":[111.807161,-7.176793]}},{"type":"Feature","properties":{"id":null},"geometry":{"type":"Point","coordinates":[111.80407,-7.177191]}},{"type":"Feature","properties":{"id":null},"geometry":{"type":"Point","coordinates":[111.801668,-7.177497]}},{"type":"Feature","properties":{"id":null},"geometry":{"type":"Point","coordinates":[111.798854,-7.177855]}},{"type":"Feature","properties":{"id":null},"geometry":{"type":"Point","coordinates":[111.951286,-7.208682]}},{"type":"Feature","properties":{"id":null},"geometry":{"type":"Point","coordinates":[111.954293,-7.207317]}},{"type":"Feature","properties":{"id":null},"geometry":{"type":"Point","coordinates":[111.957084,-7.206043]}},{"type":"Feature","properties":{"id":null},"geometry":{"type":"Point","coordinates":[111.899436,-7.187763]}},{"type":"Feature","properties":{"id":null},"geometry":{"type":"Point","coordinates":[111.902243,-7.18888]}},{"type":"Feature","properties":{"id":null},"geometry":{"type":"Point","coordinates":[111.905039,-7.18999]}},{"type":"Feature","properties":{"id":null},"geometry":{"type":"Point","coordinates":[111.896649,-7.186653]}}]}