{"type":"FeatureCollection","name":"traceg","features":[{"type":"Feature","properties":{"Layer":null,"PaperSpace":null,"SubClasses":null,"Linetype":null,"EntityHand":null,"Text":null},"geometry":{"type":"MultiPolygon","coordinates":[[[[111.942612,-7.19985],[111.942724,-7.200367],[111.942727,-7.20038],[111.942808,-7.2009],[111.94281,-7.200913],[111.94286,-7.201436],[111.942861,-7.201449],[111.942881,-7.201975],[111.942881,-7.201988],[111.94287,-7.202514],[111.942869,-7.202527],[111.942827,-7.203055],[111.942826,-7.203061],[111.942692,-7.204279],[111.942691,-7.204287],[111.942619,-7.20478],[111.942616,-7.204796],[111.942511,-7.205279],[111.942507,-7.205294],[111.942369,-7.20577],[111.942364,-7.205784],[111.942193,-7.206249],[111.942187,-7.206263],[111.941984,-7.206715],[111.941977,-7.206729],[111.941743,-7.207165],[111.941735,-7.207178],[111.941471,-7.207597],[111.941463,-7.20761],[111.941171,-7.20801],[111.941161,-7.208022],[111.940842,-7.208401],[111.940831,-7.208412],[111.940487,-7.208768],[111.940475,-7.208779],[111.940107,-7.209109],[111.940095,-7.209119],[111.939704,-7.209424],[111.939691,-7.209433],[111.939281,-7.20971],[111.939267,-7.209718],[111.938838,-7.209965],[111.938825,-7.209973],[111.938379,-7.21019],[111.938365,-7.210196],[111.937906,-7.210382],[111.937891,-7.210387],[111.93742,-7.210541],[111.937405,-7.210545],[111.936921,-7.210667],[111.936913,-7.210669],[111.933719,-7.211353],[111.933714,-7.211354],[111.932468,-7.211591],[111.932457,-7.211592],[111.931202,-7.211771],[111.931196,-7.211771],[111.927826,-7.212169],[111.92782,-7.21217],[111.925309,-7.212396],[111.925303,-7.212397],[111.886716,-7.214791],[111.886708,-7.214791],[111.886083,-7.214808],[111.886068,-7.214808],[111.885447,-7.214782],[111.885432,-7.214781],[111.884815,-7.214712],[111.884799,-7.214709],[111.884189,-7.214598],[111.884173,-7.214594],[111.883572,-7.214441],[111.883557,-7.214436],[111.882967,-7.214242],[111.882953,-7.214236],[111.882378,-7.214001],[111.882364,-7.213995],[111.881807,-7.21372],[111.881794,-7.213713],[111.881257,-7.213401],[111.881244,-7.213392],[111.880731,-7.213044],[111.880718,-7.213034],[111.88023,-7.212651],[111.880218,-7.212641],[111.879758,-7.212225],[111.879747,-7.212214],[111.879314,-7.211764],[111.879309,-7.211758],[111.877452,-7.20969],[111.877442,-7.209679],[111.877054,-7.209274],[111.877033,-7.209253],[111.876625,-7.208879],[111.876602,-7.20886],[111.87617,-7.208513],[111.876146,-7.208496],[111.875693,-7.208178],[111.875668,-7.208162],[111.875194,-7.207874],[111.875169,-7.20786],[111.874677,-7.207604],[111.874651,-7.207591],[111.874144,-7.207368],[111.874116,-7.207356],[111.873596,-7.207167],[111.873568,-7.207157],[111.873036,-7.207002],[111.873007,-7.206994],[111.872466,-7.206874],[111.872437,-7.206868],[111.871882,-7.206782],[111.871868,-7.20678],[111.864397,-7.205868],[111.864395,-7.205868],[111.850019,-7.204181],[111.850008,-7.20418],[111.8491,-7.204097],[111.849077,-7.204095],[111.848172,-7.20406],[111.848149,-7.204059],[111.847237,-7.20407],[111.847226,-7.204071],[111.843092,-7.204227],[111.843084,-7.204227],[111.842464,-7.204229],[111.842448,-7.204229],[111.841833,-7.204189],[111.841818,-7.204187],[111.841207,-7.204104],[111.841192,-7.204102],[111.840588,-7.203978],[111.840573,-7.203974],[111.839979,-7.203808],[111.839964,-7.203804],[111.839383,-7.203598],[111.839369,-7.203592],[111.838804,-7.203347],[111.83879,-7.20334],[111.838243,-7.203057],[111.838229,-7.203049],[111.837703,-7.202728],[111.83769,-7.20272],[111.837187,-7.202364],[111.837175,-7.202354],[111.836697,-7.201965],[111.836686,-7.201954],[111.836237,-7.201533],[111.836226,-7.201522],[111.835807,-7.20107],[111.835796,-7.201059],[111.83541,-7.200579],[111.8354,-7.200567],[111.835047,-7.200062],[111.835039,-7.200049],[111.834721,-7.199522],[111.834714,-7.199508],[111.834434,-7.19896],[111.834427,-7.198946],[111.834185,-7.198379],[111.83418,-7.198365],[111.833978,-7.197783],[111.833973,-7.197768],[111.833812,-7.197174],[111.833808,-7.197159],[111.833688,-7.196556],[111.833685,-7.19654],[111.833607,-7.19593],[111.833605,-7.195914],[111.833569,-7.1953],[111.833569,-7.195284],[111.833575,-7.194669],[111.833576,-7.194653],[111.833625,-7.194039],[111.833627,-7.194024],[111.833718,-7.193415],[111.83372,-7.1934],[111.833853,-7.192799],[111.833857,-7.192784],[111.834032,-7.192189],[111.834034,-7.192182],[111.837386,-7.182094],[111.837389,-7.182083],[111.838034,-7.179971],[111.838037,-7.17996],[111.840325,-7.17174],[111.840327,-7.171734],[111.840611,-7.170809],[111.840615,-7.170798],[111.840948,-7.169893],[111.840952,-7.169882],[111.841333,-7.168996],[111.841338,-7.168985],[111.841767,-7.168118],[111.841769,-7.168112],[111.842499,-7.166731],[111.842501,-7.166727],[111.842836,-7.166123],[111.84284,-7.166115],[111.843197,-7.165524],[111.8432,-7.16552],[111.844662,-7.163202],[111.844665,-7.163197],[111.844755,-7.163057],[111.844775,-7.163025],[111.844792,-7.162998],[111.844806,-7.162976],[111.844819,-7.162956],[111.844831,-7.162937],[111.844842,-7.16292],[111.844852,-7.162904],[111.844862,-7.162889],[111.844872,-7.162874],[111.844881,-7.16286],[111.84489,-7.162846],[111.844899,-7.162832],[111.844907,-7.162819],[111.844915,-7.162806],[111.844923,-7.162794],[111.844931,-7.162781],[111.84494,-7.162769],[111.844948,-7.162756],[111.844956,-7.162744],[111.844964,-7.162732],[111.844972,-7.162719],[111.84498,-7.162707],[111.844988,-7.162694],[111.844996,-7.162682],[111.845004,-7.162669],[111.845012,-7.162657],[111.84502,-7.162645],[111.845028,-7.162632],[111.845036,-7.16262],[111.845044,-7.162607],[111.845053,-7.162595],[111.845061,-7.162582],[111.845069,-7.16257],[111.845077,-7.162558],[111.845085,-7.162545],[111.845093,-7.162533],[111.845101,-7.16252],[111.845109,-7.162508],[111.845118,-7.162496],[111.845126,-7.162483],[111.845134,-7.162471],[111.845142,-7.162459],[111.84515,-7.162446],[111.845158,-7.162434],[111.845166,-7.162421],[111.845175,-7.162409],[111.845183,-7.162397],[111.845191,-7.162384],[111.845199,-7.162372],[111.845207,-7.16236],[111.845216,-7.162347],[111.845224,-7.162335],[111.845232,-7.162323],[111.84524,-7.16231],[111.845248,-7.162298],[111.845257,-7.162285],[111.845265,-7.162273],[111.845273,-7.162261],[111.845281,-7.162248],[111.845289,-7.162236],[111.845298,-7.162224],[111.845306,-7.162211],[111.845314,-7.162199],[111.845322,-7.162187],[111.845331,-7.162174],[111.845339,-7.162162],[111.845347,-7.16215],[111.845355,-7.162138],[111.845364,-7.162125],[111.845372,-7.162113],[111.84538,-7.162101],[111.845388,-7.162088],[111.845397,-7.162076],[111.845405,-7.162064],[111.845413,-7.162051],[111.845421,-7.162039],[111.84543,-7.162027],[111.845438,-7.162015],[111.845446,-7.162002],[111.845455,-7.16199],[111.845463,-7.161978],[111.845471,-7.161965],[111.84548,-7.161953],[111.845488,-7.161941],[111.845496,-7.161929],[111.845505,-7.161916],[111.845513,-7.161904],[111.845521,-7.161892],[111.84553,-7.16188],[111.845538,-7.161867],[111.845546,-7.161855],[111.845555,-7.161843],[111.845563,-7.161831],[111.845571,-7.161818],[111.84558,-7.161806],[111.845588,-7.161794],[111.845596,-7.161782],[111.845605,-7.161769],[111.845613,-7.161757],[111.845622,-7.161745],[111.84563,-7.161733],[111.845638,-7.161721],[111.845647,-7.161708],[111.845655,-7.161696],[111.845663,-7.161684],[111.845672,-7.161672],[111.84568,-7.16166],[111.845689,-7.161647],[111.845697,-7.161635],[111.845706,-7.161623],[111.845714,-7.161611],[111.845722,-7.161599],[111.845731,-7.161586],[111.845739,-7.161574],[111.845748,-7.161562],[111.845756,-7.16155],[111.845765,-7.161538],[111.845773,-7.161525],[111.845782,-7.161513],[111.84579,-7.161501],[111.845798,-7.161489],[111.845807,-7.161477],[111.845815,-7.161465],[111.845824,-7.161452],[111.845832,-7.16144],[111.845841,-7.161428],[111.845849,-7.161416],[111.845858,-7.161404],[111.845866,-7.161392],[111.845875,-7.16138],[111.845883,-7.161367],[111.845892,-7.161355],[111.8459,-7.161343],[111.845909,-7.161331],[111.845917,-7.161319],[111.845926,-7.161307],[111.845934,-7.161295],[111.845943,-7.161282],[111.845952,-7.16127],[111.84596,-7.161258],[111.845969,-7.161246],[111.845977,-7.161234],[111.845986,-7.161222],[111.845994,-7.16121],[111.846003,-7.161198],[111.846011,-7.161186],[111.84602,-7.161174],[111.846029,-7.161161],[111.846037,-7.161149],[111.846046,-7.161137],[111.846054,-7.161125],[111.846063,-7.161113],[111.846071,-7.161101],[111.84608,-7.161089],[111.846089,-7.161077],[111.846097,-7.161065],[111.846106,-7.161053],[111.846114,-7.161041],[111.846123,-7.161029],[111.846132,-7.161017],[111.84614,-7.161005],[111.846149,-7.160992],[111.846158,-7.16098],[111.846166,-7.160968],[111.846175,-7.160956],[111.846183,-7.160944],[111.846192,-7.160932],[111.846201,-7.16092],[111.846209,-7.160908],[111.846218,-7.160896],[111.846227,-7.160884],[111.846235,-7.160872],[111.846244,-7.16086],[111.846253,-7.160848],[111.846261,-7.160836],[111.84627,-7.160824],[111.846279,-7.160812],[111.846288,-7.1608],[111.846296,-7.160788],[111.846305,-7.160776],[111.846314,-7.160764],[111.846322,-7.160752],[111.846331,-7.16074],[111.84634,-7.160728],[111.846348,-7.160716],[111.846357,-7.160704],[111.846366,-7.160692],[111.846375,-7.16068],[111.846383,-7.160668],[111.846392,-7.160656],[111.846401,-7.160644],[111.84641,-7.160632],[111.846418,-7.16062],[111.846427,-7.160608],[111.846436,-7.160596],[111.846445,-7.160584],[111.846453,-7.160572],[111.846462,-7.16056],[111.846471,-7.160548],[111.84648,-7.160537],[111.846489,-7.160525],[111.846497,-7.160513],[111.846506,-7.160501],[111.846515,-7.160489],[111.846524,-7.160477],[111.846532,-7.160465],[111.846541,-7.160453],[111.84655,-7.160441],[111.846559,-7.160429],[111.846568,-7.160417],[111.846577,-7.160405],[111.846585,-7.160393],[111.846594,-7.160382],[111.846603,-7.16037],[111.846612,-7.160358],[111.846621,-7.160346],[111.84663,-7.160334],[111.846638,-7.160322],[111.846647,-7.16031],[111.846656,-7.160298],[111.846665,-7.160286],[111.846674,-7.160274],[111.846683,-7.160263],[111.846692,-7.160251],[111.8467,-7.160239],[111.846709,-7.160227],[111.846718,-7.160215],[111.846727,-7.160203],[111.846736,-7.160191],[111.846745,-7.16018],[111.846754,-7.160168],[111.846763,-7.160156],[111.846772,-7.160144],[111.84678,-7.160132],[111.846789,-7.16012],[111.846798,-7.160108],[111.846807,-7.160097],[111.846816,-7.160085],[111.846825,-7.160073],[111.846834,-7.160061],[111.846844,-7.160048],[111.846854,-7.160035],[111.846864,-7.160022],[111.846874,-7.160008],[111.846885,-7.159994],[111.846896,-7.15998],[111.846907,-7.159965],[111.846919,-7.159949],[111.846933,-7.159931],[111.846947,-7.159912],[111.846963,-7.159891],[111.846982,-7.159866],[111.847005,-7.159836],[111.847039,-7.159791],[111.847107,-7.159702],[111.847108,-7.159702],[111.847108,-7.159701],[111.847363,-7.15937],[111.847397,-7.159325],[111.847441,-7.159263],[111.847468,-7.159219],[111.847489,-7.159184],[111.847515,-7.159129],[111.847538,-7.159065],[111.847554,-7.158991],[111.847558,-7.158943],[111.847558,-7.158942],[111.847558,-7.158934],[111.847558,-7.158932],[111.847559,-7.158924],[111.847559,-7.158922],[111.847559,-7.158914],[111.847559,-7.158912],[111.847559,-7.158904],[111.847559,-7.158902],[111.847559,-7.158895],[111.847559,-7.158893],[111.847558,-7.158885],[111.847558,-7.158883],[111.847558,-7.158875],[111.847558,-7.158873],[111.847557,-7.158865],[111.847557,-7.158863],[111.847556,-7.158855],[111.847556,-7.158854],[111.847555,-7.158846],[111.847555,-7.158844],[111.847554,-7.158836],[111.847554,-7.158834],[111.847553,-7.158826],[111.847553,-7.158824],[111.847551,-7.158817],[111.847551,-7.158815],[111.84755,-7.158807],[111.847549,-7.158805],[111.847548,-7.158797],[111.847548,-7.158795],[111.847546,-7.158788],[111.847545,-7.158786],[111.847544,-7.158778],[111.847543,-7.158776],[111.847541,-7.158769],[111.847541,-7.158767],[111.847539,-7.158759],[111.847538,-7.158757],[111.847536,-7.15875],[111.847536,-7.158748],[111.847533,-7.15874],[111.847533,-7.158739],[111.84753,-7.158731],[111.84753,-7.158729],[111.847527,-7.158722],[111.847527,-7.15872],[111.847524,-7.158713],[111.847523,-7.158711],[111.84752,-7.158703],[111.84752,-7.158702],[111.847517,-7.158694],[111.847517,-7.158694],[111.847504,-7.158666],[111.847503,-7.158664],[111.847499,-7.158657],[111.847498,-7.158654],[111.847494,-7.158647],[111.847493,-7.158645],[111.847489,-7.158638],[111.847488,-7.158635],[111.847484,-7.158628],[111.847482,-7.158626],[111.847478,-7.158619],[111.847477,-7.158617],[111.847472,-7.15861],[111.847471,-7.158607],[111.847466,-7.158601],[111.847465,-7.158598],[111.84746,-7.158592],[111.847459,-7.158589],[111.847454,-7.158583],[111.847453,-7.15858],[111.847448,-7.158574],[111.847446,-7.158572],[111.847441,-7.158565],[111.84744,-7.158563],[111.847435,-7.158557],[111.847433,-7.158555],[111.847428,-7.158548],[111.847426,-7.158546],[111.847421,-7.15854],[111.847419,-7.158538],[111.847414,-7.158532],[111.847412,-7.15853],[111.847407,-7.158524],[111.847405,-7.158522],[111.847399,-7.158516],[111.847397,-7.158514],[111.847392,-7.158508],[111.84739,-7.158506],[111.847384,-7.1585],[111.847382,-7.158498],[111.847376,-7.158493],[111.847374,-7.158491],[111.847369,-7.158485],[111.847366,-7.158483],[111.84736,-7.158478],[111.847358,-7.158476],[111.847352,-7.158471],[111.84735,-7.158469],[111.847344,-7.158464],[111.847342,-7.158462],[111.847336,-7.158457],[111.847333,-7.158455],[111.847327,-7.15845],[111.847325,-7.158448],[111.847318,-7.158444],[111.847316,-7.158442],[111.84731,-7.158437],[111.847307,-7.158436],[111.847301,-7.158431],[111.847298,-7.158429],[111.847292,-7.158425],[111.847289,-7.158423],[111.847283,-7.158419],[111.84728,-7.158417],[111.847274,-7.158413],[111.847271,-7.158412],[111.847264,-7.158408],[111.847262,-7.158406],[111.847255,-7.158402],[111.847252,-7.158401],[111.847245,-7.158397],[111.847243,-7.158395],[111.847241,-7.158394],[111.84722,-7.158382],[111.846852,-7.15814],[111.846851,-7.158139],[111.846473,-7.157892],[111.846473,-7.157892],[111.846094,-7.157645],[111.845715,-7.157399],[111.845714,-7.157398],[111.845337,-7.157155],[111.84533,-7.157151],[111.845299,-7.157131],[111.845296,-7.157129],[111.845262,-7.157107],[111.845231,-7.157087],[111.845202,-7.157068],[111.845107,-7.157007],[111.845106,-7.157008],[111.845046,-7.156968],[111.844986,-7.156927],[111.844897,-7.15686],[111.8447,-7.156702],[111.844501,-7.156547],[111.844389,-7.156469],[111.844084,-7.156274],[111.84411,-7.156234],[111.844135,-7.156194],[111.844555,-7.156462],[111.844652,-7.156519],[111.844786,-7.156592],[111.844828,-7.156614],[111.844976,-7.156687],[111.845074,-7.156735],[111.84517,-7.156786],[111.845217,-7.156813],[111.845276,-7.156849],[111.845284,-7.156854],[111.84547,-7.156974],[111.84566,-7.157097],[111.845842,-7.157215],[111.845858,-7.157225],[111.846042,-7.157334],[111.846048,-7.157337],[111.84622,-7.157436],[111.846262,-7.157457],[111.846264,-7.157458],[111.846271,-7.157461],[111.846272,-7.157461],[111.846279,-7.157464],[111.846281,-7.157465],[111.846288,-7.157468],[111.84629,-7.157468],[111.846297,-7.157471],[111.846299,-7.157472],[111.846306,-7.157474],[111.846308,-7.157475],[111.846315,-7.157477],[111.846317,-7.157478],[111.846324,-7.15748],[111.846326,-7.157481],[111.846333,-7.157483],[111.846335,-7.157483],[111.846342,-7.157486],[111.846344,-7.157486],[111.846352,-7.157488],[111.846353,-7.157488],[111.846361,-7.15749],[111.846363,-7.157491],[111.84637,-7.157492],[111.846372,-7.157493],[111.846379,-7.157494],[111.846381,-7.157495],[111.846389,-7.157496],[111.846391,-7.157496],[111.846398,-7.157498],[111.8464,-7.157498],[111.846408,-7.157499],[111.846409,-7.157499],[111.846417,-7.1575],[111.846419,-7.157501],[111.846426,-7.157502],[111.846428,-7.157502],[111.846436,-7.157503],[111.846438,-7.157503],[111.846445,-7.157503],[111.846447,-7.157504],[111.846455,-7.157504],[111.846457,-7.157504],[111.846464,-7.157505],[111.846466,-7.157505],[111.846474,-7.157505],[111.846476,-7.157505],[111.846483,-7.157505],[111.846485,-7.157505],[111.846493,-7.157505],[111.846505,-7.157505],[111.846505,-7.157505],[111.846513,-7.157506],[111.846516,-7.157506],[111.846524,-7.157506],[111.846527,-7.157506],[111.846534,-7.157506],[111.846537,-7.157506],[111.846545,-7.157506],[111.846548,-7.157506],[111.846556,-7.157506],[111.846559,-7.157506],[111.846566,-7.157505],[111.846569,-7.157505],[111.846577,-7.157504],[111.84658,-7.157504],[111.846588,-7.157504],[111.84659,-7.157503],[111.846598,-7.157503],[111.846601,-7.157502],[111.846609,-7.157501],[111.846612,-7.157501],[111.846619,-7.1575],[111.846622,-7.1575],[111.84663,-7.157498],[111.846633,-7.157498],[111.84664,-7.157497],[111.846643,-7.157496],[111.846651,-7.157495],[111.846654,-7.157494],[111.846661,-7.157493],[111.846664,-7.157492],[111.846672,-7.15749],[111.846674,-7.15749],[111.846682,-7.157488],[111.846685,-7.157487],[111.846692,-7.157485],[111.846695,-7.157484],[111.846702,-7.157482],[111.846705,-7.157482],[111.846713,-7.157479],[111.846715,-7.157479],[111.846723,-7.157476],[111.846726,-7.157475],[111.846733,-7.157473],[111.846736,-7.157472],[111.846743,-7.157469],[111.846746,-7.157468],[111.846753,-7.157466],[111.846756,-7.157465],[111.846763,-7.157462],[111.846765,-7.157461],[111.846773,-7.157458],[111.846775,-7.157457],[111.846782,-7.157454],[111.846785,-7.157452],[111.846792,-7.157449],[111.846795,-7.157448],[111.846802,-7.157445],[111.846804,-7.157444],[111.846811,-7.15744],[111.846813,-7.157439],[111.846834,-7.157428],[111.846901,-7.15739],[111.846907,-7.157386],[111.846978,-7.157344],[111.846984,-7.157341],[111.847054,-7.157298],[111.847059,-7.157294],[111.847129,-7.157251],[111.847135,-7.157247],[111.847205,-7.157201],[111.847207,-7.157199],[111.847451,-7.157044],[111.847461,-7.157038],[111.847466,-7.157035],[111.847469,-7.157033],[111.847478,-7.157029],[111.847482,-7.157027],[111.84749,-7.157022],[111.847494,-7.157021],[111.847503,-7.157016],[111.847506,-7.157014],[111.847515,-7.15701],[111.847519,-7.157009],[111.847528,-7.157004],[111.847531,-7.157003],[111.84754,-7.156999],[111.847544,-7.156997],[111.847553,-7.156994],[111.847557,-7.156992],[111.847566,-7.156989],[111.84757,-7.156987],[111.847579,-7.156984],[111.847583,-7.156982],[111.847592,-7.156979],[111.847596,-7.156978],[111.847605,-7.156975],[111.847609,-7.156973],[111.847618,-7.15697],[111.847622,-7.156969],[111.847631,-7.156966],[111.847635,-7.156965],[111.847645,-7.156963],[111.847648,-7.156962],[111.847658,-7.156959],[111.847662,-7.156958],[111.847671,-7.156956],[111.847675,-7.156955],[111.847685,-7.156953],[111.847689,-7.156952],[111.847698,-7.15695],[111.847702,-7.156949],[111.847712,-7.156948],[111.847716,-7.156947],[111.847726,-7.156945],[111.84773,-7.156945],[111.847739,-7.156943],[111.847743,-7.156943],[111.847753,-7.156941],[111.847757,-7.156941],[111.847767,-7.15694],[111.847771,-7.156939],[111.84778,-7.156938],[111.847784,-7.156938],[111.847794,-7.156937],[111.847798,-7.156937],[111.847808,-7.156936],[111.847812,-7.156936],[111.847822,-7.156936],[111.847826,-7.156935],[111.847836,-7.156935],[111.84784,-7.156935],[111.847849,-7.156935],[111.847853,-7.156935],[111.847863,-7.156935],[111.847867,-7.156935],[111.847877,-7.156935],[111.847881,-7.156935],[111.847891,-7.156936],[111.847895,-7.156936],[111.847905,-7.156937],[111.847909,-7.156937],[111.847918,-7.156938],[111.847922,-7.156938],[111.847932,-7.156939],[111.847936,-7.156939],[111.847946,-7.15694],[111.84795,-7.156941],[111.84796,-7.156942],[111.847963,-7.156943],[111.847973,-7.156944],[111.847977,-7.156945],[111.847987,-7.156946],[111.847991,-7.156947],[111.848,-7.156949],[111.848004,-7.15695],[111.848014,-7.156951],[111.848018,-7.156952],[111.848028,-7.156954],[111.848031,-7.156955],[111.848041,-7.156957],[111.848045,-7.156958],[111.848054,-7.156961],[111.848058,-7.156962],[111.848068,-7.156964],[111.848071,-7.156966],[111.848081,-7.156968],[111.848085,-7.156969],[111.848094,-7.156972],[111.848098,-7.156974],[111.848107,-7.156977],[111.848111,-7.156978],[111.84812,-7.156981],[111.848124,-7.156983],[111.848133,-7.156986],[111.848137,-7.156987],[111.848146,-7.156991],[111.84815,-7.156992],[111.848159,-7.156996],[111.848163,-7.156998],[111.848172,-7.157002],[111.848175,-7.157003],[111.848184,-7.157007],[111.848188,-7.157009],[111.848197,-7.157013],[111.8482,-7.157015],[111.848209,-7.157019],[111.848213,-7.157021],[111.848221,-7.157025],[111.848225,-7.157027],[111.848234,-7.157032],[111.848237,-7.157034],[111.848246,-7.157039],[111.848249,-7.157041],[111.848258,-7.157045],[111.848261,-7.157047],[111.84827,-7.157053],[111.848273,-7.157055],[111.848281,-7.15706],[111.848285,-7.157062],[111.848293,-7.157067],[111.848296,-7.15707],[111.848304,-7.157075],[111.848307,-7.157077],[111.848316,-7.157083],[111.848319,-7.157085],[111.848327,-7.157091],[111.84833,-7.157094],[111.848338,-7.1571],[111.848341,-7.157102],[111.848349,-7.157108],[111.848352,-7.15711],[111.848359,-7.157117],[111.848362,-7.157119],[111.84837,-7.157126],[111.848373,-7.157128],[111.84838,-7.157135],[111.848383,-7.157137],[111.848391,-7.157144],[111.848393,-7.157147],[111.848401,-7.157153],[111.848404,-7.157156],[111.848411,-7.157163],[111.848413,-7.157166],[111.84842,-7.157173],[111.848423,-7.157175],[111.84843,-7.157183],[111.848433,-7.157185],[111.848439,-7.157193],[111.848442,-7.157196],[111.848449,-7.157203],[111.848451,-7.157206],[111.848458,-7.157213],[111.84846,-7.157216],[111.848467,-7.157224],[111.848469,-7.157227],[111.848475,-7.157235],[111.848478,-7.157238],[111.848484,-7.157245],[111.848486,-7.157249],[111.848492,-7.157256],[111.848494,-7.15726],[111.8485,-7.157268],[111.848503,-7.157271],[111.848508,-7.157279],[111.84851,-7.157282],[111.848516,-7.15729],[111.848518,-7.157294],[111.848523,-7.157302],[111.848526,-7.157305],[111.848531,-7.157314],[111.848533,-7.157317],[111.848538,-7.157325],[111.84854,-7.157329],[111.848545,-7.157337],[111.848547,-7.157341],[111.848552,-7.157349],[111.848553,-7.157353],[111.848558,-7.157362],[111.84856,-7.157365],[111.848564,-7.157374],[111.848566,-7.157377],[111.84857,-7.157386],[111.848572,-7.15739],[111.848576,-7.157399],[111.848578,-7.157402],[111.848582,-7.157411],[111.848583,-7.157415],[111.848587,-7.157424],[111.848589,-7.157428],[111.848593,-7.157437],[111.848594,-7.15744],[111.848598,-7.15745],[111.848599,-7.157453],[111.848602,-7.157463],[111.848604,-7.157466],[111.848607,-7.157476],[111.848608,-7.157479],[111.848611,-7.157489],[111.848612,-7.157492],[111.848615,-7.157502],[111.848616,-7.157506],[111.848619,-7.157515],[111.84862,-7.157519],[111.848623,-7.157528],[111.848624,-7.157532],[111.848626,-7.157542],[111.848627,-7.157546],[111.848629,-7.157555],[111.84863,-7.157559],[111.848632,-7.157569],[111.848633,-7.157573],[111.848635,-7.157582],[111.848635,-7.157586],[111.848637,-7.157596],[111.848638,-7.1576],[111.848639,-7.157609],[111.84864,-7.157613],[111.848641,-7.157623],[111.848642,-7.157627],[111.848643,-7.157637],[111.848644,-7.157641],[111.848645,-7.157651],[111.848645,-7.157654],[111.848646,-7.157664],[111.848646,-7.157668],[111.848647,-7.157678],[111.848647,-7.157682],[111.848648,-7.157692],[111.848648,-7.157696],[111.848648,-7.157706],[111.848648,-7.15771],[111.848648,-7.157719],[111.848649,-7.157723],[111.848649,-7.157733],[111.848648,-7.157737],[111.848648,-7.157747],[111.848648,-7.157751],[111.848648,-7.157761],[111.848648,-7.157765],[111.848647,-7.157775],[111.848647,-7.157778],[111.848646,-7.157788],[111.848646,-7.157792],[111.848645,-7.157802],[111.848645,-7.157806],[111.848644,-7.157816],[111.848643,-7.15782],[111.848642,-7.157829],[111.848642,-7.157833],[111.84864,-7.157843],[111.84864,-7.157847],[111.848638,-7.157857],[111.848638,-7.157861],[111.848636,-7.15787],[111.848635,-7.157874],[111.848633,-7.157884],[111.848633,-7.157888],[111.848631,-7.157897],[111.84863,-7.157901],[111.848628,-7.157911],[111.848627,-7.157915],[111.848624,-7.157924],[111.848623,-7.157928],[111.848621,-7.157938],[111.84862,-7.157941],[111.848617,-7.157951],[111.848616,-7.157955],[111.848613,-7.157964],[111.848612,-7.157968],[111.848609,-7.157977],[111.848608,-7.157981],[111.848604,-7.15799],[111.848603,-7.157994],[111.8486,-7.158003],[111.848598,-7.158007],[111.848595,-7.158016],[111.848594,-7.15802],[111.84859,-7.158029],[111.848588,-7.158033],[111.848587,-7.158035],[111.84858,-7.158051],[111.848569,-7.158072],[111.848567,-7.158075],[111.848553,-7.158101],[111.848552,-7.158105],[111.848537,-7.158131],[111.848535,-7.158134],[111.84852,-7.15816],[111.848518,-7.158163],[111.848503,-7.158188],[111.848501,-7.158192],[111.848485,-7.158217],[111.848483,-7.15822],[111.848467,-7.158245],[111.848464,-7.158248],[111.848448,-7.158273],[111.848445,-7.158276],[111.848428,-7.1583],[111.848426,-7.158303],[111.848409,-7.158327],[111.848406,-7.15833],[111.848388,-7.158354],[111.848388,-7.158354],[111.8483,-7.158465],[111.848213,-7.158578],[111.848113,-7.158709],[111.848495,-7.159006],[111.848669,-7.159142],[111.84905,-7.159383],[111.849355,-7.15958],[111.849642,-7.159771],[111.849672,-7.159791],[111.849727,-7.159829],[111.84989,-7.159944],[111.850112,-7.1601],[111.850193,-7.160156],[111.850272,-7.160211],[111.850383,-7.160284],[111.85066,-7.160466],[111.850864,-7.160601],[111.851275,-7.16087],[111.851518,-7.161032],[111.851466,-7.161109],[111.851404,-7.161068],[111.85124,-7.16098],[111.851057,-7.160888],[111.851005,-7.160861],[111.85095,-7.160832],[111.850886,-7.160796],[111.850854,-7.160777],[111.850815,-7.160753],[111.850753,-7.160712],[111.850413,-7.160488],[111.85031,-7.160427],[111.85024,-7.160384],[111.850204,-7.160362],[111.850116,-7.160303],[111.849994,-7.160217],[111.849627,-7.159959],[111.849618,-7.159953],[111.849252,-7.159709],[111.849245,-7.159704],[111.848869,-7.159462],[111.848868,-7.159462],[111.848778,-7.159404],[111.848772,-7.1594],[111.848683,-7.159346],[111.848677,-7.159342],[111.848588,-7.159289],[111.848581,-7.159285],[111.848496,-7.159236],[111.848473,-7.159224],[111.848471,-7.159223],[111.848464,-7.159219],[111.848461,-7.159218],[111.848454,-7.159215],[111.84845,-7.159213],[111.848443,-7.15921],[111.84844,-7.159208],[111.848433,-7.159205],[111.848429,-7.159204],[111.848422,-7.159201],[111.848419,-7.1592],[111.848412,-7.159197],[111.848408,-7.159196],[111.848401,-7.159193],[111.848397,-7.159192],[111.84839,-7.159189],[111.848387,-7.159188],[111.848379,-7.159186],[111.848376,-7.159184],[111.848368,-7.159182],[111.848365,-7.159181],[111.848357,-7.159179],[111.848354,-7.159178],[111.848346,-7.159176],[111.848343,-7.159175],[111.848335,-7.159173],[111.848332,-7.159172],[111.848324,-7.15917],[111.848321,-7.159169],[111.848313,-7.159168],[111.84831,-7.159167],[111.848302,-7.159165],[111.848298,-7.159165],[111.848291,-7.159163],[111.848287,-7.159163],[111.84828,-7.159161],[111.848276,-7.159161],[111.848268,-7.15916],[111.848265,-7.159159],[111.848257,-7.159158],[111.848253,-7.159158],[111.848246,-7.159157],[111.848242,-7.159156],[111.848234,-7.159156],[111.848231,-7.159155],[111.848223,-7.159155],[111.848219,-7.159155],[111.848211,-7.159154],[111.848208,-7.159154],[111.8482,-7.159153],[111.848196,-7.159153],[111.848189,-7.159153],[111.848185,-7.159153],[111.848177,-7.159153],[111.848174,-7.159153],[111.848166,-7.159153],[111.848162,-7.159153],[111.848154,-7.159153],[111.848151,-7.159153],[111.848143,-7.159154],[111.848139,-7.159154],[111.848132,-7.159154],[111.848128,-7.159154],[111.84812,-7.159155],[111.848117,-7.159155],[111.848109,-7.159156],[111.848105,-7.159156],[111.848098,-7.159157],[111.848095,-7.159157],[111.848085,-7.159159],[111.848083,-7.159159],[111.848075,-7.15916],[111.848071,-7.159161],[111.848064,-7.159162],[111.84806,-7.159163],[111.848053,-7.159164],[111.848049,-7.159165],[111.848041,-7.159166],[111.848038,-7.159167],[111.84803,-7.159169],[111.848027,-7.159169],[111.848019,-7.159171],[111.848016,-7.159172],[111.848008,-7.159174],[111.848005,-7.159175],[111.847997,-7.159177],[111.847994,-7.159178],[111.847986,-7.15918],[111.847983,-7.159181],[111.847975,-7.159183],[111.847972,-7.159184],[111.847965,-7.159187],[111.847961,-7.159188],[111.847954,-7.159191],[111.847951,-7.159192],[111.847943,-7.159194],[111.84794,-7.159196],[111.847933,-7.159199],[111.847929,-7.1592],[111.847922,-7.159203],[111.847919,-7.159204],[111.847912,-7.159207],[111.847909,-7.159209],[111.847901,-7.159212],[111.847898,-7.159213],[111.847891,-7.159217],[111.847888,-7.159218],[111.847881,-7.159222],[111.847878,-7.159223],[111.847871,-7.159227],[111.847868,-7.159228],[111.847861,-7.159232],[111.847858,-7.159234],[111.847851,-7.159238],[111.847848,-7.159239],[111.847841,-7.159243],[111.847838,-7.159245],[111.847831,-7.159249],[111.847828,-7.159251],[111.847822,-7.159255],[111.847819,-7.159257],[111.847812,-7.159261],[111.847809,-7.159263],[111.847803,-7.159268],[111.8478,-7.15927],[111.847793,-7.159274],[111.847791,-7.159276],[111.847784,-7.159281],[111.847781,-7.159283],[111.847775,-7.159288],[111.847772,-7.15929],[111.847766,-7.159295],[111.847764,-7.159296],[111.847704,-7.159347],[111.847588,-7.159476],[111.847527,-7.159547],[111.847295,-7.159845],[111.847227,-7.159934],[111.847192,-7.159978],[111.84717,-7.160009],[111.84715,-7.160034],[111.847135,-7.160054],[111.84712,-7.160073],[111.847107,-7.160091],[111.847094,-7.160107],[111.847083,-7.160122],[111.847072,-7.160136],[111.847062,-7.16015],[111.847051,-7.160164],[111.847041,-7.160177],[111.847032,-7.16019],[111.847022,-7.160202],[111.847013,-7.160215],[111.847004,-7.160226],[111.846995,-7.160238],[111.846986,-7.16025],[111.846978,-7.160262],[111.846969,-7.160273],[111.84696,-7.160285],[111.846951,-7.160297],[111.846942,-7.160309],[111.846933,-7.160321],[111.846924,-7.160332],[111.846916,-7.160344],[111.846907,-7.160356],[111.846898,-7.160368],[111.846889,-7.16038],[111.84688,-7.160391],[111.846871,-7.160403],[111.846863,-7.160415],[111.846854,-7.160427],[111.846845,-7.160439],[111.846836,-7.16045],[111.846827,-7.160462],[111.846819,-7.160474],[111.84681,-7.160486],[111.846801,-7.160498],[111.846792,-7.16051],[111.846783,-7.160521],[111.846775,-7.160533],[111.846766,-7.160545],[111.846757,-7.160557],[111.846748,-7.160569],[111.84674,-7.160581],[111.846731,-7.160593],[111.846722,-7.160604],[111.846713,-7.160616],[111.846704,-7.160628],[111.846696,-7.16064],[111.846687,-7.160652],[111.846678,-7.160664],[111.84667,-7.160676],[111.846661,-7.160688],[111.846652,-7.160699],[111.846643,-7.160711],[111.846635,-7.160723],[111.846626,-7.160735],[111.846617,-7.160747],[111.846608,-7.160759],[111.8466,-7.160771],[111.846591,-7.160783],[111.846582,-7.160795],[111.846574,-7.160807],[111.846565,-7.160818],[111.846556,-7.16083],[111.846548,-7.160842],[111.846539,-7.160854],[111.84653,-7.160866],[111.846522,-7.160878],[111.846513,-7.16089],[111.846504,-7.160902],[111.846496,-7.160914],[111.846487,-7.160926],[111.846478,-7.160938],[111.84647,-7.16095],[111.846461,-7.160962],[111.846452,-7.160974],[111.846444,-7.160986],[111.846435,-7.160998],[111.846427,-7.161009],[111.846418,-7.161021],[111.846409,-7.161033],[111.846401,-7.161045],[111.846392,-7.161057],[111.846383,-7.161069],[111.846375,-7.161081],[111.846366,-7.161093],[111.846358,-7.161105],[111.846349,-7.161117],[111.84634,-7.161129],[111.846332,-7.161141],[111.846323,-7.161153],[111.846315,-7.161165],[111.846306,-7.161177],[111.846298,-7.161189],[111.846289,-7.161201],[111.84628,-7.161213],[111.846272,-7.161225],[111.846263,-7.161237],[111.846255,-7.161249],[111.846246,-7.161261],[111.846238,-7.161273],[111.846229,-7.161285],[111.846221,-7.161297],[111.846212,-7.161309],[111.846204,-7.161321],[111.846195,-7.161333],[111.846187,-7.161345],[111.846178,-7.161358],[111.84617,-7.16137],[111.846161,-7.161382],[111.846153,-7.161394],[111.846144,-7.161406],[111.846136,-7.161418],[111.846127,-7.16143],[111.846119,-7.161442],[111.84611,-7.161454],[111.846102,-7.161466],[111.846093,-7.161478],[111.846085,-7.16149],[111.846076,-7.161502],[111.846068,-7.161514],[111.846059,-7.161526],[111.846051,-7.161538],[111.846042,-7.161551],[111.846034,-7.161563],[111.846026,-7.161575],[111.846017,-7.161587],[111.846009,-7.161599],[111.846,-7.161611],[111.845992,-7.161623],[111.845983,-7.161635],[111.845975,-7.161647],[111.845967,-7.161659],[111.845958,-7.161672],[111.84595,-7.161684],[111.845941,-7.161696],[111.845933,-7.161708],[111.845925,-7.16172],[111.845916,-7.161732],[111.845908,-7.161744],[111.845899,-7.161756],[111.845891,-7.161769],[111.845883,-7.161781],[111.845874,-7.161793],[111.845866,-7.161805],[111.845858,-7.161817],[111.845849,-7.161829],[111.845841,-7.161841],[111.845832,-7.161854],[111.845824,-7.161866],[111.845816,-7.161878],[111.845807,-7.16189],[111.845799,-7.161902],[111.845791,-7.161914],[111.845782,-7.161927],[111.845774,-7.161939],[111.845766,-7.161951],[111.845757,-7.161963],[111.845749,-7.161975],[111.845741,-7.161987],[111.845733,-7.162],[111.845724,-7.162012],[111.845716,-7.162024],[111.845708,-7.162036],[111.845699,-7.162048],[111.845691,-7.162061],[111.845683,-7.162073],[111.845675,-7.162085],[111.845666,-7.162097],[111.845658,-7.162109],[111.84565,-7.162122],[111.845642,-7.162134],[111.845633,-7.162146],[111.845625,-7.162158],[111.845617,-7.162171],[111.845609,-7.162183],[111.8456,-7.162195],[111.845592,-7.162207],[111.845584,-7.162219],[111.845576,-7.162232],[111.845567,-7.162244],[111.845559,-7.162256],[111.845551,-7.162268],[111.845543,-7.162281],[111.845535,-7.162293],[111.845526,-7.162305],[111.845518,-7.162317],[111.84551,-7.16233],[111.845502,-7.162342],[111.845494,-7.162354],[111.845485,-7.162366],[111.845477,-7.162379],[111.845469,-7.162391],[111.845461,-7.162403],[111.845453,-7.162416],[111.845444,-7.162428],[111.845436,-7.16244],[111.845428,-7.162452],[111.84542,-7.162465],[111.845412,-7.162477],[111.845404,-7.162489],[111.845396,-7.162502],[111.845387,-7.162514],[111.845379,-7.162526],[111.845371,-7.162538],[111.845363,-7.162551],[111.845355,-7.162563],[111.845347,-7.162575],[111.845339,-7.162588],[111.845331,-7.1626],[111.845323,-7.162612],[111.845314,-7.162625],[111.845306,-7.162637],[111.845298,-7.162649],[111.84529,-7.162662],[111.845282,-7.162674],[111.845274,-7.162686],[111.845266,-7.162699],[111.845258,-7.162711],[111.84525,-7.162723],[111.845242,-7.162736],[111.845234,-7.162748],[111.845226,-7.16276],[111.845218,-7.162773],[111.84521,-7.162785],[111.845202,-7.162797],[111.845193,-7.16281],[111.845185,-7.162822],[111.845177,-7.162835],[111.845169,-7.162847],[111.845161,-7.162859],[111.845153,-7.162872],[111.845145,-7.162884],[111.845137,-7.162896],[111.845129,-7.162909],[111.845121,-7.162921],[111.845113,-7.162934],[111.845105,-7.162946],[111.845097,-7.16296],[111.845088,-7.162973],[111.845079,-7.162987],[111.84507,-7.163001],[111.84506,-7.163016],[111.845051,-7.163031],[111.845041,-7.163047],[111.84503,-7.163064],[111.845018,-7.163082],[111.845005,-7.163103],[111.844991,-7.163124],[111.844974,-7.163151],[111.844953,-7.163183],[111.844866,-7.16332],[111.84486,-7.163329],[111.8434,-7.165644],[111.843395,-7.165651],[111.843046,-7.166229],[111.843038,-7.166244],[111.842711,-7.166835],[111.842707,-7.166843],[111.841979,-7.168219],[111.841974,-7.16823],[111.841554,-7.169078],[111.841544,-7.1691],[111.841173,-7.169963],[111.841164,-7.169986],[111.840841,-7.170867],[111.840833,-7.17089],[111.840555,-7.171794],[111.840551,-7.171806],[111.838263,-7.180026],[111.838262,-7.180032],[111.837612,-7.18216],[111.83761,-7.182165],[111.834259,-7.192252],[111.834254,-7.192267],[111.834087,-7.192835],[111.83408,-7.192865],[111.833954,-7.193435],[111.833948,-7.193466],[111.833862,-7.194043],[111.833858,-7.194074],[111.833812,-7.194656],[111.833811,-7.194687],[111.833804,-7.195271],[111.833805,-7.195302],[111.833839,-7.195885],[111.833842,-7.195916],[111.833917,-7.196495],[111.833922,-7.196525],[111.834036,-7.197098],[111.834043,-7.197128],[111.834196,-7.197692],[111.834205,-7.197721],[111.834397,-7.198273],[111.834408,-7.198302],[111.834637,-7.198839],[111.834651,-7.198867],[111.834916,-7.199387],[111.834931,-7.199414],[111.835232,-7.199915],[111.835249,-7.199941],[111.835584,-7.200419],[111.835603,-7.200444],[111.83597,-7.200899],[111.83599,-7.200922],[111.836387,-7.20135],[111.836409,-7.201373],[111.836835,-7.201772],[111.836859,-7.201793],[111.837311,-7.202162],[111.837336,-7.202181],[111.837813,-7.202519],[111.837839,-7.202536],[111.838338,-7.20284],[111.838365,-7.202855],[111.838884,-7.203124],[111.838912,-7.203138],[111.839448,-7.20337],[111.839477,-7.203382],[111.840028,-7.203577],[111.840058,-7.203586],[111.840621,-7.203743],[111.840651,-7.203751],[111.841224,-7.203868],[111.841254,-7.203874],[111.841834,-7.203952],[111.841865,-7.203955],[111.842448,-7.203993],[111.842479,-7.203994],[111.843071,-7.203992],[111.843087,-7.203992],[111.84722,-7.203835],[111.847225,-7.203835],[111.848158,-7.203824],[111.848169,-7.203824],[111.849098,-7.203861],[111.84911,-7.203862],[111.850038,-7.203946],[111.850044,-7.203947],[111.864423,-7.205634],[111.8719,-7.206547],[111.871907,-7.206548],[111.872488,-7.206638],[111.872503,-7.206641],[111.873073,-7.206768],[111.873088,-7.206772],[111.873648,-7.206936],[111.873662,-7.206941],[111.874211,-7.207141],[111.874225,-7.207146],[111.87476,-7.207382],[111.874773,-7.207388],[111.875291,-7.207658],[111.875304,-7.207666],[111.875803,-7.207969],[111.875815,-7.207977],[111.876294,-7.208312],[111.876306,-7.208321],[111.876761,-7.208686],[111.876772,-7.208696],[111.877203,-7.20909],[111.877214,-7.2091],[111.87762,-7.209525],[111.877625,-7.20953],[111.879481,-7.211598],[111.879492,-7.21161],[111.879905,-7.212039],[111.879928,-7.212061],[111.880364,-7.212456],[111.880388,-7.212476],[111.880851,-7.21284],[111.880876,-7.212858],[111.881363,-7.213189],[111.88139,-7.213206],[111.881898,-7.213502],[111.881926,-7.213517],[111.882454,-7.213777],[111.882482,-7.21379],[111.883027,-7.214013],[111.883057,-7.214024],[111.883616,-7.214208],[111.883646,-7.214217],[111.884216,-7.214363],[111.884247,-7.214369],[111.884826,-7.214475],[111.884857,-7.21448],[111.885442,-7.214545],[111.885473,-7.214548],[111.886062,-7.214572],[111.886093,-7.214573],[111.886689,-7.214556],[111.886705,-7.214556],[111.925285,-7.212162],[111.925298,-7.212161],[111.927789,-7.211937],[111.927802,-7.211935],[111.931166,-7.211538],[111.931177,-7.211537],[111.932414,-7.211361],[111.932434,-7.211358],[111.933662,-7.211124],[111.933672,-7.211122],[111.93686,-7.210439],[111.936875,-7.210436],[111.937332,-7.210321],[111.937362,-7.210313],[111.937803,-7.210169],[111.937832,-7.210158],[111.938262,-7.209985],[111.938291,-7.209972],[111.938707,-7.209769],[111.938735,-7.209754],[111.939136,-7.209522],[111.939162,-7.209506],[111.939547,-7.209247],[111.939572,-7.209229],[111.939937,-7.208944],[111.939961,-7.208924],[111.940306,-7.208615],[111.940329,-7.208593],[111.940651,-7.20826],[111.940672,-7.208237],[111.94097,-7.207883],[111.94099,-7.207858],[111.941263,-7.207485],[111.941281,-7.207459],[111.941527,-7.207067],[111.941543,-7.20704],[111.941762,-7.206632],[111.941776,-7.206604],[111.941965,-7.206182],[111.941977,-7.206153],[111.942137,-7.205718],[111.942147,-7.205688],[111.942277,-7.205244],[111.942284,-7.205214],[111.942383,-7.204762],[111.942388,-7.204731],[111.942456,-7.204265],[111.942458,-7.204249],[111.942592,-7.203039],[111.942593,-7.203026],[111.942633,-7.202522],[111.942635,-7.202495],[111.942645,-7.201997],[111.942645,-7.20197],[111.942626,-7.201472],[111.942625,-7.201445],[111.942577,-7.200949],[111.942573,-7.200922],[111.942496,-7.20043],[111.942491,-7.200404],[111.942384,-7.19991],[111.942381,-7.199897],[111.941891,-7.197929],[111.941762,-7.197462],[111.941761,-7.197459],[111.941759,-7.197452],[111.941759,-7.197448],[111.941756,-7.197441],[111.941756,-7.197438],[111.941753,-7.19743],[111.941752,-7.197427],[111.94175,-7.19742],[111.941749,-7.197417],[111.941746,-7.197409],[111.941745,-7.197406],[111.941743,-7.197399],[111.941742,-7.197396],[111.941739,-7.197388],[111.941738,-7.197385],[111.941735,-7.197378],[111.941734,-7.197375],[111.941731,-7.197368],[111.941729,-7.197365],[111.941726,-7.197358],[111.941725,-7.197355],[111.941721,-7.197348],[111.94172,-7.197345],[111.941717,-7.197338],[111.941715,-7.197335],[111.941712,-7.197328],[111.94171,-7.197325],[111.941707,-7.197318],[111.941705,-7.197315],[111.941701,-7.197308],[111.9417,-7.197305],[111.941696,-7.197299],[111.941694,-7.197296],[111.94169,-7.197289],[111.941689,-7.197286],[111.941684,-7.19728],[111.941683,-7.197277],[111.941679,-7.19727],[111.941677,-7.197268],[111.941672,-7.197261],[111.941671,-7.197258],[111.941666,-7.197252],[111.941664,-7.197249],[111.94166,-7.197243],[111.941658,-7.19724],[111.941653,-7.197234],[111.941651,-7.197232],[111.941646,-7.197225],[111.941644,-7.197223],[111.941639,-7.197217],[111.941637,-7.197214],[111.941632,-7.197208],[111.94163,-7.197206],[111.941625,-7.1972],[111.941623,-7.197197],[111.941618,-7.197191],[111.941616,-7.197189],[111.94161,-7.197183],[111.941608,-7.197181],[111.941603,-7.197175],[111.941601,-7.197173],[111.941595,-7.197167],[111.941593,-7.197165],[111.941587,-7.197159],[111.941585,-7.197157],[111.941579,-7.197152],[111.941577,-7.19715],[111.941571,-7.197144],[111.94157,-7.197144],[111.941538,-7.197118],[111.941537,-7.197117],[111.941531,-7.197112],[111.941529,-7.197111],[111.941523,-7.197106],[111.941521,-7.197105],[111.941515,-7.197101],[111.941513,-7.1971],[111.941506,-7.197096],[111.941505,-7.197094],[111.941498,-7.19709],[111.941497,-7.197089],[111.94149,-7.197085],[111.941488,-7.197084],[111.941481,-7.19708],[111.94148,-7.197079],[111.941473,-7.197075],[111.941471,-7.197075],[111.941464,-7.197071],[111.941462,-7.19707],[111.941455,-7.197066],[111.941454,-7.197065],[111.941447,-7.197062],[111.941445,-7.197061],[111.941438,-7.197058],[111.941436,-7.197057],[111.941429,-7.197054],[111.941427,-7.197053],[111.94142,-7.19705],[111.941418,-7.197049],[111.941411,-7.197046],[111.941409,-7.197045],[111.941402,-7.197043],[111.9414,-7.197042],[111.941392,-7.197039],[111.941391,-7.197039],[111.941383,-7.197036],[111.941381,-7.197035],[111.941374,-7.197033],[111.941372,-7.197032],[111.941365,-7.19703],[111.941363,-7.197029],[111.941355,-7.197027],[111.941353,-7.197027],[111.941346,-7.197025],[111.941344,-7.197024],[111.941336,-7.197022],[111.941334,-7.197022],[111.941327,-7.19702],[111.941325,-7.197019],[111.941317,-7.197018],[111.941315,-7.197017],[111.941307,-7.197016],[111.941306,-7.197015],[111.941298,-7.197014],[111.941296,-7.197014],[111.941288,-7.197012],[111.941286,-7.197012],[111.941278,-7.197011],[111.941277,-7.197011],[111.941269,-7.19701],[111.941267,-7.19701],[111.941259,-7.197009],[111.941257,-7.197009],[111.94124,-7.197006],[111.941238,-7.197006],[111.941222,-7.197005],[111.941222,-7.197005],[111.941208,-7.197007],[111.94116,-7.197017],[111.941044,-7.197043],[111.940904,-7.197078],[111.939806,-7.197448],[111.939199,-7.197684],[111.938138,-7.198148],[111.93809,-7.198168],[111.93799,-7.198204],[111.937486,-7.198366],[111.937442,-7.198277],[111.938937,-7.197608],[111.939048,-7.197559],[111.939244,-7.197475],[111.939432,-7.197395],[111.939435,-7.197394],[111.939601,-7.197326],[111.939603,-7.197325],[111.939838,-7.197232],[111.939841,-7.197231],[111.940008,-7.197167],[111.940011,-7.197165],[111.940171,-7.197107],[111.940176,-7.197105],[111.940221,-7.197089],[111.940361,-7.197029],[111.940602,-7.196931],[111.940726,-7.196882],[111.940796,-7.196856],[111.940915,-7.196816],[111.940986,-7.196794],[111.941043,-7.196779],[111.941078,-7.196769],[111.941185,-7.196741],[111.941296,-7.196711],[111.941518,-7.196655],[111.941617,-7.196631],[111.941576,-7.19647],[111.941545,-7.196346],[111.941508,-7.1962],[111.941503,-7.19618],[111.941503,-7.196177],[111.9415,-7.196162],[111.941499,-7.196159],[111.941496,-7.196144],[111.941495,-7.19614],[111.941492,-7.196125],[111.941492,-7.196122],[111.941489,-7.196107],[111.941489,-7.196103],[111.941487,-7.196089],[111.941486,-7.196084],[111.941482,-7.196057],[111.941482,-7.196056],[111.941479,-7.19603],[111.941478,-7.196026],[111.941476,-7.196001],[111.941475,-7.195997],[111.941473,-7.195971],[111.941473,-7.195968],[111.941471,-7.195942],[111.941471,-7.195938],[111.941469,-7.195913],[111.941469,-7.195909],[111.941469,-7.195891],[111.941469,-7.195871],[111.941469,-7.195871],[111.941469,-7.195867],[111.94147,-7.195859],[111.94147,-7.195855],[111.941471,-7.195846],[111.941471,-7.195842],[111.941472,-7.195834],[111.941472,-7.19583],[111.941473,-7.195822],[111.941474,-7.195818],[111.941475,-7.19581],[111.941475,-7.195806],[111.941477,-7.195798],[111.941477,-7.195794],[111.941479,-7.195786],[111.94148,-7.195782],[111.941481,-7.195774],[111.941482,-7.19577],[111.941484,-7.195762],[111.941485,-7.195758],[111.941486,-7.19575],[111.941487,-7.195746],[111.941489,-7.195738],[111.94149,-7.195734],[111.941492,-7.195726],[111.941493,-7.195722],[111.941496,-7.195714],[111.941497,-7.19571],[111.941499,-7.195702],[111.9415,-7.195698],[111.941503,-7.195691],[111.941504,-7.195687],[111.941507,-7.195679],[111.941508,-7.195675],[111.941511,-7.195667],[111.941512,-7.195664],[111.941515,-7.195656],[111.941517,-7.195652],[111.94152,-7.195644],[111.941522,-7.195641],[111.941525,-7.195633],[111.941526,-7.19563],[111.94153,-7.195622],[111.941531,-7.195618],[111.941535,-7.195611],[111.941537,-7.195607],[111.94154,-7.1956],[111.941542,-7.195596],[111.941546,-7.195589],[111.941548,-7.195585],[111.941551,-7.195578],[111.941553,-7.195574],[111.941557,-7.195567],[111.941559,-7.195564],[111.941563,-7.195556],[111.941565,-7.195553],[111.94157,-7.195546],[111.941572,-7.195543],[111.941576,-7.195536],[111.941578,-7.195532],[111.941583,-7.195525],[111.941585,-7.195522],[111.94159,-7.195515],[111.941592,-7.195512],[111.941597,-7.195505],[111.941599,-7.195502],[111.941604,-7.195495],[111.941606,-7.195492],[111.941611,-7.195485],[111.941613,-7.195482],[111.941619,-7.195475],[111.941621,-7.195472],[111.941626,-7.195466],[111.941629,-7.195463],[111.941634,-7.195456],[111.941637,-7.195453],[111.941642,-7.195447],[111.941645,-7.195444],[111.94165,-7.195438],[111.941653,-7.195435],[111.941659,-7.195429],[111.941661,-7.195426],[111.941667,-7.19542],[111.94167,-7.195417],[111.941676,-7.195411],[111.941679,-7.195409],[111.941685,-7.195403],[111.941687,-7.1954],[111.941693,-7.195394],[111.941696,-7.195392],[111.941703,-7.195386],[111.941706,-7.195383],[111.941712,-7.195378],[111.941715,-7.195375],[111.941721,-7.19537],[111.941724,-7.195367],[111.941731,-7.195362],[111.941734,-7.19536],[111.94174,-7.195355],[111.941743,-7.195352],[111.94175,-7.195347],[111.941753,-7.195345],[111.94176,-7.19534],[111.941763,-7.195338],[111.94177,-7.195333],[111.941773,-7.195331],[111.94178,-7.195326],[111.941783,-7.195324],[111.94179,-7.195319],[111.941794,-7.195317],[111.941801,-7.195313],[111.941804,-7.195311],[111.941811,-7.195306],[111.941815,-7.195304],[111.941822,-7.1953],[111.941825,-7.195298],[111.941833,-7.195294],[111.941836,-7.195292],[111.941843,-7.195288],[111.941847,-7.195286],[111.941854,-7.195283],[111.941858,-7.195281],[111.941865,-7.195277],[111.941869,-7.195275],[111.941876,-7.195272],[111.94188,-7.19527],[111.941888,-7.195267],[111.941891,-7.195265],[111.941899,-7.195262],[111.941903,-7.19526],[111.94191,-7.195257],[111.941914,-7.195256],[111.941922,-7.195253],[111.941925,-7.195251],[111.941933,-7.195248],[111.941937,-7.195247],[111.941945,-7.195244],[111.941949,-7.195243],[111.941956,-7.195241],[111.94196,-7.195239],[111.941968,-7.195237],[111.941972,-7.195236],[111.94198,-7.195233],[111.941984,-7.195232],[111.941992,-7.19523],[111.941996,-7.195229],[111.942004,-7.195227],[111.942008,-7.195226],[111.942016,-7.195224],[111.94202,-7.195223],[111.942028,-7.195222],[111.942032,-7.195221],[111.94204,-7.195219],[111.942044,-7.195219],[111.942052,-7.195217],[111.942056,-7.195216],[111.942064,-7.195215],[111.942068,-7.195214],[111.942076,-7.195213],[111.94208,-7.195213],[111.942088,-7.195212],[111.942092,-7.195211],[111.942096,-7.195211],[111.942109,-7.19521],[111.942116,-7.195209],[111.94212,-7.195209],[111.942132,-7.195209],[111.942136,-7.195209],[111.942148,-7.195208],[111.942152,-7.195208],[111.942164,-7.195208],[111.942168,-7.195209],[111.94218,-7.195209],[111.942184,-7.195209],[111.942196,-7.195209],[111.9422,-7.195209],[111.942212,-7.19521],[111.942216,-7.19521],[111.942228,-7.195211],[111.942232,-7.195211],[111.942244,-7.195212],[111.942248,-7.195213],[111.942259,-7.195214],[111.942263,-7.195215],[111.942275,-7.195216],[111.942279,-7.195216],[111.942291,-7.195218],[111.942295,-7.195219],[111.942307,-7.195221],[111.942311,-7.195221],[111.942323,-7.195223],[111.942326,-7.195224],[111.942338,-7.195226],[111.942342,-7.195227],[111.942354,-7.19523],[111.942358,-7.19523],[111.942369,-7.195233],[111.942373,-7.195234],[111.942385,-7.195237],[111.942389,-7.195238],[111.9424,-7.195241],[111.942404,-7.195242],[111.942415,-7.195245],[111.942419,-7.195246],[111.942431,-7.19525],[111.942434,-7.195251],[111.942446,-7.195255],[111.94245,-7.195256],[111.942461,-7.19526],[111.942465,-7.195261],[111.942476,-7.195265],[111.94248,-7.195267],[111.942491,-7.195271],[111.942495,-7.195272],[111.942506,-7.195277],[111.942509,-7.195278],[111.94252,-7.195283],[111.942524,-7.195284],[111.942537,-7.19529],[111.942537,-7.19529],[111.942572,-7.195304],[111.942977,-7.195444],[111.942981,-7.195445],[111.943036,-7.195464],[111.943043,-7.195466],[111.943097,-7.195483],[111.943104,-7.195485],[111.943158,-7.195502],[111.943165,-7.195504],[111.94322,-7.195519],[111.943226,-7.195521],[111.943281,-7.195536],[111.943288,-7.195537],[111.943343,-7.195551],[111.94335,-7.195553],[111.943407,-7.195566],[111.943411,-7.195567],[111.943842,-7.195677],[111.943851,-7.195679],[111.943905,-7.195691],[111.943912,-7.195693],[111.943967,-7.195705],[111.943974,-7.195706],[111.94403,-7.195717],[111.944037,-7.195719],[111.944092,-7.195729],[111.944099,-7.19573],[111.944155,-7.195739],[111.944162,-7.195741],[111.944218,-7.195749],[111.944225,-7.19575],[111.94428,-7.195758],[111.944288,-7.195758],[111.944344,-7.195765],[111.944351,-7.195766],[111.944407,-7.195772],[111.944414,-7.195772],[111.94447,-7.195777],[111.944477,-7.195778],[111.944534,-7.195782],[111.944541,-7.195782],[111.944597,-7.195785],[111.944604,-7.195786],[111.94466,-7.195788],[111.944668,-7.195788],[111.944724,-7.195789],[111.944731,-7.195789],[111.944788,-7.19579],[111.944795,-7.19579],[111.944851,-7.195789],[111.944858,-7.195789],[111.944915,-7.195788],[111.944922,-7.195788],[111.944978,-7.195785],[111.944985,-7.195785],[111.945042,-7.195782],[111.945049,-7.195781],[111.945105,-7.195777],[111.945112,-7.195777],[111.945167,-7.195772],[111.945176,-7.195771],[111.945242,-7.195764],[111.945249,-7.195763],[111.945316,-7.195755],[111.945323,-7.195754],[111.94539,-7.195745],[111.945397,-7.195743],[111.945463,-7.195733],[111.94547,-7.195732],[111.945537,-7.19572],[111.945544,-7.195719],[111.945612,-7.195706],[111.945835,-7.195666],[111.94606,-7.195627],[111.946503,-7.195551],[111.94651,-7.19555],[111.946573,-7.195538],[111.946577,-7.195537],[111.946641,-7.195526],[111.946645,-7.195526],[111.94671,-7.195516],[111.946714,-7.195515],[111.94693,-7.195481],[111.94709,-7.195466],[111.947355,-7.195451],[111.947434,-7.195446],[111.947538,-7.195438],[111.94762,-7.195432],[111.947686,-7.195429],[111.948181,-7.195346],[111.948194,-7.195436],[111.947781,-7.195507],[111.947631,-7.195532],[111.947358,-7.195578],[111.947102,-7.19562],[111.94677,-7.195675],[111.946769,-7.195675],[111.94652,-7.195717],[111.946519,-7.195717],[111.946298,-7.195755],[111.946056,-7.195796],[111.945821,-7.195837],[111.945815,-7.195838],[111.945641,-7.19587],[111.945639,-7.19587],[111.945381,-7.195919],[111.945372,-7.195921],[111.945144,-7.195969],[111.945135,-7.195971],[111.944879,-7.19603],[111.944878,-7.19603],[111.944649,-7.196084],[111.944466,-7.196127],[111.944192,-7.196192],[111.944188,-7.196193],[111.944092,-7.196216],[111.944078,-7.19622],[111.944017,-7.196237],[111.944006,-7.19624],[111.943971,-7.196251],[111.943958,-7.196255],[111.943821,-7.196302],[111.943813,-7.196304],[111.94374,-7.196331],[111.943604,-7.19638],[111.943599,-7.196381],[111.943485,-7.196419],[111.943478,-7.196421],[111.943356,-7.196457],[111.942916,-7.196563],[111.942479,-7.196667],[111.942475,-7.196668],[111.94247,-7.196669],[111.942463,-7.19667],[111.94246,-7.196671],[111.942452,-7.196673],[111.942449,-7.196674],[111.942441,-7.196676],[111.942438,-7.196677],[111.942431,-7.196679],[111.942427,-7.19668],[111.94242,-7.196682],[111.942417,-7.196683],[111.942409,-7.196686],[111.942406,-7.196687],[111.942399,-7.196689],[111.942396,-7.19669],[111.942388,-7.196693],[111.942385,-7.196694],[111.942378,-7.196697],[111.942375,-7.196698],[111.942368,-7.196701],[111.942365,-7.196702],[111.942358,-7.196705],[111.942355,-7.196706],[111.942347,-7.19671],[111.942345,-7.196711],[111.942337,-7.196714],[111.942334,-7.196716],[111.942327,-7.196719],[111.942324,-7.19672],[111.942317,-7.196724],[111.942315,-7.196725],[111.942308,-7.196729],[111.942305,-7.196731],[111.942298,-7.196734],[111.942295,-7.196736],[111.942288,-7.19674],[111.942286,-7.196742],[111.942279,-7.196746],[111.942276,-7.196747],[111.942269,-7.196751],[111.942267,-7.196753],[111.94226,-7.196757],[111.942257,-7.196759],[111.942251,-7.196764],[111.942248,-7.196765],[111.942242,-7.19677],[111.942239,-7.196772],[111.942233,-7.196776],[111.94223,-7.196778],[111.942224,-7.196783],[111.942221,-7.196785],[111.942215,-7.19679],[111.942213,-7.196792],[111.942206,-7.196797],[111.942204,-7.196799],[111.942198,-7.196804],[111.942195,-7.196806],[111.942189,-7.196811],[111.942187,-7.196813],[111.942181,-7.196818],[111.942179,-7.19682],[111.942173,-7.196826],[111.942171,-7.196828],[111.942165,-7.196833],[111.942163,-7.196836],[111.942157,-7.196841],[111.942155,-7.196843],[111.942149,-7.196849],[111.942147,-7.196851],[111.942142,-7.196857],[111.942141,-7.196858],[111.942114,-7.196889],[111.942114,-7.196891],[111.942109,-7.196897],[111.942108,-7.196898],[111.942103,-7.196905],[111.942102,-7.196906],[111.942097,-7.196913],[111.942096,-7.196914],[111.942092,-7.196921],[111.942091,-7.196922],[111.942087,-7.196929],[111.942086,-7.196931],[111.942081,-7.196937],[111.94208,-7.196939],[111.942076,-7.196946],[111.942075,-7.196947],[111.942071,-7.196954],[111.94207,-7.196956],[111.942067,-7.196963],[111.942066,-7.196964],[111.942062,-7.196971],[111.942061,-7.196973],[111.942058,-7.19698],[111.942057,-7.196982],[111.942053,-7.196989],[111.942052,-7.196991],[111.942049,-7.196998],[111.942048,-7.197],[111.942045,-7.197007],[111.942044,-7.197008],[111.942041,-7.197016],[111.94204,-7.197018],[111.942038,-7.197025],[111.942037,-7.197027],[111.942034,-7.197034],[111.942033,-7.197036],[111.942031,-7.197043],[111.94203,-7.197045],[111.942027,-7.197052],[111.942027,-7.197054],[111.942024,-7.197062],[111.942024,-7.197064],[111.942021,-7.197071],[111.942021,-7.197073],[111.942019,-7.19708],[111.942018,-7.197082],[111.942016,-7.19709],[111.942016,-7.197092],[111.942014,-7.197099],[111.942013,-7.197101],[111.942012,-7.197109],[111.942011,-7.197111],[111.942009,-7.197119],[111.942009,-7.19712],[111.942008,-7.197128],[111.942007,-7.19713],[111.942006,-7.197138],[111.942006,-7.19714],[111.942004,-7.197147],[111.942004,-7.197149],[111.942003,-7.197157],[111.942003,-7.197159],[111.942002,-7.197167],[111.942001,-7.197169],[111.942001,-7.197177],[111.942,-7.197179],[111.942,-7.197186],[111.942,-7.197187],[111.942,-7.197266],[111.942001,-7.197273],[111.942002,-7.197281],[111.942005,-7.19731],[111.942006,-7.197317],[111.94201,-7.197346],[111.942011,-7.197353],[111.942015,-7.197381],[111.942016,-7.197389],[111.942021,-7.197417],[111.942022,-7.197425],[111.942027,-7.197453],[111.942029,-7.197461],[111.942035,-7.197489],[111.942036,-7.197496],[111.942042,-7.197524],[111.942044,-7.197532],[111.942051,-7.197559],[111.942053,-7.197567],[111.942118,-7.197863],[111.94261,-7.199843],[111.942612,-7.19985]],[[111.848391,-7.158099],[111.848395,-7.158093],[111.848407,-7.158072],[111.84841,-7.158066],[111.848422,-7.158046],[111.848426,-7.158039],[111.848437,-7.158018],[111.848441,-7.158012],[111.848443,-7.158007],[111.848468,-7.157951],[111.848468,-7.157949],[111.848471,-7.157942],[111.848472,-7.157938],[111.848475,-7.157931],[111.848476,-7.157928],[111.848478,-7.15792],[111.848479,-7.157917],[111.848481,-7.157909],[111.848482,-7.157906],[111.848484,-7.157898],[111.848485,-7.157895],[111.848487,-7.157887],[111.848488,-7.157884],[111.84849,-7.157876],[111.84849,-7.157873],[111.848492,-7.157865],[111.848493,-7.157862],[111.848494,-7.157854],[111.848495,-7.157851],[111.848496,-7.157843],[111.848497,-7.15784],[111.848498,-7.157832],[111.848499,-7.157828],[111.8485,-7.157821],[111.8485,-7.157817],[111.848501,-7.157809],[111.848502,-7.157806],[111.848503,-7.157798],[111.848503,-7.157795],[111.848504,-7.157787],[111.848504,-7.157783],[111.848505,-7.157776],[111.848505,-7.157772],[111.848505,-7.157764],[111.848506,-7.157761],[111.848506,-7.157753],[111.848506,-7.157749],[111.848506,-7.157742],[111.848506,-7.157738],[111.848506,-7.15773],[111.848506,-7.157727],[111.848506,-7.157719],[111.848506,-7.157715],[111.848506,-7.157708],[111.848506,-7.157704],[111.848505,-7.157696],[111.848505,-7.157693],[111.848505,-7.157685],[111.848505,-7.157681],[111.848504,-7.157674],[111.848504,-7.15767],[111.848503,-7.157662],[111.848503,-7.157659],[111.848502,-7.157651],[111.848501,-7.157648],[111.8485,-7.15764],[111.8485,-7.157636],[111.848498,-7.157629],[111.848498,-7.157625],[111.848497,-7.157617],[111.848496,-7.157614],[111.848495,-7.157606],[111.848494,-7.157603],[111.848492,-7.157595],[111.848492,-7.157592],[111.84849,-7.157584],[111.848489,-7.157581],[111.848487,-7.157573],[111.848486,-7.15757],[111.848484,-7.157562],[111.848484,-7.157559],[111.848481,-7.157551],[111.848481,-7.157548],[111.848478,-7.15754],[111.848477,-7.157537],[111.848475,-7.15753],[111.848474,-7.157526],[111.848471,-7.157519],[111.84847,-7.157516],[111.848468,-7.157508],[111.848466,-7.157505],[111.848464,-7.157498],[111.848462,-7.157494],[111.84846,-7.157487],[111.848458,-7.157484],[111.848455,-7.157476],[111.848454,-7.157473],[111.848451,-7.157466],[111.848449,-7.157463],[111.848446,-7.157456],[111.848445,-7.157453],[111.848441,-7.157446],[111.84844,-7.157442],[111.848436,-7.157435],[111.848435,-7.157432],[111.848431,-7.157425],[111.848429,-7.157422],[111.848426,-7.157415],[111.848424,-7.157412],[111.84842,-7.157405],[111.848418,-7.157402],[111.848414,-7.157396],[111.848413,-7.157393],[111.848408,-7.157386],[111.848407,-7.157383],[111.848402,-7.157376],[111.8484,-7.157373],[111.848396,-7.157367],[111.848394,-7.157364],[111.84839,-7.157358],[111.848388,-7.157355],[111.848383,-7.157348],[111.848381,-7.157345],[111.848377,-7.157339],[111.848374,-7.157336],[111.84837,-7.15733],[111.848368,-7.157327],[111.848363,-7.157321],[111.84836,-7.157319],[111.848355,-7.157312],[111.848353,-7.15731],[111.848348,-7.157304],[111.848346,-7.157301],[111.848341,-7.157295],[111.848338,-7.157293],[111.848333,-7.157287],[111.848331,-7.157284],[111.848325,-7.157279],[111.848323,-7.157276],[111.848317,-7.157271],[111.848315,-7.157268],[111.848309,-7.157263],[111.848307,-7.15726],[111.848301,-7.157255],[111.848299,-7.157252],[111.848293,-7.157247],[111.84829,-7.157245],[111.848284,-7.157239],[111.848282,-7.157237],[111.848276,-7.157232],[111.848273,-7.15723],[111.848267,-7.157225],[111.848264,-7.157223],[111.848258,-7.157218],[111.848255,-7.157216],[111.848249,-7.157211],[111.848246,-7.157209],[111.84824,-7.157204],[111.848237,-7.157202],[111.848231,-7.157197],[111.848228,-7.157195],[111.848222,-7.157191],[111.848219,-7.157189],[111.848212,-7.157185],[111.848209,-7.157183],[111.848203,-7.157178],[111.8482,-7.157177],[111.848193,-7.157172],[111.84819,-7.157171],[111.848183,-7.157167],[111.84818,-7.157165],[111.848174,-7.157161],[111.84817,-7.157159],[111.848164,-7.157155],[111.848161,-7.157154],[111.848154,-7.15715],[111.84815,-7.157149],[111.848143,-7.157145],[111.84814,-7.157144],[111.848133,-7.15714],[111.84813,-7.157139],[111.848123,-7.157135],[111.84812,-7.157134],[111.848113,-7.157131],[111.848109,-7.157129],[111.848102,-7.157126],[111.848099,-7.157125],[111.848092,-7.157122],[111.848088,-7.157121],[111.848081,-7.157118],[111.848078,-7.157117],[111.84807,-7.157114],[111.848067,-7.157113],[111.84806,-7.157111],[111.848056,-7.157109],[111.848049,-7.157107],[111.848046,-7.157106],[111.848038,-7.157104],[111.848035,-7.157103],[111.848027,-7.157101],[111.848024,-7.1571],[111.848016,-7.157098],[111.848013,-7.157097],[111.848005,-7.157095],[111.848002,-7.157094],[111.847994,-7.157092],[111.847991,-7.157092],[111.847983,-7.15709],[111.84798,-7.157089],[111.847972,-7.157088],[111.847968,-7.157087],[111.847961,-7.157086],[111.847957,-7.157085],[111.847949,-7.157084],[111.847946,-7.157084],[111.847938,-7.157083],[111.847935,-7.157082],[111.847927,-7.157081],[111.847923,-7.157081],[111.847916,-7.15708],[111.847912,-7.15708],[111.847904,-7.157079],[111.847901,-7.157079],[111.847893,-7.157078],[111.84789,-7.157078],[111.847882,-7.157078],[111.847878,-7.157077],[111.84787,-7.157077],[111.847867,-7.157077],[111.847859,-7.157077],[111.847856,-7.157077],[111.847848,-7.157077],[111.847844,-7.157077],[111.847836,-7.157077],[111.847833,-7.157077],[111.847825,-7.157078],[111.847822,-7.157078],[111.847814,-7.157078],[111.84781,-7.157078],[111.847802,-7.157079],[111.847799,-7.157079],[111.847791,-7.15708],[111.847788,-7.15708],[111.84778,-7.157081],[111.847776,-7.157082],[111.847769,-7.157082],[111.847765,-7.157083],[111.847757,-7.157084],[111.847754,-7.157085],[111.847746,-7.157086],[111.847743,-7.157086],[111.847735,-7.157088],[111.847732,-7.157088],[111.847724,-7.15709],[111.84772,-7.157091],[111.847713,-7.157092],[111.847709,-7.157093],[111.847702,-7.157095],[111.847698,-7.157096],[111.847691,-7.157097],[111.847687,-7.157098],[111.84768,-7.1571],[111.847676,-7.157101],[111.847669,-7.157103],[111.847665,-7.157104],[111.847658,-7.157107],[111.847655,-7.157108],[111.847647,-7.15711],[111.847644,-7.157111],[111.847636,-7.157114],[111.847633,-7.157115],[111.847626,-7.157118],[111.847622,-7.157119],[111.847615,-7.157122],[111.847612,-7.157123],[111.847605,-7.157126],[111.847601,-7.157127],[111.847594,-7.15713],[111.847591,-7.157132],[111.847584,-7.157135],[111.847581,-7.157136],[111.847573,-7.15714],[111.84757,-7.157141],[111.847563,-7.157145],[111.84756,-7.157146],[111.847553,-7.15715],[111.84755,-7.157151],[111.847543,-7.157155],[111.84754,-7.157157],[111.847533,-7.157161],[111.84753,-7.157162],[111.847523,-7.157166],[111.84752,-7.157168],[111.847514,-7.157172],[111.847511,-7.157174],[111.847504,-7.157178],[111.847501,-7.15718],[111.847494,-7.157184],[111.847491,-7.157186],[111.847485,-7.15719],[111.847482,-7.157192],[111.847476,-7.157197],[111.847473,-7.157199],[111.847466,-7.157203],[111.847464,-7.157206],[111.847457,-7.15721],[111.847455,-7.157212],[111.847448,-7.157217],[111.847446,-7.157219],[111.84744,-7.157224],[111.847437,-7.157226],[111.847431,-7.157232],[111.847428,-7.157234],[111.847422,-7.157239],[111.84742,-7.157241],[111.847414,-7.157246],[111.847411,-7.157249],[111.847405,-7.157254],[111.847403,-7.157257],[111.847397,-7.157262],[111.847395,-7.157264],[111.847389,-7.15727],[111.847387,-7.157272],[111.847381,-7.157278],[111.847379,-7.157281],[111.847373,-7.157286],[111.847371,-7.157289],[111.847366,-7.157295],[111.847364,-7.157297],[111.847358,-7.157303],[111.847356,-7.157306],[111.847351,-7.157312],[111.847349,-7.157315],[111.847344,-7.157321],[111.847342,-7.157323],[111.847337,-7.15733],[111.847335,-7.157332],[111.84733,-7.157339],[111.847328,-7.157341],[111.847323,-7.157348],[111.847321,-7.15735],[111.847317,-7.157357],[111.847315,-7.15736],[111.84731,-7.157366],[111.847308,-7.157369],[111.847304,-7.157376],[111.847302,-7.157379],[111.847298,-7.157385],[111.847296,-7.157388],[111.847292,-7.157395],[111.84729,-7.157398],[111.847286,-7.157405],[111.847285,-7.157408],[111.847281,-7.157415],[111.847279,-7.157418],[111.847275,-7.157425],[111.847274,-7.157428],[111.84727,-7.157435],[111.847269,-7.157438],[111.847265,-7.157445],[111.847264,-7.157448],[111.84726,-7.157455],[111.847259,-7.157458],[111.847256,-7.157465],[111.847254,-7.157469],[111.847251,-7.157476],[111.84725,-7.157479],[111.847247,-7.157486],[111.847245,-7.157489],[111.847243,-7.157497],[111.847241,-7.1575],[111.847239,-7.157507],[111.847237,-7.157511],[111.847235,-7.157518],[111.847234,-7.157521],[111.847231,-7.157529],[111.84723,-7.157532],[111.847228,-7.15754],[111.847227,-7.157543],[111.847225,-7.15755],[111.847224,-7.157554],[111.847222,-7.157561],[111.847221,-7.157565],[111.847219,-7.157572],[111.847218,-7.157576],[111.847216,-7.157583],[111.847215,-7.157587],[111.847214,-7.157594],[111.847213,-7.157598],[111.847212,-7.157606],[111.847211,-7.157609],[111.847209,-7.157617],[111.847209,-7.15762],[111.847208,-7.157628],[111.847207,-7.157631],[111.847206,-7.157639],[111.847205,-7.157643],[111.847204,-7.15765],[111.847204,-7.157654],[111.847203,-7.157662],[111.847203,-7.157665],[111.847202,-7.157673],[111.847202,-7.157676],[111.847201,-7.157684],[111.847201,-7.157688],[111.847201,-7.157695],[111.8472,-7.157699],[111.8472,-7.157707],[111.8472,-7.15771],[111.8472,-7.157718],[111.8472,-7.157722],[111.8472,-7.157729],[111.8472,-7.157733],[111.8472,-7.157741],[111.8472,-7.157744],[111.8472,-7.157752],[111.8472,-7.157756],[111.847201,-7.157763],[111.847201,-7.157767],[111.847201,-7.157775],[111.847201,-7.157778],[111.847202,-7.157786],[111.847202,-7.157789],[111.847203,-7.157797],[111.847204,-7.157801],[111.847204,-7.157809],[111.847205,-7.157812],[111.847206,-7.15782],[111.847206,-7.157823],[111.847208,-7.157831],[111.847208,-7.157834],[111.847209,-7.157842],[111.84721,-7.157846],[111.847211,-7.157853],[111.847212,-7.157857],[111.847214,-7.157865],[111.847214,-7.157868],[111.847216,-7.157875],[111.847217,-7.157879],[111.847219,-7.157887],[111.84722,-7.15789],[111.847222,-7.157898],[111.847223,-7.157901],[111.847225,-7.157908],[111.847226,-7.157912],[111.847228,-7.157919],[111.847229,-7.157923],[111.847231,-7.15793],[111.847232,-7.157933],[111.847235,-7.157941],[111.847236,-7.157944],[111.847239,-7.157952],[111.84724,-7.157955],[111.847243,-7.157962],[111.847244,-7.157966],[111.847247,-7.157973],[111.847248,-7.157976],[111.847251,-7.157983],[111.847252,-7.157987],[111.847256,-7.157994],[111.847257,-7.157997],[111.84726,-7.158004],[111.847262,-7.158007],[111.847265,-7.158014],[111.847267,-7.158017],[111.84727,-7.158024],[111.847272,-7.158028],[111.847275,-7.158035],[111.847277,-7.158038],[111.847281,-7.158045],[111.847282,-7.158048],[111.847286,-7.158054],[111.847288,-7.158057],[111.847292,-7.158064],[111.847294,-7.158067],[111.847298,-7.158074],[111.8473,-7.158077],[111.847304,-7.158084],[111.847306,-7.158086],[111.84731,-7.158093],[111.847312,-7.158096],[111.847317,-7.158102],[111.847319,-7.158105],[111.847323,-7.158112],[111.847325,-7.158114],[111.84733,-7.158121],[111.847332,-7.158124],[111.847337,-7.15813],[111.847339,-7.158133],[111.847344,-7.158139],[111.847346,-7.158141],[111.847351,-7.158147],[111.847353,-7.15815],[111.847358,-7.158156],[111.847361,-7.158159],[111.847366,-7.158165],[111.847368,-7.158167],[111.847374,-7.158173],[111.847376,-7.158176],[111.847381,-7.158181],[111.847384,-7.158184],[111.847389,-7.158189],[111.84739,-7.15819],[111.847425,-7.158222],[111.847446,-7.158239],[111.847452,-7.158243],[111.847485,-7.158269],[111.84749,-7.158274],[111.847524,-7.158299],[111.847529,-7.158303],[111.847563,-7.158328],[111.847569,-7.158332],[111.847603,-7.158357],[111.847609,-7.158361],[111.847651,-7.158388],[111.847656,-7.158392],[111.847657,-7.158392],[111.847987,-7.158622],[111.847995,-7.158627],[111.848099,-7.158492],[111.848173,-7.158396],[111.848256,-7.158293],[111.848268,-7.158278],[111.848272,-7.158272],[111.848286,-7.158253],[111.848291,-7.158247],[111.848305,-7.158228],[111.848309,-7.158222],[111.848323,-7.158203],[111.848327,-7.158197],[111.848341,-7.158178],[111.848345,-7.158171],[111.848358,-7.158152],[111.848362,-7.158145],[111.848374,-7.158126],[111.848379,-7.158119],[111.848391,-7.158099]],[[111.942337,-7.196452],[111.942342,-7.19645],[111.942349,-7.196447],[111.942355,-7.196445],[111.942362,-7.196442],[111.942367,-7.19644],[111.942374,-7.196437],[111.942379,-7.196434],[111.942386,-7.196431],[111.942391,-7.196429],[111.942398,-7.196425],[111.942404,-7.196423],[111.94241,-7.196419],[111.942415,-7.196417],[111.942422,-7.196413],[111.942427,-7.19641],[111.942434,-7.196407],[111.942439,-7.196404],[111.942446,-7.1964],[111.942451,-7.196397],[111.942457,-7.196393],[111.942462,-7.19639],[111.942469,-7.196386],[111.942474,-7.196383],[111.94248,-7.196379],[111.942485,-7.196376],[111.942491,-7.196371],[111.942496,-7.196368],[111.942502,-7.196364],[111.942507,-7.19636],[111.942513,-7.196356],[111.942518,-7.196352],[111.942524,-7.196348],[111.942527,-7.196346],[111.942585,-7.196294],[111.942585,-7.196294],[111.94259,-7.196288],[111.942591,-7.196286],[111.942597,-7.19628],[111.942598,-7.196279],[111.942603,-7.196273],[111.942604,-7.196272],[111.942609,-7.196265],[111.942611,-7.196264],[111.942615,-7.196258],[111.942617,-7.196256],[111.942621,-7.19625],[111.942623,-7.196249],[111.942627,-7.196242],[111.942628,-7.196241],[111.942633,-7.196234],[111.942634,-7.196233],[111.942639,-7.196226],[111.94264,-7.196225],[111.942644,-7.196218],[111.942645,-7.196216],[111.942649,-7.19621],[111.94265,-7.196208],[111.942654,-7.196201],[111.942655,-7.1962],[111.942659,-7.196193],[111.94266,-7.196191],[111.942664,-7.196185],[111.942665,-7.196183],[111.942669,-7.196176],[111.94267,-7.196174],[111.942673,-7.196167],[111.942674,-7.196166],[111.942678,-7.196159],[111.942679,-7.196157],[111.942682,-7.19615],[111.942683,-7.196148],[111.942686,-7.196141],[111.942687,-7.196139],[111.94269,-7.196132],[111.942691,-7.19613],[111.942694,-7.196123],[111.942695,-7.196121],[111.942698,-7.196114],[111.942698,-7.196112],[111.942701,-7.196105],[111.942702,-7.196103],[111.942704,-7.196095],[111.942705,-7.196093],[111.942707,-7.196086],[111.942708,-7.196084],[111.94271,-7.196077],[111.942711,-7.196075],[111.942713,-7.196067],[111.942714,-7.196065],[111.942716,-7.196058],[111.942716,-7.196056],[111.942718,-7.196048],[111.942719,-7.196047],[111.942721,-7.196039],[111.942721,-7.196037],[111.942723,-7.196029],[111.942723,-7.196027],[111.942725,-7.19602],[111.942725,-7.196018],[111.942727,-7.19601],[111.942727,-7.196008],[111.942728,-7.196],[111.942729,-7.195999],[111.94273,-7.195991],[111.94273,-7.195989],[111.942731,-7.195981],[111.942731,-7.195979],[111.942732,-7.195971],[111.942732,-7.195969],[111.942733,-7.195962],[111.942733,-7.19596],[111.942734,-7.195952],[111.942734,-7.19595],[111.942735,-7.195942],[111.942735,-7.19594],[111.942735,-7.195932],[111.942735,-7.19593],[111.942735,-7.195923],[111.942735,-7.195921],[111.942735,-7.195913],[111.942735,-7.195911],[111.942735,-7.195903],[111.942735,-7.195901],[111.942735,-7.195893],[111.942735,-7.195891],[111.942735,-7.195883],[111.942735,-7.195881],[111.942734,-7.195874],[111.942734,-7.195872],[111.942734,-7.195864],[111.942733,-7.195862],[111.942733,-7.195854],[111.942732,-7.195852],[111.942732,-7.195844],[111.942731,-7.195842],[111.94273,-7.195835],[111.94273,-7.195833],[111.942729,-7.195825],[111.942729,-7.195823],[111.942727,-7.195815],[111.942727,-7.195813],[111.942726,-7.195806],[111.942725,-7.195804],[111.942724,-7.195796],[111.942723,-7.195794],[111.942722,-7.195787],[111.942721,-7.195785],[111.942719,-7.195777],[111.942719,-7.195775],[111.942717,-7.195768],[111.942716,-7.195766],[111.942714,-7.195758],[111.942714,-7.195756],[111.942712,-7.195749],[111.942711,-7.195747],[111.942709,-7.195739],[111.942708,-7.195738],[111.942706,-7.19573],[111.942705,-7.195728],[111.942702,-7.195721],[111.942702,-7.195719],[111.942699,-7.195712],[111.942698,-7.19571],[111.942695,-7.195702],[111.942695,-7.195701],[111.942692,-7.195693],[111.942691,-7.195692],[111.942688,-7.195684],[111.942687,-7.195683],[111.942684,-7.195675],[111.942683,-7.195674],[111.94268,-7.195667],[111.942679,-7.195665],[111.942675,-7.195658],[111.942674,-7.195656],[111.942671,-7.195649],[111.94267,-7.195647],[111.942666,-7.195641],[111.942665,-7.195639],[111.942661,-7.195632],[111.94266,-7.19563],[111.942656,-7.195624],[111.942655,-7.195622],[111.942651,-7.195615],[111.94265,-7.195614],[111.942646,-7.195607],[111.942645,-7.195605],[111.942641,-7.195599],[111.94264,-7.195597],[111.942635,-7.195591],[111.942634,-7.195589],[111.94263,-7.195583],[111.942628,-7.195581],[111.942624,-7.195575],[111.942623,-7.195573],[111.942618,-7.195567],[111.942617,-7.195565],[111.942612,-7.195559],[111.942611,-7.195558],[111.942606,-7.195552],[111.942604,-7.19555],[111.942599,-7.195544],[111.942598,-7.195543],[111.942593,-7.195537],[111.942591,-7.195535],[111.942586,-7.19553],[111.942585,-7.195528],[111.942579,-7.195522],[111.942578,-7.195521],[111.942573,-7.195515],[111.942571,-7.195514],[111.942566,-7.195509],[111.942564,-7.195507],[111.942559,-7.195502],[111.942557,-7.1955],[111.942551,-7.195495],[111.94255,-7.195494],[111.942544,-7.195489],[111.942543,-7.195487],[111.942537,-7.195482],[111.942535,-7.195481],[111.942529,-7.195476],[111.942528,-7.195475],[111.942521,-7.19547],[111.94252,-7.195469],[111.942514,-7.195464],[111.942512,-7.195463],[111.942506,-7.195458],[111.942504,-7.195457],[111.942498,-7.195452],[111.942496,-7.195451],[111.94249,-7.195447],[111.942488,-7.195446],[111.942482,-7.195441],[111.94248,-7.19544],[111.942473,-7.195436],[111.942472,-7.195435],[111.942465,-7.195431],[111.942464,-7.19543],[111.942457,-7.195426],[111.942455,-7.195425],[111.942448,-7.195421],[111.942447,-7.19542],[111.94244,-7.195416],[111.942438,-7.195415],[111.942431,-7.195412],[111.942429,-7.195411],[111.942422,-7.195407],[111.94242,-7.195406],[111.942413,-7.195403],[111.942412,-7.195402],[111.942404,-7.195399],[111.942403,-7.195398],[111.942396,-7.195395],[111.942394,-7.195394],[111.942386,-7.195391],[111.942385,-7.19539],[111.942377,-7.195387],[111.942376,-7.195387],[111.942368,-7.195384],[111.942366,-7.195383],[111.942359,-7.195381],[111.942357,-7.19538],[111.94235,-7.195377],[111.942348,-7.195377],[111.94234,-7.195374],[111.942339,-7.195374],[111.942331,-7.195372],[111.942329,-7.195371],[111.942322,-7.195369],[111.94232,-7.195368],[111.942312,-7.195366],[111.94231,-7.195366],[111.942303,-7.195364],[111.942301,-7.195364],[111.942293,-7.195362],[111.942291,-7.195361],[111.942283,-7.19536],[111.942282,-7.195359],[111.942274,-7.195358],[111.942272,-7.195358],[111.942264,-7.195356],[111.942262,-7.195356],[111.942254,-7.195355],[111.942253,-7.195355],[111.942245,-7.195353],[111.942243,-7.195353],[111.942235,-7.195352],[111.942233,-7.195352],[111.942225,-7.195351],[111.942223,-7.195351],[111.942215,-7.195351],[111.942214,-7.19535],[111.942206,-7.19535],[111.942204,-7.19535],[111.942196,-7.195349],[111.942194,-7.195349],[111.942186,-7.195349],[111.942184,-7.195349],[111.942176,-7.195349],[111.942174,-7.195349],[111.942167,-7.195349],[111.942165,-7.195349],[111.942157,-7.195349],[111.942155,-7.195349],[111.942147,-7.195349],[111.942145,-7.19535],[111.942137,-7.19535],[111.942135,-7.19535],[111.942127,-7.195351],[111.942125,-7.195351],[111.942118,-7.195352],[111.942116,-7.195352],[111.942108,-7.195353],[111.942106,-7.195353],[111.942098,-7.195354],[111.942096,-7.195354],[111.942088,-7.195355],[111.942087,-7.195356],[111.942079,-7.195357],[111.942077,-7.195357],[111.942069,-7.195359],[111.942067,-7.195359],[111.942059,-7.19536],[111.942058,-7.195361],[111.94205,-7.195362],[111.942048,-7.195363],[111.94204,-7.195365],[111.942038,-7.195365],[111.942031,-7.195367],[111.942029,-7.195368],[111.942021,-7.19537],[111.94202,-7.19537],[111.942012,-7.195372],[111.94201,-7.195373],[111.942003,-7.195375],[111.942001,-7.195376],[111.941993,-7.195378],[111.941991,-7.195379],[111.941984,-7.195381],[111.941982,-7.195382],[111.941975,-7.195385],[111.941973,-7.195386],[111.941966,-7.195388],[111.941964,-7.195389],[111.941957,-7.195392],[111.941955,-7.195393],[111.941948,-7.195396],[111.941946,-7.195397],[111.941939,-7.1954],[111.941937,-7.195401],[111.94193,-7.195404],[111.941928,-7.195405],[111.941921,-7.195408],[111.941919,-7.195409],[111.941912,-7.195413],[111.94191,-7.195414],[111.941904,-7.195417],[111.941902,-7.195418],[111.941895,-7.195422],[111.941893,-7.195423],[111.941886,-7.195427],[111.941885,-7.195428],[111.941878,-7.195432],[111.941876,-7.195433],[111.94187,-7.195437],[111.941868,-7.195438],[111.941862,-7.195443],[111.94186,-7.195444],[111.941853,-7.195448],[111.941852,-7.195449],[111.941845,-7.195454],[111.941844,-7.195455],[111.941837,-7.19546],[111.941836,-7.195461],[111.94183,-7.195465],[111.941828,-7.195467],[111.941822,-7.195471],[111.94182,-7.195473],[111.941814,-7.195478],[111.941813,-7.195479],[111.941807,-7.195484],[111.941805,-7.195485],[111.941799,-7.19549],[111.941798,-7.195492],[111.941792,-7.195497],[111.941791,-7.195498],[111.941785,-7.195504],[111.941784,-7.195505],[111.941778,-7.19551],[111.941777,-7.195512],[111.941771,-7.195517],[111.94177,-7.195519],[111.941764,-7.195524],[111.941763,-7.195526],[111.941758,-7.195532],[111.941756,-7.195533],[111.941751,-7.195539],[111.94175,-7.19554],[111.941745,-7.195546],[111.941743,-7.195548],[111.941738,-7.195554],[111.941737,-7.195555],[111.941732,-7.195561],[111.941731,-7.195563],[111.941726,-7.195569],[111.941725,-7.195571],[111.94172,-7.195577],[111.941719,-7.195578],[111.941714,-7.195585],[111.941713,-7.195586],[111.941709,-7.195593],[111.941708,-7.195594],[111.941703,-7.195601],[111.941702,-7.195603],[111.941698,-7.195609],[111.941697,-7.195611],[111.941693,-7.195618],[111.941692,-7.195619],[111.941688,-7.195626],[111.941687,-7.195628],[111.941683,-7.195634],[111.941682,-7.195636],[111.941678,-7.195643],[111.941677,-7.195645],[111.941674,-7.195652],[111.941673,-7.195653],[111.941669,-7.19566],[111.941668,-7.195662],[111.941665,-7.195669],[111.941664,-7.19567],[111.941648,-7.195708],[111.941648,-7.195709],[111.941645,-7.195717],[111.941644,-7.19572],[111.941642,-7.195727],[111.941641,-7.19573],[111.941638,-7.195738],[111.941637,-7.195741],[111.941635,-7.195748],[111.941634,-7.195751],[111.941632,-7.195759],[111.941631,-7.195762],[111.941629,-7.19577],[111.941628,-7.195773],[111.941627,-7.19578],[111.941626,-7.195784],[111.941624,-7.195791],[111.941623,-7.195794],[111.941622,-7.195802],[111.941621,-7.195805],[111.94162,-7.195813],[111.941619,-7.195816],[111.941618,-7.195824],[111.941617,-7.195827],[111.941616,-7.195835],[111.941616,-7.195838],[111.941615,-7.195846],[111.941614,-7.195849],[111.941613,-7.195857],[111.941613,-7.19586],[111.941612,-7.195868],[111.941612,-7.195871],[111.941611,-7.195879],[111.941611,-7.195882],[111.94161,-7.19589],[111.94161,-7.195893],[111.94161,-7.195901],[111.94161,-7.195904],[111.941609,-7.195912],[111.941609,-7.195915],[111.941609,-7.195923],[111.941609,-7.195926],[111.941609,-7.195934],[111.941609,-7.195937],[111.94161,-7.195945],[111.94161,-7.195948],[111.94161,-7.195956],[111.94161,-7.195959],[111.941611,-7.195967],[111.941611,-7.19597],[111.941611,-7.195978],[111.941612,-7.195981],[111.941612,-7.195989],[111.941613,-7.195992],[111.941613,-7.196],[111.941614,-7.196003],[111.941615,-7.196011],[111.941615,-7.196014],[111.941616,-7.196022],[111.941617,-7.196025],[111.941618,-7.196033],[111.941619,-7.196036],[111.94162,-7.196044],[111.941621,-7.196047],[111.941622,-7.196055],[111.941623,-7.196058],[111.941625,-7.196066],[111.941625,-7.196069],[111.941627,-7.196077],[111.941628,-7.19608],[111.94163,-7.196087],[111.941631,-7.196091],[111.941632,-7.196097],[111.941646,-7.196157],[111.94166,-7.196216],[111.941715,-7.196436],[111.941755,-7.196598],[111.941958,-7.196549],[111.942179,-7.196496],[111.942185,-7.196495],[111.942187,-7.196495],[111.942195,-7.196493],[111.942201,-7.196492],[111.942208,-7.196491],[111.942214,-7.19649],[111.942221,-7.196488],[111.942227,-7.196487],[111.942234,-7.196485],[111.94224,-7.196483],[111.942247,-7.196482],[111.942253,-7.19648],[111.94226,-7.196478],[111.942266,-7.196476],[111.942273,-7.196474],[111.942279,-7.196473],[111.942286,-7.19647],[111.942292,-7.196469],[111.942299,-7.196466],[111.942304,-7.196464],[111.942312,-7.196462],[111.942317,-7.19646],[111.942324,-7.196457],[111.94233,-7.196455],[111.942337,-7.196452]],[[111.944694,-7.195976],[111.944777,-7.195957],[111.944789,-7.195954],[111.944792,-7.195953],[111.94488,-7.195933],[111.944954,-7.195915],[111.944962,-7.195914],[111.944992,-7.195907],[111.945119,-7.195877],[111.945163,-7.195867],[111.945213,-7.195856],[111.945342,-7.19583],[111.945567,-7.195787],[111.94549,-7.195801],[111.945413,-7.195813],[111.945335,-7.195824],[111.945257,-7.195834],[111.945179,-7.195842],[111.945114,-7.195848],[111.94505,-7.195853],[111.944985,-7.195856],[111.944921,-7.195859],[111.944856,-7.19586],[111.944791,-7.195861],[111.944727,-7.195861],[111.944662,-7.195859],[111.944597,-7.195857],[111.944533,-7.195853],[111.944468,-7.195848],[111.944404,-7.195843],[111.944339,-7.195836],[111.944275,-7.195829],[111.944211,-7.19582],[111.944147,-7.19581],[111.944083,-7.1958],[111.94402,-7.195788],[111.943956,-7.195775],[111.943893,-7.195762],[111.94383,-7.195747],[111.943391,-7.195635],[111.943328,-7.195621],[111.943265,-7.195605],[111.943203,-7.195588],[111.943141,-7.195571],[111.943079,-7.195552],[111.943017,-7.195533],[111.942956,-7.195512],[111.94248,-7.195349],[111.942368,-7.195308],[111.94235,-7.195302],[111.942331,-7.195298],[111.942313,-7.195294],[111.942323,-7.195296],[111.942334,-7.195299],[111.942344,-7.195302],[111.942355,-7.195305],[111.942365,-7.195308],[111.942375,-7.195311],[111.942385,-7.195315],[111.942395,-7.195318],[111.942406,-7.195322],[111.942416,-7.195326],[111.942425,-7.19533],[111.942435,-7.195335],[111.942445,-7.195339],[111.942455,-7.195344],[111.942464,-7.195349],[111.942474,-7.195354],[111.942483,-7.195359],[111.942493,-7.195364],[111.942502,-7.19537],[111.942511,-7.195376],[111.94252,-7.195381],[111.942529,-7.195387],[111.942538,-7.195393],[111.942547,-7.1954],[111.942556,-7.195406],[111.942564,-7.195413],[111.942573,-7.195419],[111.942581,-7.195426],[111.942589,-7.195433],[111.942597,-7.19544],[111.942605,-7.195448],[111.942613,-7.195455],[111.942621,-7.195463],[111.942628,-7.19547],[111.942636,-7.195478],[111.942643,-7.195486],[111.94265,-7.195494],[111.942657,-7.195502],[111.942664,-7.195511],[111.942671,-7.195519],[111.942677,-7.195527],[111.942684,-7.195536],[111.94269,-7.195545],[111.942696,-7.195554],[111.942702,-7.195563],[111.942708,-7.195572],[111.942714,-7.195582],[111.94272,-7.195591],[111.942725,-7.195601],[111.942731,-7.19561],[111.942736,-7.19562],[111.942741,-7.19563],[111.942746,-7.19564],[111.94275,-7.19565],[111.942755,-7.19566],[111.942759,-7.19567],[111.942763,-7.19568],[111.942767,-7.195691],[111.942771,-7.195701],[111.942774,-7.195711],[111.942778,-7.195722],[111.942781,-7.195732],[111.942784,-7.195743],[111.942787,-7.195754],[111.94279,-7.195764],[111.942792,-7.195775],[111.942794,-7.195786],[111.942796,-7.195797],[111.942798,-7.195808],[111.9428,-7.195819],[111.942801,-7.195829],[111.942803,-7.19584],[111.942804,-7.195851],[111.942805,-7.195862],[111.942806,-7.195873],[111.942806,-7.195884],[111.942807,-7.195895],[111.942807,-7.195906],[111.942807,-7.195917],[111.942806,-7.195928],[111.942806,-7.195939],[111.942805,-7.195951],[111.942805,-7.195962],[111.942804,-7.195973],[111.942803,-7.195983],[111.942801,-7.195994],[111.9428,-7.196005],[111.942798,-7.196016],[111.942796,-7.196027],[111.942794,-7.196038],[111.942792,-7.196049],[111.942789,-7.196059],[111.942786,-7.19607],[111.942783,-7.196081],[111.94278,-7.196091],[111.942777,-7.196102],[111.942774,-7.196112],[111.94277,-7.196123],[111.942766,-7.196133],[111.942762,-7.196143],[111.942758,-7.196154],[111.942754,-7.196164],[111.942749,-7.196174],[111.942745,-7.196184],[111.94274,-7.196194],[111.942735,-7.196204],[111.94273,-7.196213],[111.942724,-7.196223],[111.942719,-7.196233],[111.942713,-7.196242],[111.942707,-7.196251],[111.942701,-7.196261],[111.942695,-7.19627],[111.942689,-7.196279],[111.942682,-7.196288],[111.942676,-7.196297],[111.942669,-7.196305],[111.942662,-7.196314],[111.942655,-7.196322],[111.942647,-7.196331],[111.94264,-7.196339],[111.942632,-7.196347],[111.942625,-7.196355],[111.942617,-7.196363],[111.942609,-7.19637],[111.942601,-7.196378],[111.942591,-7.196386],[111.942581,-7.196395],[111.94257,-7.196403],[111.94256,-7.196411],[111.942549,-7.196419],[111.942538,-7.196426],[111.942527,-7.196434],[111.942516,-7.196441],[111.942505,-7.196448],[111.942494,-7.196455],[111.942482,-7.196462],[111.942471,-7.196468],[111.942459,-7.196475],[111.942447,-7.196481],[111.942435,-7.196487],[111.942423,-7.196492],[111.942411,-7.196498],[111.942399,-7.196503],[111.942387,-7.196508],[111.942375,-7.196513],[111.942362,-7.196518],[111.94235,-7.196522],[111.942337,-7.196527],[111.942325,-7.196531],[111.942312,-7.196535],[111.942299,-7.196538],[111.942286,-7.196542],[111.942273,-7.196545],[111.942944,-7.196387],[111.943066,-7.196358],[111.943102,-7.196349],[111.943157,-7.196336],[111.943193,-7.196328],[111.943269,-7.19631],[111.943352,-7.19629],[111.943436,-7.19627],[111.944694,-7.195976]]]]}}]}